0096007026999992016062218244+00000+000000FM-15+702699999V0209999C000019999999N999999999+03401+01801999999ADDMA1101731999999REMMET069MOBOB0 METAR 7026 //008 000000 221824Z AUTO 00000KT //// 34/18 A3004=
0096007026999992016062218294+00000+000000FM-15+702699999V0209999C000019999999N999999999+03501+01801999999ADDMA1101691999999REMMET069MOBOB0 METAR 7026 //008 000000 221829Z AUTO 00000KT //// 35/18 A3003=
0096007026999992016062218344+00000+000000FM-15+702699999V0209999C000019999999N999999999+03501+01801999999ADDMA1101691999999REMMET069MOBOB0 METAR 7026 //008 000000 221834Z AUTO 00000KT //// 35/18 A3003=
0096007026999992016062218394+00000+000000FM-15+702699999V0209999C000019999999N999999999+03601+01901999999ADDMA1101691999999REMMET069MOBOB0 METAR 7026 //008 000000 221839Z AUTO 00000KT //// 36/19 A3003=
0096007026999992016062218444+00000+000000FM-15+702699999V0209999C000019999999N999999999+03601+01901999999ADDMA1101691999999REMMET069MOBOB0 METAR 7026 //008 000000 221844Z AUTO 00000KT //// 36/19 A3003=
0096007026999992016062218494+00000+000000FM-15+702699999V0209999C000019999999N999999999+03501+01901999999ADDMA1101691999999REMMET069MOBOB0 METAR 7026 //008 000000 221849Z AUTO 00000KT //// 35/19 A3003=
0096007026999992016062218544+00000+000000FM-15+702699999V0209999C000019999999N999999999+03501+01801999999ADDMA1101661999999REMMET069MOBOB0 METAR 7026 //008 000000 221854Z AUTO 00000KT //// 35/18 A3002=
0096007026999992016062218594+00000+000000FM-15+702699999V0209999C000019999999N999999999+03601+01901999999ADDMA1101661999999REMMET069MOBOB0 METAR 7026 //008 000000 221859Z AUTO 00000KT //// 36/19 A3002=
0096007026999992016062219044+00000+000000FM-15+702699999V0209999C000019999999N999999999+03501+01901999999ADDMA1101661999999REMMET069MOBOB0 METAR 7026 //008 000000 221904Z AUTO 00000KT //// 35/19 A3002=
0096007026999992016062219094+00000+000000FM-15+702699999V0209999C000019999999N999999999+03601+01801999999ADDMA1101661999999REMMET069MOBOB0 METAR 7026 //008 000000 221909Z AUTO 00000KT //// 36/18 A3002=
0096007026999992016062219144+00000+000000FM-15+702699999V0209999C000019999999N999999999+03601+01901999999ADDMA1101661999999REMMET069MOBOB0 METAR 7026 //008 000000 221914Z AUTO 00000KT //// 36/19 A3002=
0096007026999992016062219194+00000+000000FM-15+702699999V0209999C000019999999N999999999+03601+01801999999ADDMA1101691999999REMMET069MOBOB0 METAR 7026 //008 000000 221919Z AUTO 00000KT //// 36/18 A3003=
0096007026999992016062219244+00000+000000FM-15+702699999V0209999C000019999999N999999999+03601+01901999999ADDMA1101661999999REMMET069MOBOB0 METAR 7026 //008 000000 221924Z AUTO 00000KT //// 36/19 A3002=
0096007026999992016062219294+00000+000000FM-15+702699999V0209999C000019999999N999999999+03601+01901999999ADDMA1101661999999REMMET069MOBOB0 METAR 7026 //008 000000 221929Z AUTO 00000KT //// 36/19 A3002=
0096007026999992016062219344+00000+000000FM-15+702699999V0209999C000019999999N999999999+03601+01901999999ADDMA1101661999999REMMET069MOBOB0 METAR 7026 //008 000000 221934Z AUTO 00000KT //// 36/19 A3002=
0096007026999992016062219394+00000+000000FM-15+702699999V0209999C000019999999N999999999+03501+01901999999ADDMA1101661999999REMMET069MOBOB0 METAR 7026 //008 000000 221939Z AUTO 00000KT //// 35/19 A3002=
0096007026999992016062219444+00000+000000FM-15+702699999V0209999C000019999999N999999999+03601+01901999999ADDMA1101661999999REMMET069MOBOB0 METAR 7026 //008 000000 221944Z AUTO 00000KT //// 36/19 A3002=
0096007026999992016062219494+00000+000000FM-15+702699999V0209999C000019999999N999999999+03501+01801999999ADDMA1101661999999REMMET069MOBOB0 METAR 7026 //008 000000 221949Z AUTO 00000KT //// 35/18 A3002=
0096007026999992016062219544+00000+000000FM-15+702699999V0209999C000019999999N999999999+03601+01801999999ADDMA1101661999999REMMET069MOBOB0 METAR 7026 //008 000000 221954Z AUTO 00000KT //// 36/18 A3002=
0096007026999992016062219594+00000+000000FM-15+702699999V0209999C000019999999N999999999+03701+02001999999ADDMA1101661999999REMMET069MOBOB0 METAR 7026 //008 000000 221959Z AUTO 00000KT //// 37/20 A3002=
0143007026999992016062220044+00000+000000FM-15+702699999V0209999C000012200019N009999199+03701+01901999999ADDGF100991999999999999999999MA1101661999999REMMET090MOBOB0 METAR 7026 //008 000000 222004Z AUTO 00000KT 9999 CLR 37/19 A3002 RMK CDP03661 CLR=
0143007026999992016062220094+00000+000000FM-15+702699999V0209999C000012200019N009999199+03701+01801999999ADDGF100991999999999999999999MA1101661999999REMMET090MOBOB0 METAR 7026 //008 000000 222009Z AUTO 00000KT 9999 CLR 37/18 A3002 RMK CDP03661 CLR=
0143007026999992016062220144+00000+000000FM-15+702699999V0209999C000012200019N009999199+03701+01901999999ADDGF100991999999999999999999MA1101661999999REMMET090MOBOB0 METAR 7026 //008 000000 222014Z AUTO 00000KT 9999 CLR 37/19 A3002 RMK CDP03661 CLR=
0143007026999992016062220194+00000+000000FM-15+702699999V0209999C000012200019N009999199+03701+01901999999ADDGF100991999999999999999999MA1101661999999REMMET090MOBOB0 METAR 7026 //008 000000 222019Z AUTO 00000KT 9999 CLR 37/19 A3002 RMK CDP03661 CLR=
0143007026999992016062220244+00000+000000FM-15+702699999V0209999C000012200019N009999199+03701+01901999999ADDGF100991999999999999999999MA1101661999999REMMET090MOBOB0 METAR 7026 //008 000000 222024Z AUTO 00000KT 9999 CLR 37/19 A3002 RMK CDP03661 CLR=
0143007026999992016062220294+00000+000000FM-15+702699999V0209999C000012200019N009999199+03701+01901999999ADDGF100991999999999999999999MA1101661999999REMMET090MOBOB0 METAR 7026 //008 000000 222029Z AUTO 00000KT 9999 CLR 37/19 A3002 RMK CDP03661 CLR=
0143007026999992016062220344+00000+000000FM-15+702699999V0209999C000012200019N009999199+03801+02001999999ADDGF100991999999999999999999MA1101661999999REMMET090MOBOB0 METAR 7026 //008 000000 222034Z AUTO 00000KT 9999 CLR 38/20 A3002 RMK CDP03661 CLR=
0199007026999992016062220394+00000+000000FM-15+702699999V0209999C000019999999N009999199+03601+01901999999ADDGA1021+032921999GE19MSL   +99999+99999GF199999021999032921999999MA1101661999999REMMET108MOBOB0 METAR 7026 //008 000000 222039Z AUTO 00000KT 9999 FEW108 36/19 A3002 RMK CDP03661 FEW108 CLD AVG 108=
0143007026999992016062220444+00000+000000FM-15+702699999V0209999C000012200019N009999199+03701+01901999999ADDGF100991999999999999999999MA1101661999999REMMET090MOBOB0 METAR 7026 //008 000000 222044Z AUTO 00000KT 9999 CLR 37/19 A3002 RMK CDP03661 CLR=
0143007026999992016062220494+00000+000000FM-15+702699999V0209999C000012200019N009999199+03701+01801999999ADDGF100991999999999999999999MA1101661999999REMMET090MOBOB0 METAR 7026 //008 000000 222049Z AUTO 00000KT 9999 CLR 37/18 A3002 RMK CDP03661 CLR=
0143007026999992016062220544+00000+000000FM-15+702699999V0209999C000012200019N009999199+03601+01901999999ADDGF100991999999999999999999MA1101661999999REMMET090MOBOB0 METAR 7026 //008 000000 222054Z AUTO 00000KT 9999 CLR 36/19 A3002 RMK CDP03661 CLR=
0143007026999992016062220594+00000+000000FM-15+702699999V0209999C000012200019N009999199+03701+02001999999ADDGF100991999999999999999999MA1101661999999REMMET090MOBOB0 METAR 7026 //008 000000 222059Z AUTO 00000KT 9999 CLR 37/20 A3002 RMK CDP03661 CLR=
0143007026999992016062221044+00000+000000FM-15+702699999V0209999C000012200019N009999199+03701+01901999999ADDGF100991999999999999999999MA1101661999999REMMET090MOBOB0 METAR 7026 //008 000000 222104Z AUTO 00000KT 9999 CLR 37/19 A3002 RMK CDP03661 CLR=
0143007026999992016062221094+00000+000000FM-15+702699999V0209999C000012200019N009999199+03601+01901999999ADDGF100991999999999999999999MA1101691999999REMMET090MOBOB0 METAR 7026 //008 000000 222109Z AUTO 00000KT 9999 CLR 36/19 A3003 RMK CDP03661 CLR=
0143007026999992016062221144+00000+000000FM-15+702699999V0209999C000012200019N009999199+03601+01901999999ADDGF100991999999999999999999MA1101661999999REMMET090MOBOB0 METAR 7026 //008 000000 222114Z AUTO 00000KT 9999 CLR 36/19 A3002 RMK CDP03661 CLR=
0143007026999992016062221194+00000+000000FM-15+702699999V0209999C000012200019N009999199+03601+01901999999ADDGF100991999999999999999999MA1101661999999REMMET090MOBOB0 METAR 7026 //008 000000 222119Z AUTO 00000KT 9999 CLR 36/19 A3002 RMK CDP03661 CLR=
0143007026999992016062221244+00000+000000FM-15+702699999V0209999C000012200019N009999199+03601+01901999999ADDGF100991999999999999999999MA1101661999999REMMET090MOBOB0 METAR 7026 //008 000000 222124Z AUTO 00000KT 9999 CLR 36/19 A3002 RMK CDP03661 CLR=
0143007026999992016062221294+00000+000000FM-15+702699999V0209999C000012200019N009999199+03601+01901999999ADDGF100991999999999999999999MA1101661999999REMMET090MOBOB0 METAR 7026 //008 000000 222129Z AUTO 00000KT 9999 CLR 36/19 A3002 RMK CDP03661 CLR=
0143007026999992016062221344+00000+000000FM-15+702699999V0209999C000012200019N009999199+03601+01901999999ADDGF100991999999999999999999MA1101631999999REMMET090MOBOB0 METAR 7026 //008 000000 222134Z AUTO 00000KT 9999 CLR 36/19 A3001 RMK CDP03661 CLR=
0143007026999992016062221394+00000+000000FM-15+702699999V0209999C000012200019N009999199+03601+01901999999ADDGF100991999999999999999999MA1101631999999REMMET090MOBOB0 METAR 7026 //008 000000 222139Z AUTO 00000KT 9999 CLR 36/19 A3001 RMK CDP03661 CLR=
0143007026999992016062221444+00000+000000FM-15+702699999V0209999C000012200019N009999199+03601+02101999999ADDGF100991999999999999999999MA1101631999999REMMET090MOBOB0 METAR 7026 //008 000000 222144Z AUTO 00000KT 9999 CLR 36/21 A3001 RMK CDP03661 CLR=
0143007026999992016062221494+00000+000000FM-15+702699999V0209999C000012200019N009999199+03501+02001999999ADDGF100991999999999999999999MA1101591999999REMMET090MOBOB0 METAR 7026 //008 000000 222149Z AUTO 00000KT 9999 CLR 35/20 A3000 RMK CDP03661 CLR=
0143007026999992016062221544+00000+000000FM-15+702699999V0209999C000012200019N009999199+03501+01901999999ADDGF100991999999999999999999MA1101591999999REMMET090MOBOB0 METAR 7026 //008 000000 222154Z AUTO 00000KT 9999 CLR 35/19 A3000 RMK CDP03661 CLR=
0143007026999992016062221594+00000+000000FM-15+702699999V0209999C000012200019N009999199+03501+01901999999ADDGF100991999999999999999999MA1101631999999REMMET090MOBOB0 METAR 7026 //008 000000 222159Z AUTO 00000KT 9999 CLR 35/19 A3001 RMK CDP03661 CLR=
0143007026999992016062222044+00000+000000FM-15+702699999V0209999C000012200019N009999199+03501+01901999999ADDGF100991999999999999999999MA1101631999999REMMET090MOBOB0 METAR 7026 //008 000000 222204Z AUTO 00000KT 9999 CLR 35/19 A3001 RMK CDP03661 CLR=
0143007026999992016062222094+00000+000000FM-15+702699999V0209999C000012200019N009999199+03501+02001999999ADDGF100991999999999999999999MA1101631999999REMMET090MOBOB0 METAR 7026 //008 000000 222209Z AUTO 00000KT 9999 CLR 35/20 A3001 RMK CDP03661 CLR=
0143007026999992016062222144+00000+000000FM-15+702699999V0209999C000012200019N009999199+03401+02101999999ADDGF100991999999999999999999MA1101631999999REMMET090MOBOB0 METAR 7026 //008 000000 222214Z AUTO 00000KT 9999 CLR 34/21 A3001 RMK CDP03661 CLR=
0143007026999992016062222194+00000+000000FM-15+702699999V0209999C000012200019N009999199+03401+01901999999ADDGF100991999999999999999999MA1101631999999REMMET090MOBOB0 METAR 7026 //008 000000 222219Z AUTO 00000KT 9999 CLR 34/19 A3001 RMK CDP03661 CLR=
0143007026999992016062222244+00000+000000FM-15+702699999V0209999C000012200019N009999199+03401+02101999999ADDGF100991999999999999999999MA1101631999999REMMET090MOBOB0 METAR 7026 //008 000000 222224Z AUTO 00000KT 9999 CLR 34/21 A3001 RMK CDP03661 CLR=
0143007026999992016062222294+00000+000000FM-15+702699999V0209999C000012200019N009999199+03301+02001999999ADDGF100991999999999999999999MA1101631999999REMMET090MOBOB0 METAR 7026 //008 000000 222229Z AUTO 00000KT 9999 CLR 33/20 A3001 RMK CDP03661 CLR=
0143007026999992016062222344+00000+000000FM-15+702699999V0209999C000012200019N009999199+03401+02001999999ADDGF100991999999999999999999MA1101631999999REMMET090MOBOB0 METAR 7026 //008 000000 222234Z AUTO 00000KT 9999 CLR 34/20 A3001 RMK CDP03661 CLR=
0143007026999992016062222394+00000+000000FM-15+702699999V0209999C000012200019N009999199+03401+02001999999ADDGF100991999999999999999999MA1101631999999REMMET090MOBOB0 METAR 7026 //008 000000 222239Z AUTO 00000KT 9999 CLR 34/20 A3001 RMK CDP03661 CLR=
0143007026999992016062222444+00000+000000FM-15+702699999V0209999C000012200019N009999199+03401+01901999999ADDGF100991999999999999999999MA1101631999999REMMET090MOBOB0 METAR 7026 //008 000000 222244Z AUTO 00000KT 9999 CLR 34/19 A3001 RMK CDP03661 CLR=
0143007026999992016062222494+00000+000000FM-15+702699999V0209999C000012200019N009999199+03301+02101999999ADDGF100991999999999999999999MA1101631999999REMMET090MOBOB0 METAR 7026 //008 000000 222249Z AUTO 00000KT 9999 CLR 33/21 A3001 RMK CDP03661 CLR=
0143007026999992016062222544+00000+000000FM-15+702699999V0209999C000012200019N009999199+03301+02101999999ADDGF100991999999999999999999MA1101631999999REMMET090MOBOB0 METAR 7026 //008 000000 222254Z AUTO 00000KT 9999 CLR 33/21 A3001 RMK CDP03661 CLR=
0143007026999992016062222594+00000+000000FM-15+702699999V0209999C000012200019N009999199+03301+02001999999ADDGF100991999999999999999999MA1101631999999REMMET090MOBOB0 METAR 7026 //008 000000 222259Z AUTO 00000KT 9999 CLR 33/20 A3001 RMK CDP03661 CLR=
0143007026999992016062223044+00000+000000FM-15+702699999V0209999C000012200019N009999199+03301+02101999999ADDGF100991999999999999999999MA1101631999999REMMET090MOBOB0 METAR 7026 //008 000000 222304Z AUTO 00000KT 9999 CLR 33/21 A3001 RMK CDP03661 CLR=
0143007026999992016062223094+00000+000000FM-15+702699999V0209999C000012200019N009999199+03301+02001999999ADDGF100991999999999999999999MA1101631999999REMMET090MOBOB0 METAR 7026 //008 000000 222309Z AUTO 00000KT 9999 CLR 33/20 A3001 RMK CDP03661 CLR=
0143007026999992016062223144+00000+000000FM-15+702699999V0209999C000012200019N009999199+03201+02101999999ADDGF100991999999999999999999MA1101631999999REMMET090MOBOB0 METAR 7026 //008 000000 222314Z AUTO 00000KT 9999 CLR 32/21 A3001 RMK CDP03661 CLR=
0143007026999992016062223194+00000+000000FM-15+702699999V0209999C000012200019N009999199+03201+02101999999ADDGF100991999999999999999999MA1101661999999REMMET090MOBOB0 METAR 7026 //008 000000 222319Z AUTO 00000KT 9999 CLR 32/21 A3002 RMK CDP03661 CLR=
0143007026999992016062223244+00000+000000FM-15+702699999V0209999C000012200019N009999199+03201+02101999999ADDGF100991999999999999999999MA1101631999999REMMET090MOBOB0 METAR 7026 //008 000000 222324Z AUTO 00000KT 9999 CLR 32/21 A3001 RMK CDP03661 CLR=
0143007026999992016062223294+00000+000000FM-15+702699999V0209999C000012200019N009999199+03101+02101999999ADDGF100991999999999999999999MA1101661999999REMMET090MOBOB0 METAR 7026 //008 000000 222329Z AUTO 00000KT 9999 CLR 31/21 A3002 RMK CDP03661 CLR=
0143007026999992016062223344+00000+000000FM-15+702699999V0209999C000012200019N009999199+03101+02101999999ADDGF100991999999999999999999MA1101661999999REMMET090MOBOB0 METAR 7026 //008 000000 222334Z AUTO 00000KT 9999 CLR 31/21 A3002 RMK CDP03661 CLR=
0143007026999992016062223394+00000+000000FM-15+702699999V0209999C000012200019N009999199+03101+02101999999ADDGF100991999999999999999999MA1101661999999REMMET090MOBOB0 METAR 7026 //008 000000 222339Z AUTO 00000KT 9999 CLR 31/21 A3002 RMK CDP03661 CLR=
0143007026999992016062223444+00000+000000FM-15+702699999V0209999C000012200019N009999199+03101+02101999999ADDGF100991999999999999999999MA1101661999999REMMET090MOBOB0 METAR 7026 //008 000000 222344Z AUTO 00000KT 9999 CLR 31/21 A3002 RMK CDP03661 CLR=
0143007026999992016062223494+00000+000000FM-15+702699999V0209999C000012200019N009999199+03101+02101999999ADDGF100991999999999999999999MA1101661999999REMMET090MOBOB0 METAR 7026 //008 000000 222349Z AUTO 00000KT 9999 CLR 31/21 A3002 RMK CDP03661 CLR=
0143007026999992016062223544+00000+000000FM-15+702699999V0209999C000012200019N009999199+03101+02101999999ADDGF100991999999999999999999MA1101661999999REMMET090MOBOB0 METAR 7026 //008 000000 222354Z AUTO 00000KT 9999 CLR 31/21 A3002 RMK CDP03661 CLR=
0143007026999992016062223594+00000+000000FM-15+702699999V0209999C000012200019N009999199+03101+02101999999ADDGF100991999999999999999999MA1101661999999REMMET090MOBOB0 METAR 7026 //008 000000 222359Z AUTO 00000KT 9999 CLR 31/21 A3002 RMK CDP03661 CLR=
0143007026999992016062300044+00000+000000FM-15+702699999V0209999C000012200019N009999199+03101+02101999999ADDGF100991999999999999999999MA1101661999999REMMET090MOBOB0 METAR 7026 //008 000000 230004Z AUTO 00000KT 9999 CLR 31/21 A3002 RMK CDP03661 CLR=
0143007026999992016062300094+00000+000000FM-15+702699999V0209999C000012200019N009999199+03101+02101999999ADDGF100991999999999999999999MA1101661999999REMMET090MOBOB0 METAR 7026 //008 000000 230009Z AUTO 00000KT 9999 CLR 31/21 A3002 RMK CDP03661 CLR=
0143007026999992016062300144+00000+000000FM-15+702699999V0209999C000012200019N009999199+03101+02101999999ADDGF100991999999999999999999MA1101661999999REMMET090MOBOB0 METAR 7026 //008 000000 230014Z AUTO 00000KT 9999 CLR 31/21 A3002 RMK CDP03661 CLR=
0143007026999992016062300194+00000+000000FM-15+702699999V0209999C000012200019N009999199+03001+02101999999ADDGF100991999999999999999999MA1101661999999REMMET090MOBOB0 METAR 7026 //008 000000 230019Z AUTO 00000KT 9999 CLR 30/21 A3002 RMK CDP03661 CLR=
0143007026999992016062300244+00000+000000FM-15+702699999V0209999C000012200019N009999199+03001+02101999999ADDGF100991999999999999999999MA1101661999999REMMET090MOBOB0 METAR 7026 //008 000000 230024Z AUTO 00000KT 9999 CLR 30/21 A3002 RMK CDP03661 CLR=
0143007026999992016062300294+00000+000000FM-15+702699999V0209999C000012200019N009999199+03001+02101999999ADDGF100991999999999999999999MA1101661999999REMMET090MOBOB0 METAR 7026 //008 000000 230029Z AUTO 00000KT 9999 CLR 30/21 A3002 RMK CDP03661 CLR=
0143007026999992016062300344+00000+000000FM-15+702699999V0209999C000012200019N009999199+03001+02101999999ADDGF100991999999999999999999MA1101661999999REMMET090MOBOB0 METAR 7026 //008 000000 230034Z AUTO 00000KT 9999 CLR 30/21 A3002 RMK CDP03661 CLR=
0143007026999992016062300394+00000+000000FM-15+702699999V0209999C000012200019N009999199+03001+02101999999ADDGF100991999999999999999999MA1101661999999REMMET090MOBOB0 METAR 7026 //008 000000 230039Z AUTO 00000KT 9999 CLR 30/21 A3002 RMK CDP03661 CLR=
0143007026999992016062300444+00000+000000FM-15+702699999V0209999C000012200019N009999199+03001+02101999999ADDGF100991999999999999999999MA1101661999999REMMET090MOBOB0 METAR 7026 //008 000000 230044Z AUTO 00000KT 9999 CLR 30/21 A3002 RMK CDP03661 CLR=
0143007026999992016062300494+00000+000000FM-15+702699999V0209999C000012200019N009999199+03001+02101999999ADDGF100991999999999999999999MA1101661999999REMMET090MOBOB0 METAR 7026 //008 000000 230049Z AUTO 00000KT 9999 CLR 30/21 A3002 RMK CDP03661 CLR=
0143007026999992016062300544+00000+000000FM-15+702699999V0209999C000012200019N009999199+03001+02101999999ADDGF100991999999999999999999MA1101661999999REMMET090MOBOB0 METAR 7026 //008 000000 230054Z AUTO 00000KT 9999 CLR 30/21 A3002 RMK CDP03661 CLR=
0143007026999992016062300594+00000+000000FM-15+702699999V0209999C000012200019N009999199+03001+02101999999ADDGF100991999999999999999999MA1101691999999REMMET090MOBOB0 METAR 7026 //008 000000 230059Z AUTO 00000KT 9999 CLR 30/21 A3003 RMK CDP03661 CLR=
0199007026999992016062301044+00000+000000FM-15+702699999V0209999C000019999999N009999199+03001+02101999999ADDGA1021+018591999GE19MSL   +99999+99999GF199999021999018591999999MA1101691999999REMMET108MOBOB0 METAR 7026 //008 000000 230104Z AUTO 00000KT 9999 FEW061 30/21 A3003 RMK CDP03661 FEW061 CLD AVG 061=
0199007026999992016062301094+00000+000000FM-15+702699999V0209999C000019999999N009999199+03001+02101999999ADDGA1021+019201999GE19MSL   +99999+99999GF199999021999019201999999MA1101691999999REMMET108MOBOB0 METAR 7026 //008 000000 230109Z AUTO 00000KT 9999 FEW063 30/21 A3003 RMK CDP03661 FEW063 CLD AVG 063=
0143007026999992016062301144+00000+000000FM-15+702699999V0209999C000012200019N009999199+03001+02101999999ADDGF100991999999999999999999MA1101691999999REMMET090MOBOB0 METAR 7026 //008 000000 230114Z AUTO 00000KT 9999 CLR 30/21 A3003 RMK CDP03661 CLR=
0143007026999992016062301194+00000+000000FM-15+702699999V0209999C000012200019N009999199+03001+02101999999ADDGF100991999999999999999999MA1101691999999REMMET090MOBOB0 METAR 7026 //008 000000 230119Z AUTO 00000KT 9999 CLR 30/21 A3003 RMK CDP03661 CLR=
0143007026999992016062301244+00000+000000FM-15+702699999V0209999C000012200019N009999199+03001+02101999999ADDGF100991999999999999999999MA1101691999999REMMET090MOBOB0 METAR 7026 //008 000000 230124Z AUTO 00000KT 9999 CLR 30/21 A3003 RMK CDP03661 CLR=
0143007026999992016062301294+00000+000000FM-15+702699999V0209999C000012200019N009999199+03001+02101999999ADDGF100991999999999999999999MA1101691999999REMMET090MOBOB0 METAR 7026 //008 000000 230129Z AUTO 00000KT 9999 CLR 30/21 A3003 RMK CDP03661 CLR=
0143007026999992016062301344+00000+000000FM-15+702699999V0209999C000012200019N009999199+03001+02201999999ADDGF100991999999999999999999MA1101691999999REMMET090MOBOB0 METAR 7026 //008 000000 230134Z AUTO 00000KT 9999 CLR 30/22 A3003 RMK CDP03661 CLR=
0143007026999992016062301394+00000+000000FM-15+702699999V0209999C000012200019N009999199+03001+02101999999ADDGF100991999999999999999999MA1101731999999REMMET090MOBOB0 METAR 7026 //008 000000 230139Z AUTO 00000KT 9999 CLR 30/21 A3004 RMK CDP03661 CLR=
0143007026999992016062301444+00000+000000FM-15+702699999V0209999C000012200019N009999199+03001+02201999999ADDGF100991999999999999999999MA1101731999999REMMET090MOBOB0 METAR 7026 //008 000000 230144Z AUTO 00000KT 9999 CLR 30/22 A3004 RMK CDP03661 CLR=
0143007026999992016062301494+00000+000000FM-15+702699999V0209999C000012200019N009999199+03001+02201999999ADDGF100991999999999999999999MA1101731999999REMMET090MOBOB0 METAR 7026 //008 000000 230149Z AUTO 00000KT 9999 CLR 30/22 A3004 RMK CDP03661 CLR=
0143007026999992016062301544+00000+000000FM-15+702699999V0209999C000012200019N009999199+03001+02201999999ADDGF100991999999999999999999MA1101731999999REMMET090MOBOB0 METAR 7026 //008 000000 230154Z AUTO 00000KT 9999 CLR 30/22 A3004 RMK CDP03661 CLR=
0143007026999992016062301594+00000+000000FM-15+702699999V0209999C000012200019N009999199+03001+02201999999ADDGF100991999999999999999999MA1101731999999REMMET090MOBOB0 METAR 7026 //008 000000 230159Z AUTO 00000KT 9999 CLR 30/22 A3004 RMK CDP03661 CLR=
0143007026999992016062302044+00000+000000FM-15+702699999V0209999C000012200019N009999199+03001+02201999999ADDGF100991999999999999999999MA1101731999999REMMET090MOBOB0 METAR 7026 //008 000000 230204Z AUTO 00000KT 9999 CLR 30/22 A3004 RMK CDP03661 CLR=
0143007026999992016062302094+00000+000000FM-15+702699999V0209999C000012200019N009999199+03001+02201999999ADDGF100991999999999999999999MA1101761999999REMMET090MOBOB0 METAR 7026 //008 000000 230209Z AUTO 00000KT 9999 CLR 30/22 A3005 RMK CDP03661 CLR=
0143007026999992016062302144+00000+000000FM-15+702699999V0209999C000012200019N009999199+03001+02201999999ADDGF100991999999999999999999MA1101761999999REMMET090MOBOB0 METAR 7026 //008 000000 230214Z AUTO 00000KT 9999 CLR 30/22 A3005 RMK CDP03661 CLR=
0143007026999992016062302194+00000+000000FM-15+702699999V0209999C000012200019N009999199+03001+02201999999ADDGF100991999999999999999999MA1101761999999REMMET090MOBOB0 METAR 7026 //008 000000 230219Z AUTO 00000KT 9999 CLR 30/22 A3005 RMK CDP03661 CLR=
0143007026999992016062302244+00000+000000FM-15+702699999V0209999C000012200019N009999199+03001+02201999999ADDGF100991999999999999999999MA1101761999999REMMET090MOBOB0 METAR 7026 //008 000000 230224Z AUTO 00000KT 9999 CLR 30/22 A3005 RMK CDP03661 CLR=
0143007026999992016062302294+00000+000000FM-15+702699999V0209999C000012200019N009999199+03001+02201999999ADDGF100991999999999999999999MA1101761999999REMMET090MOBOB0 METAR 7026 //008 000000 230229Z AUTO 00000KT 9999 CLR 30/22 A3005 RMK CDP03661 CLR=
0143007026999992016062302344+00000+000000FM-15+702699999V0209999C000012200019N009999199+03001+02201999999ADDGF100991999999999999999999MA1101761999999REMMET090MOBOB0 METAR 7026 //008 000000 230234Z AUTO 00000KT 9999 CLR 30/22 A3005 RMK CDP03661 CLR=
0143007026999992016062302394+00000+000000FM-15+702699999V0209999C000012200019N009999199+03001+02201999999ADDGF100991999999999999999999MA1101761999999REMMET090MOBOB0 METAR 7026 //008 000000 230239Z AUTO 00000KT 9999 CLR 30/22 A3005 RMK CDP03661 CLR=
0143007026999992016062302444+00000+000000FM-15+702699999V0209999C000012200019N009999199+03001+02201999999ADDGF100991999999999999999999MA1101761999999REMMET090MOBOB0 METAR 7026 //008 000000 230244Z AUTO 00000KT 9999 CLR 30/22 A3005 RMK CDP03661 CLR=
0143007026999992016062302494+00000+000000FM-15+702699999V0209999C000012200019N009999199+03001+02201999999ADDGF100991999999999999999999MA1101761999999REMMET090MOBOB0 METAR 7026 //008 000000 230249Z AUTO 00000KT 9999 CLR 30/22 A3005 RMK CDP03661 CLR=
0143007026999992016062302544+00000+000000FM-15+702699999V0209999C000012200019N009999199+03001+02201999999ADDGF100991999999999999999999MA1101761999999REMMET090MOBOB0 METAR 7026 //008 000000 230254Z AUTO 00000KT 9999 CLR 30/22 A3005 RMK CDP03661 CLR=
0143007026999992016062302594+00000+000000FM-15+702699999V0209999C000012200019N009999199+03001+02201999999ADDGF100991999999999999999999MA1101761999999REMMET090MOBOB0 METAR 7026 //008 000000 230259Z AUTO 00000KT 9999 CLR 30/22 A3005 RMK CDP03661 CLR=
0143007026999992016062303044+00000+000000FM-15+702699999V0209999C000012200019N009999199+03001+02201999999ADDGF100991999999999999999999MA1101761999999REMMET090MOBOB0 METAR 7026 //008 000000 230304Z AUTO 00000KT 9999 CLR 30/22 A3005 RMK CDP03661 CLR=
0143007026999992016062303094+00000+000000FM-15+702699999V0209999C000012200019N009999199+02901+02201999999ADDGF100991999999999999999999MA1101761999999REMMET090MOBOB0 METAR 7026 //008 000000 230309Z AUTO 00000KT 9999 CLR 29/22 A3005 RMK CDP03661 CLR=
0143007026999992016062303144+00000+000000FM-15+702699999V0209999C000012200019N009999199+02901+02201999999ADDGF100991999999999999999999MA1101761999999REMMET090MOBOB0 METAR 7026 //008 000000 230314Z AUTO 00000KT 9999 CLR 29/22 A3005 RMK CDP03661 CLR=
0143007026999992016062303194+00000+000000FM-15+702699999V0209999C000012200019N009999199+02901+02201999999ADDGF100991999999999999999999MA1101761999999REMMET090MOBOB0 METAR 7026 //008 000000 230319Z AUTO 00000KT 9999 CLR 29/22 A3005 RMK CDP03661 CLR=
0143007026999992016062303244+00000+000000FM-15+702699999V0209999C000012200019N009999199+03001+02201999999ADDGF100991999999999999999999MA1101761999999REMMET090MOBOB0 METAR 7026 //008 000000 230324Z AUTO 00000KT 9999 CLR 30/22 A3005 RMK CDP03661 CLR=
0143007026999992016062303294+00000+000000FM-15+702699999V0209999C000012200019N009999199+03001+02201999999ADDGF100991999999999999999999MA1101761999999REMMET090MOBOB0 METAR 7026 //008 000000 230329Z AUTO 00000KT 9999 CLR 30/22 A3005 RMK CDP03661 CLR=
0143007026999992016062303344+00000+000000FM-15+702699999V0209999C000012200019N009999199+03001+02201999999ADDGF100991999999999999999999MA1101761999999REMMET090MOBOB0 METAR 7026 //008 000000 230334Z AUTO 00000KT 9999 CLR 30/22 A3005 RMK CDP03661 CLR=
0143007026999992016062303394+00000+000000FM-15+702699999V0209999C000012200019N009999199+02901+02201999999ADDGF100991999999999999999999MA1101761999999REMMET090MOBOB0 METAR 7026 //008 000000 230339Z AUTO 00000KT 9999 CLR 29/22 A3005 RMK CDP03661 CLR=
0143007026999992016062303444+00000+000000FM-15+702699999V0209999C000012200019N009999199+02901+02201999999ADDGF100991999999999999999999MA1101761999999REMMET090MOBOB0 METAR 7026 //008 000000 230344Z AUTO 00000KT 9999 CLR 29/22 A3005 RMK CDP03661 CLR=
0143007026999992016062303494+00000+000000FM-15+702699999V0209999C000012200019N009999199+02901+02201999999ADDGF100991999999999999999999MA1101761999999REMMET090MOBOB0 METAR 7026 //008 000000 230349Z AUTO 00000KT 9999 CLR 29/22 A3005 RMK CDP03661 CLR=
0143007026999992016062303544+00000+000000FM-15+702699999V0209999C000012200019N009999199+02901+02201999999ADDGF100991999999999999999999MA1101761999999REMMET090MOBOB0 METAR 7026 //008 000000 230354Z AUTO 00000KT 9999 CLR 29/22 A3005 RMK CDP03661 CLR=
0143007026999992016062303594+00000+000000FM-15+702699999V0209999C000012200019N009999199+02901+02201999999ADDGF100991999999999999999999MA1101761999999REMMET090MOBOB0 METAR 7026 //008 000000 230359Z AUTO 00000KT 9999 CLR 29/22 A3005 RMK CDP03661 CLR=
0143007026999992016062304044+00000+000000FM-15+702699999V0209999C000012200019N009999199+02901+02201999999ADDGF100991999999999999999999MA1101761999999REMMET090MOBOB0 METAR 7026 //008 000000 230404Z AUTO 00000KT 9999 CLR 29/22 A3005 RMK CDP03661 CLR=
0143007026999992016062304094+00000+000000FM-15+702699999V0209999C000012200019N009999199+02901+02201999999ADDGF100991999999999999999999MA1101761999999REMMET090MOBOB0 METAR 7026 //008 000000 230409Z AUTO 00000KT 9999 CLR 29/22 A3005 RMK CDP03661 CLR=
0143007026999992016062304144+00000+000000FM-15+702699999V0209999C000012200019N009999199+02901+02201999999ADDGF100991999999999999999999MA1101731999999REMMET090MOBOB0 METAR 7026 //008 000000 230414Z AUTO 00000KT 9999 CLR 29/22 A3004 RMK CDP03661 CLR=
0143007026999992016062304194+00000+000000FM-15+702699999V0209999C000012200019N009999199+02901+02201999999ADDGF100991999999999999999999MA1101731999999REMMET090MOBOB0 METAR 7026 //008 000000 230419Z AUTO 00000KT 9999 CLR 29/22 A3004 RMK CDP03661 CLR=
0143007026999992016062304244+00000+000000FM-15+702699999V0209999C000012200019N009999199+02901+02201999999ADDGF100991999999999999999999MA1101731999999REMMET090MOBOB0 METAR 7026 //008 000000 230424Z AUTO 00000KT 9999 CLR 29/22 A3004 RMK CDP03661 CLR=
0143007026999992016062304294+00000+000000FM-15+702699999V0209999C000012200019N009999199+02901+02201999999ADDGF100991999999999999999999MA1101691999999REMMET090MOBOB0 METAR 7026 //008 000000 230429Z AUTO 00000KT 9999 CLR 29/22 A3003 RMK CDP03661 CLR=
0143007026999992016062304344+00000+000000FM-15+702699999V0209999C000012200019N009999199+02901+02201999999ADDGF100991999999999999999999MA1101691999999REMMET090MOBOB0 METAR 7026 //008 000000 230434Z AUTO 00000KT 9999 CLR 29/22 A3003 RMK CDP03661 CLR=
0143007026999992016062304394+00000+000000FM-15+702699999V0209999C000012200019N009999199+02901+02201999999ADDGF100991999999999999999999MA1101691999999REMMET090MOBOB0 METAR 7026 //008 000000 230439Z AUTO 00000KT 9999 CLR 29/22 A3003 RMK CDP03661 CLR=
0143007026999992016062304444+00000+000000FM-15+702699999V0209999C000012200019N009999199+02901+02201999999ADDGF100991999999999999999999MA1101691999999REMMET090MOBOB0 METAR 7026 //008 000000 230444Z AUTO 00000KT 9999 CLR 29/22 A3003 RMK CDP03661 CLR=
0143007026999992016062304494+00000+000000FM-15+702699999V0209999C000012200019N009999199+02901+02201999999ADDGF100991999999999999999999MA1101661999999REMMET090MOBOB0 METAR 7026 //008 000000 230449Z AUTO 00000KT 9999 CLR 29/22 A3002 RMK CDP03661 CLR=
0143007026999992016062304544+00000+000000FM-15+702699999V0209999C000012200019N009999199+02901+02201999999ADDGF100991999999999999999999MA1101691999999REMMET090MOBOB0 METAR 7026 //008 000000 230454Z AUTO 00000KT 9999 CLR 29/22 A3003 RMK CDP03661 CLR=
0143007026999992016062304594+00000+000000FM-15+702699999V0209999C000012200019N009999199+02901+02201999999ADDGF100991999999999999999999MA1101691999999REMMET090MOBOB0 METAR 7026 //008 000000 230459Z AUTO 00000KT 9999 CLR 29/22 A3003 RMK CDP03661 CLR=
0143007026999992016062305044+00000+000000FM-15+702699999V0209999C000012200019N009999199+02901+02201999999ADDGF100991999999999999999999MA1101691999999REMMET090MOBOB0 METAR 7026 //008 000000 230504Z AUTO 00000KT 9999 CLR 29/22 A3003 RMK CDP03661 CLR=
0143007026999992016062305094+00000+000000FM-15+702699999V0209999C000012200019N009999199+02801+02201999999ADDGF100991999999999999999999MA1101661999999REMMET090MOBOB0 METAR 7026 //008 000000 230509Z AUTO 00000KT 9999 CLR 28/22 A3002 RMK CDP03661 CLR=
0143007026999992016062305144+00000+000000FM-15+702699999V0209999C000012200019N009999199+02801+02201999999ADDGF100991999999999999999999MA1101661999999REMMET090MOBOB0 METAR 7026 //008 000000 230514Z AUTO 00000KT 9999 CLR 28/22 A3002 RMK CDP03661 CLR=
0143007026999992016062305194+00000+000000FM-15+702699999V0209999C000012200019N009999199+02801+02201999999ADDGF100991999999999999999999MA1101661999999REMMET090MOBOB0 METAR 7026 //008 000000 230519Z AUTO 00000KT 9999 CLR 28/22 A3002 RMK CDP03661 CLR=
0143007026999992016062305244+00000+000000FM-15+702699999V0209999C000012200019N009999199+02801+02201999999ADDGF100991999999999999999999MA1101661999999REMMET090MOBOB0 METAR 7026 //008 000000 230524Z AUTO 00000KT 9999 CLR 28/22 A3002 RMK CDP03661 CLR=
0143007026999992016062305294+00000+000000FM-15+702699999V0209999C000012200019N009999199+02801+02201999999ADDGF100991999999999999999999MA1101661999999REMMET090MOBOB0 METAR 7026 //008 000000 230529Z AUTO 00000KT 9999 CLR 28/22 A3002 RMK CDP03661 CLR=
0143007026999992016062305344+00000+000000FM-15+702699999V0209999C000012200019N009999199+02801+02201999999ADDGF100991999999999999999999MA1101691999999REMMET090MOBOB0 METAR 7026 //008 000000 230534Z AUTO 00000KT 9999 CLR 28/22 A3003 RMK CDP03661 CLR=
0143007026999992016062305394+00000+000000FM-15+702699999V0209999C000012200019N009999199+02801+02201999999ADDGF100991999999999999999999MA1101691999999REMMET090MOBOB0 METAR 7026 //008 000000 230539Z AUTO 00000KT 9999 CLR 28/22 A3003 RMK CDP03661 CLR=
0143007026999992016062305444+00000+000000FM-15+702699999V0209999C000012200019N009999199+02801+02201999999ADDGF100991999999999999999999MA1101691999999REMMET090MOBOB0 METAR 7026 //008 000000 230544Z AUTO 00000KT 9999 CLR 28/22 A3003 RMK CDP03661 CLR=
0143007026999992016062305494+00000+000000FM-15+702699999V0209999C000012200019N009999199+02801+02201999999ADDGF100991999999999999999999MA1101691999999REMMET090MOBOB0 METAR 7026 //008 000000 230549Z AUTO 00000KT 9999 CLR 28/22 A3003 RMK CDP03661 CLR=
0143007026999992016062305544+00000+000000FM-15+702699999V0209999C000012200019N009999199+02801+02201999999ADDGF100991999999999999999999MA1101691999999REMMET090MOBOB0 METAR 7026 //008 000000 230554Z AUTO 00000KT 9999 CLR 28/22 A3003 RMK CDP03661 CLR=
0143007026999992016062305594+00000+000000FM-15+702699999V0209999C000012200019N009999199+02801+02201999999ADDGF100991999999999999999999MA1101691999999REMMET090MOBOB0 METAR 7026 //008 000000 230559Z AUTO 00000KT 9999 CLR 28/22 A3003 RMK CDP03661 CLR=
0143007026999992016062306044+00000+000000FM-15+702699999V0209999C000012200019N009999199+02801+02201999999ADDGF100991999999999999999999MA1101691999999REMMET090MOBOB0 METAR 7026 //008 000000 230604Z AUTO 00000KT 9999 CLR 28/22 A3003 RMK CDP03661 CLR=
0143007026999992016062306094+00000+000000FM-15+702699999V0209999C000012200019N009999199+02801+02201999999ADDGF100991999999999999999999MA1101691999999REMMET090MOBOB0 METAR 7026 //008 000000 230609Z AUTO 00000KT 9999 CLR 28/22 A3003 RMK CDP03661 CLR=
0143007026999992016062306144+00000+000000FM-15+702699999V0209999C000012200019N009999199+02801+02201999999ADDGF100991999999999999999999MA1101661999999REMMET090MOBOB0 METAR 7026 //008 000000 230614Z AUTO 00000KT 9999 CLR 28/22 A3002 RMK CDP03661 CLR=
0143007026999992016062306194+00000+000000FM-15+702699999V0209999C000012200019N009999199+02801+02201999999ADDGF100991999999999999999999MA1101661999999REMMET090MOBOB0 METAR 7026 //008 000000 230619Z AUTO 00000KT 9999 CLR 28/22 A3002 RMK CDP03661 CLR=
0143007026999992016062306244+00000+000000FM-15+702699999V0209999C000012200019N009999199+02801+02201999999ADDGF100991999999999999999999MA1101661999999REMMET090MOBOB0 METAR 7026 //008 000000 230624Z AUTO 00000KT 9999 CLR 28/22 A3002 RMK CDP03661 CLR=
0143007026999992016062306294+00000+000000FM-15+702699999V0209999C000012200019N009999199+02801+02201999999ADDGF100991999999999999999999MA1101661999999REMMET090MOBOB0 METAR 7026 //008 000000 230629Z AUTO 00000KT 9999 CLR 28/22 A3002 RMK CDP03661 CLR=
0143007026999992016062306344+00000+000000FM-15+702699999V0209999C000012200019N009999199+02801+02201999999ADDGF100991999999999999999999MA1101661999999REMMET090MOBOB0 METAR 7026 //008 000000 230634Z AUTO 00000KT 9999 CLR 28/22 A3002 RMK CDP03661 CLR=
0143007026999992016062306394+00000+000000FM-15+702699999V0209999C000012200019N009999199+02801+02201999999ADDGF100991999999999999999999MA1101661999999REMMET090MOBOB0 METAR 7026 //008 000000 230639Z AUTO 00000KT 9999 CLR 28/22 A3002 RMK CDP03661 CLR=
0143007026999992016062306444+00000+000000FM-15+702699999V0209999C000012200019N009999199+02801+02201999999ADDGF100991999999999999999999MA1101661999999REMMET090MOBOB0 METAR 7026 //008 000000 230644Z AUTO 00000KT 9999 CLR 28/22 A3002 RMK CDP03661 CLR=
0143007026999992016062306494+00000+000000FM-15+702699999V0209999C000012200019N009999199+02801+02201999999ADDGF100991999999999999999999MA1101661999999REMMET090MOBOB0 METAR 7026 //008 000000 230649Z AUTO 00000KT 9999 CLR 28/22 A3002 RMK CDP03661 CLR=
0143007026999992016062306544+00000+000000FM-15+702699999V0209999C000012200019N009999199+02801+02201999999ADDGF100991999999999999999999MA1101661999999REMMET090MOBOB0 METAR 7026 //008 000000 230654Z AUTO 00000KT 9999 CLR 28/22 A3002 RMK CDP03661 CLR=
0143007026999992016062306594+00000+000000FM-15+702699999V0209999C000012200019N009999199+02801+02201999999ADDGF100991999999999999999999MA1101661999999REMMET090MOBOB0 METAR 7026 //008 000000 230659Z AUTO 00000KT 9999 CLR 28/22 A3002 RMK CDP03661 CLR=
0143007026999992016062307044+00000+000000FM-15+702699999V0209999C000012200019N009999199+02801+02201999999ADDGF100991999999999999999999MA1101661999999REMMET090MOBOB0 METAR 7026 //008 000000 230704Z AUTO 00000KT 9999 CLR 28/22 A3002 RMK CDP03661 CLR=
0143007026999992016062307094+00000+000000FM-15+702699999V0209999C000012200019N009999199+02801+02101999999ADDGF100991999999999999999999MA1101661999999REMMET090MOBOB0 METAR 7026 //008 000000 230709Z AUTO 00000KT 9999 CLR 28/21 A3002 RMK CDP03661 CLR=
0143007026999992016062307144+00000+000000FM-15+702699999V0209999C000012200019N009999199+02801+02201999999ADDGF100991999999999999999999MA1101661999999REMMET090MOBOB0 METAR 7026 //008 000000 230714Z AUTO 00000KT 9999 CLR 28/22 A3002 RMK CDP03661 CLR=
0143007026999992016062307194+00000+000000FM-15+702699999V0209999C000012200019N009999199+02801+02101999999ADDGF100991999999999999999999MA1101631999999REMMET090MOBOB0 METAR 7026 //008 000000 230719Z AUTO 00000KT 9999 CLR 28/21 A3001 RMK CDP03661 CLR=
0143007026999992016062307244+00000+000000FM-15+702699999V0209999C000012200019N009999199+02801+02101999999ADDGF100991999999999999999999MA1101631999999REMMET090MOBOB0 METAR 7026 //008 000000 230724Z AUTO 00000KT 9999 CLR 28/21 A3001 RMK CDP03661 CLR=
0143007026999992016062307294+00000+000000FM-15+702699999V0209999C000012200019N009999199+02801+02101999999ADDGF100991999999999999999999MA1101631999999REMMET090MOBOB0 METAR 7026 //008 000000 230729Z AUTO 00000KT 9999 CLR 28/21 A3001 RMK CDP03661 CLR=
0143007026999992016062307344+00000+000000FM-15+702699999V0209999C000012200019N009999199+02801+02101999999ADDGF100991999999999999999999MA1101631999999REMMET090MOBOB0 METAR 7026 //008 000000 230734Z AUTO 00000KT 9999 CLR 28/21 A3001 RMK CDP03661 CLR=
0143007026999992016062307394+00000+000000FM-15+702699999V0209999C000012200019N009999199+02801+02101999999ADDGF100991999999999999999999MA1101631999999REMMET090MOBOB0 METAR 7026 //008 000000 230739Z AUTO 00000KT 9999 CLR 28/21 A3001 RMK CDP03661 CLR=
0143007026999992016062307444+00000+000000FM-15+702699999V0209999C000012200019N009999199+02801+02101999999ADDGF100991999999999999999999MA1101631999999REMMET090MOBOB0 METAR 7026 //008 000000 230744Z AUTO 00000KT 9999 CLR 28/21 A3001 RMK CDP03661 CLR=
0143007026999992016062307494+00000+000000FM-15+702699999V0209999C000012200019N009999199+02801+02101999999ADDGF100991999999999999999999MA1101631999999REMMET090MOBOB0 METAR 7026 //008 000000 230749Z AUTO 00000KT 9999 CLR 28/21 A3001 RMK CDP03661 CLR=
0143007026999992016062307544+00000+000000FM-15+702699999V0209999C000012200019N009999199+02701+02101999999ADDGF100991999999999999999999MA1101631999999REMMET090MOBOB0 METAR 7026 //008 000000 230754Z AUTO 00000KT 9999 CLR 27/21 A3001 RMK CDP03661 CLR=
0143007026999992016062307594+00000+000000FM-15+702699999V0209999C000012200019N009999199+02701+02101999999ADDGF100991999999999999999999MA1101631999999REMMET090MOBOB0 METAR 7026 //008 000000 230759Z AUTO 00000KT 9999 CLR 27/21 A3001 RMK CDP03661 CLR=
0143007026999992016062308054+00000+000000FM-15+702699999V0209999C000012200019N009999199+02701+02101999999ADDGF100991999999999999999999MA1101631999999REMMET090MOBOB0 METAR 7026 //008 000000 230805Z AUTO 00000KT 9999 CLR 27/21 A3001 RMK CDP03661 CLR=
0143007026999992016062308094+00000+000000FM-15+702699999V0209999C000012200019N009999199+02701+02101999999ADDGF100991999999999999999999MA1101631999999REMMET090MOBOB0 METAR 7026 //008 000000 230809Z AUTO 00000KT 9999 CLR 27/21 A3001 RMK CDP03661 CLR=
0143007026999992016062308144+00000+000000FM-15+702699999V0209999C000012200019N009999199+02701+02101999999ADDGF100991999999999999999999MA1101631999999REMMET090MOBOB0 METAR 7026 //008 000000 230814Z AUTO 00000KT 9999 CLR 27/21 A3001 RMK CDP03661 CLR=
0143007026999992016062308194+00000+000000FM-15+702699999V0209999C000012200019N009999199+02701+02101999999ADDGF100991999999999999999999MA1101631999999REMMET090MOBOB0 METAR 7026 //008 000000 230819Z AUTO 00000KT 9999 CLR 27/21 A3001 RMK CDP03661 CLR=
0143007026999992016062308244+00000+000000FM-15+702699999V0209999C000012200019N009999199+02701+02101999999ADDGF100991999999999999999999MA1101631999999REMMET090MOBOB0 METAR 7026 //008 000000 230824Z AUTO 00000KT 9999 CLR 27/21 A3001 RMK CDP03661 CLR=
0143007026999992016062308294+00000+000000FM-15+702699999V0209999C000012200019N009999199+02701+02101999999ADDGF100991999999999999999999MA1101631999999REMMET090MOBOB0 METAR 7026 //008 000000 230829Z AUTO 00000KT 9999 CLR 27/21 A3001 RMK CDP03661 CLR=
0143007026999992016062308344+00000+000000FM-15+702699999V0209999C000012200019N009999199+02701+02101999999ADDGF100991999999999999999999MA1101631999999REMMET090MOBOB0 METAR 7026 //008 000000 230834Z AUTO 00000KT 9999 CLR 27/21 A3001 RMK CDP03661 CLR=
0143007026999992016062308394+00000+000000FM-15+702699999V0209999C000012200019N009999199+02701+02101999999ADDGF100991999999999999999999MA1101661999999REMMET090MOBOB0 METAR 7026 //008 000000 230839Z AUTO 00000KT 9999 CLR 27/21 A3002 RMK CDP03661 CLR=
0143007026999992016062308444+00000+000000FM-15+702699999V0209999C000012200019N009999199+02701+02101999999ADDGF100991999999999999999999MA1101661999999REMMET090MOBOB0 METAR 7026 //008 000000 230844Z AUTO 00000KT 9999 CLR 27/21 A3002 RMK CDP03661 CLR=
0143007026999992016062308494+00000+000000FM-15+702699999V0209999C000012200019N009999199+02701+02101999999ADDGF100991999999999999999999MA1101661999999REMMET090MOBOB0 METAR 7026 //008 000000 230849Z AUTO 00000KT 9999 CLR 27/21 A3002 RMK CDP03661 CLR=
0143007026999992016062308544+00000+000000FM-15+702699999V0209999C000012200019N009999199+02701+02101999999ADDGF100991999999999999999999MA1101661999999REMMET090MOBOB0 METAR 7026 //008 000000 230854Z AUTO 00000KT 9999 CLR 27/21 A3002 RMK CDP03661 CLR=
0143007026999992016062308594+00000+000000FM-15+702699999V0209999C000012200019N009999199+02701+02101999999ADDGF100991999999999999999999MA1101661999999REMMET090MOBOB0 METAR 7026 //008 000000 230859Z AUTO 00000KT 9999 CLR 27/21 A3002 RMK CDP03661 CLR=
0143007026999992016062309044+00000+000000FM-15+702699999V0209999C000012200019N009999199+02701+02101999999ADDGF100991999999999999999999MA1101631999999REMMET090MOBOB0 METAR 7026 //008 000000 230904Z AUTO 00000KT 9999 CLR 27/21 A3001 RMK CDP03661 CLR=
0143007026999992016062309104+00000+000000FM-15+702699999V0209999C000012200019N009999199+02701+02101999999ADDGF100991999999999999999999MA1101661999999REMMET090MOBOB0 METAR 7026 //008 000000 230910Z AUTO 00000KT 9999 CLR 27/21 A3002 RMK CDP03661 CLR=
0199007026999992016062309194+00000+000000FM-15+702699999V0209999C000019999999N009999199+02701+02101999999ADDGA1021+020121999GE19MSL   +99999+99999GF199999021999020121999999MA1101661999999REMMET108MOBOB0 METAR 7026 //008 000000 230919Z AUTO 00000KT 9999 FEW066 27/21 A3002 RMK CDP03661 FEW066 CLD AVG 067=
0199007026999992016062309244+00000+000000FM-15+702699999V0209999C000019999999N009999199+02701+02101999999ADDGA1021+020121999GE19MSL   +99999+99999GF199999021999020121999999MA1101661999999REMMET108MOBOB0 METAR 7026 //008 000000 230924Z AUTO 00000KT 9999 FEW066 27/21 A3002 RMK CDP03661 FEW066 CLD AVG 067=
0143007026999992016062309294+00000+000000FM-15+702699999V0209999C000012200019N009999199+02701+02101999999ADDGF100991999999999999999999MA1101661999999REMMET090MOBOB0 METAR 7026 //008 000000 230929Z AUTO 00000KT 9999 CLR 27/21 A3002 RMK CDP03661 CLR=
0143007026999992016062309344+00000+000000FM-15+702699999V0209999C000012200019N009999199+02701+02101999999ADDGF100991999999999999999999MA1101661999999REMMET090MOBOB0 METAR 7026 //008 000000 230934Z AUTO 00000KT 9999 CLR 27/21 A3002 RMK CDP03661 CLR=
0143007026999992016062309394+00000+000000FM-15+702699999V0209999C000012200019N009999199+02701+02101999999ADDGF100991999999999999999999MA1101661999999REMMET090MOBOB0 METAR 7026 //008 000000 230939Z AUTO 00000KT 9999 CLR 27/21 A3002 RMK CDP03661 CLR=
0143007026999992016062309444+00000+000000FM-15+702699999V0209999C000012200019N009999199+02701+02101999999ADDGF100991999999999999999999MA1101661999999REMMET090MOBOB0 METAR 7026 //008 000000 230944Z AUTO 00000KT 9999 CLR 27/21 A3002 RMK CDP03661 CLR=
0143007026999992016062309494+00000+000000FM-15+702699999V0209999C000012200019N009999199+02701+02101999999ADDGF100991999999999999999999MA1101661999999REMMET090MOBOB0 METAR 7026 //008 000000 230949Z AUTO 00000KT 9999 CLR 27/21 A3002 RMK CDP03661 CLR=
0143007026999992016062309544+00000+000000FM-15+702699999V0209999C000012200019N009999199+02701+02101999999ADDGF100991999999999999999999MA1101661999999REMMET090MOBOB0 METAR 7026 //008 000000 230954Z AUTO 00000KT 9999 CLR 27/21 A3002 RMK CDP03661 CLR=
0143007026999992016062309594+00000+000000FM-15+702699999V0209999C000012200019N009999199+02701+02101999999ADDGF100991999999999999999999MA1101661999999REMMET090MOBOB0 METAR 7026 //008 000000 230959Z AUTO 00000KT 9999 CLR 27/21 A3002 RMK CDP03661 CLR=
0199007026999992016062310044+00000+000000FM-15+702699999V0209999C000019999999N009999199+02701+02001999999ADDGA1021+034751999GE19MSL   +99999+99999GF199999021999034751999999MA1101661999999REMMET108MOBOB0 METAR 7026 //008 000000 231004Z AUTO 00000KT 9999 FEW114 27/20 A3002 RMK CDP03661 FEW114 CLD AVG 114=
0143007026999992016062310094+00000+000000FM-15+702699999V0209999C000012200019N009999199+02701+02001999999ADDGF100991999999999999999999MA1101661999999REMMET090MOBOB0 METAR 7026 //008 000000 231009Z AUTO 00000KT 9999 CLR 27/20 A3002 RMK CDP03661 CLR=
0143007026999992016062310144+00000+000000FM-15+702699999V0209999C000012200019N009999199+02701+02001999999ADDGF100991999999999999999999MA1101661999999REMMET090MOBOB0 METAR 7026 //008 000000 231014Z AUTO 00000KT 9999 CLR 27/20 A3002 RMK CDP03661 CLR=
0143007026999992016062310194+00000+000000FM-15+702699999V0209999C000012200019N009999199+02701+02001999999ADDGF100991999999999999999999MA1101661999999REMMET090MOBOB0 METAR 7026 //008 000000 231019Z AUTO 00000KT 9999 CLR 27/20 A3002 RMK CDP03661 CLR=
0143007026999992016062310244+00000+000000FM-15+702699999V0209999C000012200019N009999199+02701+02001999999ADDGF100991999999999999999999MA1101661999999REMMET090MOBOB0 METAR 7026 //008 000000 231024Z AUTO 00000KT 9999 CLR 27/20 A3002 RMK CDP03661 CLR=
0199007026999992016062310294+00000+000000FM-15+702699999V0209999C000019999999N009999199+02701+02001999999ADDGA1021+026211999GE19MSL   +99999+99999GF199999021999026211999999MA1101661999999REMMET108MOBOB0 METAR 7026 //008 000000 231029Z AUTO 00000KT 9999 FEW086 27/20 A3002 RMK CDP03661 FEW086 CLD AVG 086=
0143007026999992016062310344+00000+000000FM-15+702699999V0209999C000012200019N009999199+02701+02001999999ADDGF100991999999999999999999MA1101661999999REMMET090MOBOB0 METAR 7026 //008 000000 231034Z AUTO 00000KT 9999 CLR 27/20 A3002 RMK CDP03661 CLR=
0143007026999992016062310394+00000+000000FM-15+702699999V0209999C000012200019N009999199+02701+02001999999ADDGF100991999999999999999999MA1101661999999REMMET090MOBOB0 METAR 7026 //008 000000 231039Z AUTO 00000KT 9999 CLR 27/20 A3002 RMK CDP03661 CLR=
0143007026999992016062310444+00000+000000FM-15+702699999V0209999C000012200019N009999199+02601+02001999999ADDGF100991999999999999999999MA1101661999999REMMET090MOBOB0 METAR 7026 //008 000000 231044Z AUTO 00000KT 9999 CLR 26/20 A3002 RMK CDP03661 CLR=
0143007026999992016062310494+00000+000000FM-15+702699999V0209999C000012200019N009999199+02701+02101999999ADDGF100991999999999999999999MA1101661999999REMMET090MOBOB0 METAR 7026 //008 000000 231049Z AUTO 00000KT 9999 CLR 27/21 A3002 RMK CDP03661 CLR=
0143007026999992016062310544+00000+000000FM-15+702699999V0209999C000012200019N009999199+02601+02001999999ADDGF100991999999999999999999MA1101661999999REMMET090MOBOB0 METAR 7026 //008 000000 231054Z AUTO 00000KT 9999 CLR 26/20 A3002 RMK CDP03661 CLR=
0143007026999992016062310594+00000+000000FM-15+702699999V0209999C000012200019N009999199+02601+02101999999ADDGF100991999999999999999999MA1101661999999REMMET090MOBOB0 METAR 7026 //008 000000 231059Z AUTO 00000KT 9999 CLR 26/21 A3002 RMK CDP03661 CLR=
0143007026999992016062311044+00000+000000FM-15+702699999V0209999C000012200019N009999199+02601+02001999999ADDGF100991999999999999999999MA1101661999999REMMET090MOBOB0 METAR 7026 //008 000000 231104Z AUTO 00000KT 9999 CLR 26/20 A3002 RMK CDP03661 CLR=
0143007026999992016062311094+00000+000000FM-15+702699999V0209999C000012200019N009999199+02701+02001999999ADDGF100991999999999999999999MA1101661999999REMMET090MOBOB0 METAR 7026 //008 000000 231109Z AUTO 00000KT 9999 CLR 27/20 A3002 RMK CDP03661 CLR=
0143007026999992016062311144+00000+000000FM-15+702699999V0209999C000012200019N009999199+02701+02001999999ADDGF100991999999999999999999MA1101661999999REMMET090MOBOB0 METAR 7026 //008 000000 231114Z AUTO 00000KT 9999 CLR 27/20 A3002 RMK CDP03661 CLR=
0143007026999992016062311194+00000+000000FM-15+702699999V0209999C000012200019N009999199+02701+02101999999ADDGF100991999999999999999999MA1101661999999REMMET090MOBOB0 METAR 7026 //008 000000 231119Z AUTO 00000KT 9999 CLR 27/21 A3002 RMK CDP03661 CLR=
0143007026999992016062311244+00000+000000FM-15+702699999V0209999C000012200019N009999199+02701+02001999999ADDGF100991999999999999999999MA1101661999999REMMET090MOBOB0 METAR 7026 //008 000000 231124Z AUTO 00000KT 9999 CLR 27/20 A3002 RMK CDP03661 CLR=
0143007026999992016062311294+00000+000000FM-15+702699999V0209999C000012200019N009999199+02701+02001999999ADDGF100991999999999999999999MA1101661999999REMMET090MOBOB0 METAR 7026 //008 000000 231129Z AUTO 00000KT 9999 CLR 27/20 A3002 RMK CDP03661 CLR=
0143007026999992016062311344+00000+000000FM-15+702699999V0209999C000012200019N009999199+02701+02001999999ADDGF100991999999999999999999MA1101661999999REMMET090MOBOB0 METAR 7026 //008 000000 231134Z AUTO 00000KT 9999 CLR 27/20 A3002 RMK CDP03661 CLR=
0143007026999992016062311394+00000+000000FM-15+702699999V0209999C000012200019N009999199+02701+02001999999ADDGF100991999999999999999999MA1101661999999REMMET090MOBOB0 METAR 7026 //008 000000 231139Z AUTO 00000KT 9999 CLR 27/20 A3002 RMK CDP03661 CLR=
0143007026999992016062311444+00000+000000FM-15+702699999V0209999C000012200019N009999199+02701+02001999999ADDGF100991999999999999999999MA1101661999999REMMET090MOBOB0 METAR 7026 //008 000000 231144Z AUTO 00000KT 9999 CLR 27/20 A3002 RMK CDP03661 CLR=
0143007026999992016062311494+00000+000000FM-15+702699999V0209999C000012200019N009999199+02701+02001999999ADDGF100991999999999999999999MA1101661999999REMMET090MOBOB0 METAR 7026 //008 000000 231149Z AUTO 00000KT 9999 CLR 27/20 A3002 RMK CDP03661 CLR=
0143007026999992016062311544+00000+000000FM-15+702699999V0209999C000012200019N009999199+02701+02001999999ADDGF100991999999999999999999MA1101661999999REMMET090MOBOB0 METAR 7026 //008 000000 231154Z AUTO 00000KT 9999 CLR 27/20 A3002 RMK CDP03661 CLR=
0199007026999992016062311594+00000+000000FM-15+702699999V0209999C000019999999N009999199+02701+02001999999ADDGA1021+020731999GE19MSL   +99999+99999GF199999021999020731999999MA1101661999999REMMET108MOBOB0 METAR 7026 //008 000000 231159Z AUTO 00000KT 9999 FEW068 27/20 A3002 RMK CDP03661 FEW068 CLD AVG 068=
0143007026999992016062312044+00000+000000FM-15+702699999V0209999C000012200019N009999199+02801+02001999999ADDGF100991999999999999999999MA1101661999999REMMET090MOBOB0 METAR 7026 //008 000000 231204Z AUTO 00000KT 9999 CLR 28/20 A3002 RMK CDP03661 CLR=
0143007026999992016062312144+00000+000000FM-15+702699999V0209999C000012200019N009999199+02801+02001999999ADDGF100991999999999999999999MA1101661999999REMMET090MOBOB0 METAR 7026 //008 000000 231214Z AUTO 00000KT 9999 CLR 28/20 A3002 RMK CDP03661 CLR=
0143007026999992016062312294+00000+000000FM-15+702699999V0209999C000012200019N009999199+02801+02001999999ADDGF100991999999999999999999MA1101691999999REMMET090MOBOB0 METAR 7026 //008 000000 231229Z AUTO 00000KT 9999 CLR 28/20 A3003 RMK CDP03661 CLR=
0143007026999992016062312444+00000+000000FM-15+702699999V0209999C000012200019N009999199+02801+02001999999ADDGF100991999999999999999999MA1101731999999REMMET090MOBOB0 METAR 7026 //008 000000 231244Z AUTO 00000KT 9999 CLR 28/20 A3004 RMK CDP03661 CLR=
0143007026999992016062312594+00000+000000FM-15+702699999V0209999C000012200019N009999199+02901+02001999999ADDGF100991999999999999999999MA1101761999999REMMET090MOBOB0 METAR 7026 //008 000000 231259Z AUTO 00000KT 9999 CLR 29/20 A3005 RMK CDP03661 CLR=
0143007026999992016062313144+00000+000000FM-15+702699999V0209999C000012200019N009999199+03001+02001999999ADDGF100991999999999999999999MA1101791999999REMMET090MOBOB0 METAR 7026 //008 000000 231314Z AUTO 00000KT 9999 CLR 30/20 A3006 RMK CDP03661 CLR=
0143007026999992016062313294+00000+000000FM-15+702699999V0209999C000012200019N009999199+03001+02001999999ADDGF100991999999999999999999MA1101791999999REMMET090MOBOB0 METAR 7026 //008 000000 231329Z AUTO 00000KT 9999 CLR 30/20 A3006 RMK CDP03661 CLR=
0143007026999992016062313444+00000+000000FM-15+702699999V0209999C000012200019N009999199+03101+02001999999ADDGF100991999999999999999999MA1101791999999REMMET090MOBOB0 METAR 7026 //008 000000 231344Z AUTO 00000KT 9999 CLR 31/20 A3006 RMK CDP03661 CLR=
0143007026999992016062313594+00000+000000FM-15+702699999V0209999C000012200019N009999199+03101+02101999999ADDGF100991999999999999999999MA1101791999999REMMET090MOBOB0 METAR 7026 //008 000000 231359Z AUTO 00000KT 9999 CLR 31/21 A3006 RMK CDP03661 CLR=
0143007026999992016062314144+00000+000000FM-15+702699999V0209999C000012200019N999999999+03101+02001999999ADDGF100991999999999999999999MA1101791999999REMMET090MOBOB0 METAR 7026 //008 000000 231414Z AUTO 00000KT //// CLR 31/20 A3006 RMK CDP03661 CLR=
0143007026999992016062314294+00000+000000FM-15+702699999V0209999C000012200019N009999199+03201+02001999999ADDGF100991999999999999999999MA1101831999999REMMET090MOBOB0 METAR 7026 //008 000000 231429Z AUTO 00000KT 9999 CLR 32/20 A3007 RMK CDP03661 CLR=
0143007026999992016062314444+00000+000000FM-15+702699999V0209999C000012200019N009999199+03301+02101999999ADDGF100991999999999999999999MA1101831999999REMMET090MOBOB0 METAR 7026 //008 000000 231444Z AUTO 00000KT 9999 CLR 33/21 A3007 RMK CDP03661 CLR=
0143007026999992016062314594+00000+000000FM-15+702699999V0209999C000012200019N009999199+03401+02101999999ADDGF100991999999999999999999MA1101831999999REMMET090MOBOB0 METAR 7026 //008 000000 231459Z AUTO 00000KT 9999 CLR 34/21 A3007 RMK CDP03661 CLR=
0143007026999992016062315144+00000+000000FM-15+702699999V0209999C000012200019N999999999+03401+02001999999ADDGF100991999999999999999999MA1101791999999REMMET090MOBOB0 METAR 7026 //008 000000 231514Z AUTO 00000KT //// CLR 34/20 A3006 RMK CDP03661 CLR=
0143007026999992016062315294+00000+000000FM-15+702699999V0209999C000012200019N009999199+03501+02101999999ADDGF100991999999999999999999MA1101761999999REMMET090MOBOB0 METAR 7026 //008 000000 231529Z AUTO 00000KT 9999 CLR 35/21 A3005 RMK CDP03661 CLR=
0143007026999992016062315444+00000+000000FM-15+702699999V0209999C000012200019N009999199+03401+02101999999ADDGF100991999999999999999999MA1101731999999REMMET090MOBOB0 METAR 7026 //008 000000 231544Z AUTO 00000KT 9999 CLR 34/21 A3004 RMK CDP03661 CLR=
0143007026999992016062315594+00000+000000FM-15+702699999V0209999C000012200019N999999999+03401+02101999999ADDGF100991999999999999999999MA1101661999999REMMET090MOBOB0 METAR 7026 //008 000000 231559Z AUTO 00000KT //// CLR 34/21 A3002 RMK CDP03661 CLR=
0143007026999992016062316144+00000+000000FM-15+702699999V0209999C000012200019N009999199+03501+02101999999ADDGF100991999999999999999999MA1101631999999REMMET090MOBOB0 METAR 7026 //008 000000 231614Z AUTO 00000KT 9999 CLR 35/21 A3001 RMK CDP03661 CLR=
0143007026999992016062316294+00000+000000FM-15+702699999V0209999C000012200019N009999199+03501+02101999999ADDGF100991999999999999999999MA1101631999999REMMET090MOBOB0 METAR 7026 //008 000000 231629Z AUTO 00000KT 9999 CLR 35/21 A3001 RMK CDP03661 CLR=
0143007026999992016062316444+00000+000000FM-15+702699999V0209999C000012200019N009999199+03601+02101999999ADDGF100991999999999999999999MA1101591999999REMMET090MOBOB0 METAR 7026 //008 000000 231644Z AUTO 00000KT 9999 CLR 36/21 A3000 RMK CDP03661 CLR=
0143007026999992016062316594+00000+000000FM-15+702699999V0209999C000012200019N009999199+03501+02001999999ADDGF100991999999999999999999MA1101591999999REMMET090MOBOB0 METAR 7026 //008 000000 231659Z AUTO 00000KT 9999 CLR 35/20 A3000 RMK CDP03661 CLR=
0143007026999992016062317144+00000+000000FM-15+702699999V0209999C000012200019N009999199+03601+02101999999ADDGF100991999999999999999999MA1101561999999REMMET090MOBOB0 METAR 7026 //008 000000 231714Z AUTO 00000KT 9999 CLR 36/21 A2999 RMK CDP03661 CLR=
0143007026999992016062317294+00000+000000FM-15+702699999V0209999C000012200019N999999999+03601+02001999999ADDGF100991999999999999999999MA1101521999999REMMET090MOBOB0 METAR 7026 //008 000000 231729Z AUTO 00000KT //// CLR 36/20 A2998 RMK CDP03661 CLR=
0143007026999992016062317444+00000+000000FM-15+702699999V0209999C000012200019N009999199+03601+02001999999ADDGF100991999999999999999999MA1101521999999REMMET090MOBOB0 METAR 7026 //008 000000 231744Z AUTO 00000KT 9999 CLR 36/20 A2998 RMK CDP03661 CLR=
0143007026999992016062317594+00000+000000FM-15+702699999V0209999C000012200019N009999199+03601+02001999999ADDGF100991999999999999999999MA1101521999999REMMET090MOBOB0 METAR 7026 //008 000000 231759Z AUTO 00000KT 9999 CLR 36/20 A2998 RMK CDP03661 CLR=
0199007026999992016062318144+00000+000000FM-15+702699999V0209999C000019999999N009999199+03601+02101999999ADDGA1041+020421999GE19MSL   +99999+99999GF199999041999020421999999MA1101491999999REMMET108MOBOB0 METAR 7026 //008 000000 231814Z AUTO 00000KT 9999 SCT067 36/21 A2997 RMK CDP03661 SCT067 CLD AVG 069=
0199007026999992016062318294+00000+000000FM-15+702699999V0209999C000019999999N009999199+03601+02101999999ADDGA1021+019201999GE19MSL   +99999+99999GF199999021999019201999999MA1101491999999REMMET108MOBOB0 METAR 7026 //008 000000 231829Z AUTO 00000KT 9999 FEW063 36/21 A2997 RMK CDP03661 FEW063 CLD AVG 063=
0199007026999992016062318444+00000+000000FM-15+702699999V0209999C000019999999N009999199+03701+02201999999ADDGA1021+017981999GE19MSL   +99999+99999GF199999021999017981999999MA1101461999999REMMET108MOBOB0 METAR 7026 //008 000000 231844Z AUTO 00000KT 9999 FEW059 37/22 A2996 RMK CDP03661 FEW059 CLD AVG 060=
0143007026999992016062318594+00000+000000FM-15+702699999V0209999C000012200019N009999199+03701+02101999999ADDGF100991999999999999999999MA1101491999999REMMET090MOBOB0 METAR 7026 //008 000000 231859Z AUTO 00000KT 9999 CLR 37/21 A2997 RMK CDP03661 CLR=
0143007026999992016062319144+00000+000000FM-15+702699999V0209999C000012200019N009999199+03701+02101999999ADDGF100991999999999999999999MA1101491999999REMMET090MOBOB0 METAR 7026 //008 000000 231914Z AUTO 00000KT 9999 CLR 37/21 A2997 RMK CDP03661 CLR=
0143007026999992016062319294+00000+000000FM-15+702699999V0209999C000012200019N009999199+03701+02001999999ADDGF100991999999999999999999MA1101461999999REMMET090MOBOB0 METAR 7026 //008 000000 231929Z AUTO 00000KT 9999 CLR 37/20 A2996 RMK CDP03661 CLR=
0143007026999992016062319444+00000+000000FM-15+702699999V0209999C000012200019N009999199+03701+02101999999ADDGF100991999999999999999999MA1101461999999REMMET090MOBOB0 METAR 7026 //008 000000 231944Z AUTO 00000KT 9999 CLR 37/21 A2996 RMK CDP03661 CLR=
0143007026999992016062319594+00000+000000FM-15+702699999V0209999C000012200019N009999199+03601+02001999999ADDGF100991999999999999999999MA1101421999999REMMET090MOBOB0 METAR 7026 //008 000000 231959Z AUTO 00000KT 9999 CLR 36/20 A2995 RMK CDP03661 CLR=
0143007026999992016062320144+00000+000000FM-15+702699999V0209999C000012200019N009999199+03601+02101999999ADDGF100991999999999999999999MA1101421999999REMMET090MOBOB0 METAR 7026 //008 000000 232014Z AUTO 00000KT 9999 CLR 36/21 A2995 RMK CDP03661 CLR=
0143007026999992016062320294+00000+000000FM-15+702699999V0209999C000012200019N009999199+03601+02101999999ADDGF100991999999999999999999MA1101391999999REMMET090MOBOB0 METAR 7026 //008 000000 232029Z AUTO 00000KT 9999 CLR 36/21 A2994 RMK CDP03661 CLR=
0143007026999992016062320444+00000+000000FM-15+702699999V0209999C000012200019N009999199+03601+02001999999ADDGF100991999999999999999999MA1101391999999REMMET090MOBOB0 METAR 7026 //008 000000 232044Z AUTO 00000KT 9999 CLR 36/20 A2994 RMK CDP03661 CLR=
0143007026999992016062320594+00000+000000FM-15+702699999V0209999C000012200019N009999199+03601+02001999999ADDGF100991999999999999999999MA1101421999999REMMET090MOBOB0 METAR 7026 //008 000000 232059Z AUTO 00000KT 9999 CLR 36/20 A2995 RMK CDP03661 CLR=
0143007026999992016062321144+00000+000000FM-15+702699999V0209999C000012200019N009999199+03601+02101999999ADDGF100991999999999999999999MA1101391999999REMMET090MOBOB0 METAR 7026 //008 000000 232114Z AUTO 00000KT 9999 CLR 36/21 A2994 RMK CDP03661 CLR=
0143007026999992016062321294+00000+000000FM-15+702699999V0209999C000012200019N009999199+03601+02101999999ADDGF100991999999999999999999MA1101321999999REMMET090MOBOB0 METAR 7026 //008 000000 232129Z AUTO 00000KT 9999 CLR 36/21 A2992 RMK CDP03661 CLR=
0143007026999992016062321444+00000+000000FM-15+702699999V0209999C000012200019N009999199+03601+02001999999ADDGF100991999999999999999999MA1101321999999REMMET090MOBOB0 METAR 7026 //008 000000 232144Z AUTO 00000KT 9999 CLR 36/20 A2992 RMK CDP03661 CLR=
0143007026999992016062321594+00000+000000FM-15+702699999V0209999C000012200019N009999199+03601+02101999999ADDGF100991999999999999999999MA1101291999999REMMET090MOBOB0 METAR 7026 //008 000000 232159Z AUTO 00000KT 9999 CLR 36/21 A2991 RMK CDP03661 CLR=
0143007026999992016062322144+00000+000000FM-15+702699999V0209999C000012200019N009999199+03501+02001999999ADDGF100991999999999999999999MA1101291999999REMMET090MOBOB0 METAR 7026 //008 000000 232214Z AUTO 00000KT 9999 CLR 35/20 A2991 RMK CDP03661 CLR=
0143007026999992016062322294+00000+000000FM-15+702699999V0209999C000012200019N009999199+03501+02001999999ADDGF100991999999999999999999MA1101321999999REMMET090MOBOB0 METAR 7026 //008 000000 232229Z AUTO 00000KT 9999 CLR 35/20 A2992 RMK CDP03661 CLR=
0143007026999992016062322444+00000+000000FM-15+702699999V0209999C000012200019N009999199+03501+02001999999ADDGF100991999999999999999999MA1101291999999REMMET090MOBOB0 METAR 7026 //008 000000 232244Z AUTO 00000KT 9999 CLR 35/20 A2991 RMK CDP03661 CLR=
0143007026999992016062322594+00000+000000FM-15+702699999V0209999C000012200019N009999199+03501+02001999999ADDGF100991999999999999999999MA1101321999999REMMET090MOBOB0 METAR 7026 //008 000000 232259Z AUTO 00000KT 9999 CLR 35/20 A2992 RMK CDP03661 CLR=
0143007026999992016062323144+00000+000000FM-15+702699999V0209999C000012200019N009999199+03501+02001999999ADDGF100991999999999999999999MA1101321999999REMMET090MOBOB0 METAR 7026 //008 000000 232314Z AUTO 00000KT 9999 CLR 35/20 A2992 RMK CDP03661 CLR=
0143007026999992016062323294+00000+000000FM-15+702699999V0209999C000012200019N009999199+03401+02001999999ADDGF100991999999999999999999MA1101351999999REMMET090MOBOB0 METAR 7026 //008 000000 232329Z AUTO 00000KT 9999 CLR 34/20 A2993 RMK CDP03661 CLR=
0143007026999992016062323444+00000+000000FM-15+702699999V0209999C000012200019N009999199+03401+02001999999ADDGF100991999999999999999999MA1101351999999REMMET090MOBOB0 METAR 7026 //008 000000 232344Z AUTO 00000KT 9999 CLR 34/20 A2993 RMK CDP03661 CLR=
0143007026999992016062323594+00000+000000FM-15+702699999V0209999C000012200019N009999199+03301+02001999999ADDGF100991999999999999999999MA1101391999999REMMET090MOBOB0 METAR 7026 //008 000000 232359Z AUTO 00000KT 9999 CLR 33/20 A2994 RMK CDP03661 CLR=
0143007026999992016062400144+00000+000000FM-15+702699999V0209999C000012200019N009999199+03301+02001999999ADDGF100991999999999999999999MA1101391999999REMMET090MOBOB0 METAR 7026 //008 000000 240014Z AUTO 00000KT 9999 CLR 33/20 A2994 RMK CDP03661 CLR=
0143007026999992016062400294+00000+000000FM-15+702699999V0209999C000012200019N009999199+03301+02001999999ADDGF100991999999999999999999MA1101391999999REMMET090MOBOB0 METAR 7026 //008 000000 240029Z AUTO 00000KT 9999 CLR 33/20 A2994 RMK CDP03661 CLR=
0143007026999992016062400444+00000+000000FM-15+702699999V0209999C000012200019N009999199+03201+02001999999ADDGF100991999999999999999999MA1101421999999REMMET090MOBOB0 METAR 7026 //008 000000 240044Z AUTO 00000KT 9999 CLR 32/20 A2995 RMK CDP03661 CLR=
0143007026999992016062400594+00000+000000FM-15+702699999V0209999C000012200019N009999199+03201+02001999999ADDGF100991999999999999999999MA1101461999999REMMET090MOBOB0 METAR 7026 //008 000000 240059Z AUTO 00000KT 9999 CLR 32/20 A2996 RMK CDP03661 CLR=
0143007026999992016062401144+00000+000000FM-15+702699999V0209999C000012200019N009999199+03201+02001999999ADDGF100991999999999999999999MA1101461999999REMMET090MOBOB0 METAR 7026 //008 000000 240114Z AUTO 00000KT 9999 CLR 32/20 A2996 RMK CDP03661 CLR=
0143007026999992016062401294+00000+000000FM-15+702699999V0209999C000012200019N009999199+03201+02001999999ADDGF100991999999999999999999MA1101461999999REMMET090MOBOB0 METAR 7026 //008 000000 240129Z AUTO 00000KT 9999 CLR 32/20 A2996 RMK CDP03661 CLR=
0143007026999992016062401444+00000+000000FM-15+702699999V0209999C000012200019N009999199+03101+02001999999ADDGF100991999999999999999999MA1101421999999REMMET090MOBOB0 METAR 7026 //008 000000 240144Z AUTO 00000KT 9999 CLR 31/20 A2995 RMK CDP03661 CLR=
0143007026999992016062401594+00000+000000FM-15+702699999V0209999C000012200019N009999199+03101+02001999999ADDGF100991999999999999999999MA1101491999999REMMET090MOBOB0 METAR 7026 //008 000000 240159Z AUTO 00000KT 9999 CLR 31/20 A2997 RMK CDP03661 CLR=
0143007026999992016062402144+00000+000000FM-15+702699999V0209999C000012200019N009999199+03101+01901999999ADDGF100991999999999999999999MA1101591999999REMMET090MOBOB0 METAR 7026 //008 000000 240214Z AUTO 00000KT 9999 CLR 31/19 A3000 RMK CDP03661 CLR=
0143007026999992016062402294+00000+000000FM-15+702699999V0209999C000012200019N999999999+03101+01901999999ADDGF100991999999999999999999MA1101631999999REMMET090MOBOB0 METAR 7026 //008 000000 240229Z AUTO 00000KT //// CLR 31/19 A3001 RMK CDP03661 CLR=
0143007026999992016062402444+00000+000000FM-15+702699999V0209999C000012200019N009999199+02901+02001999999ADDGF100991999999999999999999MA1101691999999REMMET090MOBOB0 METAR 7026 //008 000000 240244Z AUTO 00000KT 9999 CLR 29/20 A3003 RMK CDP03661 CLR=
0143007026999992016062402594+00000+000000FM-15+702699999V0209999C000012200019N009999199+02901+01901999999ADDGF100991999999999999999999MA1101691999999REMMET090MOBOB0 METAR 7026 //008 000000 240259Z AUTO 00000KT 9999 CLR 29/19 A3003 RMK CDP03661 CLR=
0143007026999992016062403144+00000+000000FM-15+702699999V0209999C000012200019N009999199+02601+01801999999ADDGF100991999999999999999999MA1101691999999REMMET090MOBOB0 METAR 7026 //008 000000 240314Z AUTO 00000KT 9999 CLR 26/18 A3003 RMK CDP03661 CLR=
0143007026999992016062403294+00000+000000FM-15+702699999V0209999C000012200019N009999199+02601+01801999999ADDGF100991999999999999999999MA1101761999999REMMET090MOBOB0 METAR 7026 //008 000000 240329Z AUTO 00000KT 9999 CLR 26/18 A3005 RMK CDP03661 CLR=
0143007026999992016062403444+00000+000000FM-15+702699999V0209999C000012200019N999999999+02601+01801999999ADDGF100991999999999999999999MA1101791999999REMMET090MOBOB0 METAR 7026 //008 000000 240344Z AUTO 00000KT //// CLR 26/18 A3006 RMK CDP03661 CLR=
0143007026999992016062403594+00000+000000FM-15+702699999V0209999C000012200019N999999999+02501+01701999999ADDGF100991999999999999999999MA1101761999999REMMET090MOBOB0 METAR 7026 //008 000000 240359Z AUTO 00000KT //// CLR 25/17 A3005 RMK CDP03661 CLR=
0199007026999992016062404144+00000+000000FM-15+702699999V0209999C000019999999N009999199+02501+01801999999ADDGA1021+033221999GE19MSL   +99999+99999GF199999021999033221999999MA1101791999999REMMET108MOBOB0 METAR 7026 //008 000000 240414Z AUTO 00000KT 9999 FEW109 25/18 A3006 RMK CDP03661 FEW109 CLD AVG 109=
0143007026999992016062404294+00000+000000FM-15+702699999V0209999C000012200019N999999999+02501+01801999999ADDGF100991999999999999999999MA1101901999999REMMET090MOBOB0 METAR 7026 //008 000000 240429Z AUTO 00000KT //// CLR 25/18 A3009 RMK CDP03661 CLR=
0152007026999992016062404444+00000+000000FM-15+702699999V0209999C000012200019N002000199+02301+02101999999ADDAW1621GF100991999999999999999999MA1101931999999REMMET093MOBOB0 METAR 7026 //008 000000 240444Z AUTO 00000KT 2000 RA CLR 23/21 A3010 RMK CDP03661 CLR=
0153007026999992016062404594+00000+000000FM-15+702699999V0209999C000012200019N001800199+02101+02101999999ADDAW1631GF100991999999999999999999MA1101961999999REMMET094MOBOB0 METAR 7026 //008 000000 240459Z AUTO 00000KT 1800 +RA CLR 21/21 A3011 RMK CDP03661 CLR=
0209007026999992016062405144+00000+000000FM-15+702699999V0209999C000019999999N008000199+02101+02101999999ADDAW1511GA1021+026211999GE19MSL   +99999+99999GF199999021999026211999999MA1101901999999REMMET112MOBOB0 METAR 7026 //008 000000 240514Z AUTO 00000KT 8000 -DZ FEW086 21/21 A3009 RMK CDP03661 FEW086 CLD AVG 086=
0153007026999992016062405294+00000+000000FM-15+702699999V0209999C000012200019N006000199+02101+02101999999ADDAW1611GF100991999999999999999999MA1101931999999REMMET094MOBOB0 METAR 7026 //008 000000 240529Z AUTO 00000KT 6000 -RA CLR 21/21 A3010 RMK CDP03661 CLR=
0153007026999992016062405444+00000+000000FM-15+702699999V0209999C000012200019N006000199+02101+02101999999ADDAW1611GF100991999999999999999999MA1101901999999REMMET094MOBOB0 METAR 7026 //008 000000 240544Z AUTO 00000KT 6000 -RA CLR 21/21 A3009 RMK CDP03661 CLR=
0199007026999992016062405594+00000+000000FM-15+702699999V0209999C000019999999N999999999+02101+02101999999ADDGA1021+026521999GE19MSL   +99999+99999GF199999021999026521999999MA1101861999999REMMET108MOBOB0 METAR 7026 //008 000000 240559Z AUTO 00000KT //// FEW087 21/21 A3008 RMK CDP03661 FEW087 CLD AVG 087=
0152007026999992016062406144+00000+000000FM-15+702699999V0209999C000012200019N009999199+02101+02101999999ADDAW1051GF100991999999999999999999MA1101831999999REMMET093MOBOB0 METAR 7026 //008 000000 240614Z AUTO 00000KT 9999 HZ CLR 21/21 A3007 RMK CDP03661 CLR=
0208007026999992016062406294+00000+000000FM-15+702699999V0209999C000019999999N009999199+02101+02101999999ADDAW1051GA1021+024991999GE19MSL   +99999+99999GF199999021999024991999999MA1101761999999REMMET111MOBOB0 METAR 7026 //008 000000 240629Z AUTO 00000KT 9999 HZ FEW082 21/21 A3005 RMK CDP03661 FEW082 CLD AVG 082=
0152007026999992016062406444+00000+000000FM-15+702699999V0209999C000012200019N009999199+02201+02001999999ADDAW1051GF100991999999999999999999MA1101761999999REMMET093MOBOB0 METAR 7026 //008 000000 240644Z AUTO 00000KT 9999 HZ CLR 22/20 A3005 RMK CDP03661 CLR=
0143007026999992016062406594+00000+000000FM-15+702699999V0209999C000012200019N999999999+02201+02001999999ADDGF100991999999999999999999MA1101661999999REMMET090MOBOB0 METAR 7026 //008 000000 240659Z AUTO 00000KT //// CLR 22/20 A3002 RMK CDP03661 CLR=
0153007026999992016062407144+00000+000000FM-15+702699999V0209999C000012200019N008000199+02101+02101999999ADDAW1511GF100991999999999999999999MA1101631999999REMMET094MOBOB0 METAR 7026 //008 000000 240714Z AUTO 00000KT 8000 -DZ CLR 21/21 A3001 RMK CDP03661 CLR=
0152007026999992016062407294+00000+000000FM-15+702699999V0209999C000012200019N009999199+02101+02001999999ADDAW1051GF100991999999999999999999MA1101561999999REMMET093MOBOB0 METAR 7026 //008 000000 240729Z AUTO 00000KT 9999 HZ CLR 21/20 A2999 RMK CDP03661 CLR=
0152007026999992016062407444+00000+000000FM-15+702699999V0209999C000012200019N009000199+02101+02001999999ADDAW1051GF100991999999999999999999MA1101521999999REMMET093MOBOB0 METAR 7026 //008 000000 240744Z AUTO 00000KT 9000 HZ CLR 21/20 A2998 RMK CDP03661 CLR=
0152007026999992016062407594+00000+000000FM-15+702699999V0209999C000012200019N009999199+02101+02101999999ADDAW1051GF100991999999999999999999MA1101491999999REMMET093MOBOB0 METAR 7026 //008 000000 240759Z AUTO 00000KT 9999 HZ CLR 21/21 A2997 RMK CDP03661 CLR=
0152007026999992016062408144+00000+000000FM-15+702699999V0209999C000012200019N009999199+02201+02001999999ADDAW1051GF100991999999999999999999MA1101461999999REMMET093MOBOB0 METAR 7026 //008 000000 240814Z AUTO 00000KT 9999 HZ CLR 22/20 A2996 RMK CDP03661 CLR=
0152007026999992016062408294+00000+000000FM-15+702699999V0209999C000012200019N009999199+02201+02001999999ADDAW1051GF100991999999999999999999MA1101421999999REMMET093MOBOB0 METAR 7026 //008 000000 240829Z AUTO 00000KT 9999 HZ CLR 22/20 A2995 RMK CDP03661 CLR=
0152007026999992016062408444+00000+000000FM-15+702699999V0209999C000012200019N009999199+02201+02001999999ADDAW1051GF100991999999999999999999MA1101461999999REMMET093MOBOB0 METAR 7026 //008 000000 240844Z AUTO 00000KT 9999 HZ CLR 22/20 A2996 RMK CDP03661 CLR=
0143007026999992016062408594+00000+000000FM-15+702699999V0209999C000012200019N009999199+02201+02001999999ADDGF100991999999999999999999MA1101521999999REMMET090MOBOB0 METAR 7026 //008 000000 240859Z AUTO 00000KT 9999 CLR 22/20 A2998 RMK CDP03661 CLR=
0152007026999992016062409144+00000+000000FM-15+702699999V0209999C000012200019N009999199+02201+02101999999ADDAW1051GF100991999999999999999999MA1101491999999REMMET093MOBOB0 METAR 7026 //008 000000 240914Z AUTO 00000KT 9999 HZ CLR 22/21 A2997 RMK CDP03661 CLR=
0152007026999992016062409294+00000+000000FM-15+702699999V0209999C000012200019N009999199+02101+02001999999ADDAW1051GF100991999999999999999999MA1101491999999REMMET093MOBOB0 METAR 7026 //008 000000 240929Z AUTO 00000KT 9999 HZ CLR 21/20 A2997 RMK CDP03661 CLR=
0152007026999992016062409444+00000+000000FM-15+702699999V0209999C000012200019N009999199+02201+02001999999ADDAW1051GF100991999999999999999999MA1101461999999REMMET093MOBOB0 METAR 7026 //008 000000 240944Z AUTO 00000KT 9999 HZ CLR 22/20 A2996 RMK CDP03661 CLR=
0152007026999992016062409594+00000+000000FM-15+702699999V0209999C000012200019N009999199+02201+01901999999ADDAW1051GF100991999999999999999999MA1101491999999REMMET093MOBOB0 METAR 7026 //008 000000 240959Z AUTO 00000KT 9999 HZ CLR 22/19 A2997 RMK CDP03661 CLR=
0143007026999992016062410144+00000+000000FM-15+702699999V0209999C000012200019N009999199+02201+02001999999ADDGF100991999999999999999999MA1101491999999REMMET090MOBOB0 METAR 7026 //008 000000 241014Z AUTO 00000KT 9999 CLR 22/20 A2997 RMK CDP03661 CLR=
0143007026999992016062410294+00000+000000FM-15+702699999V0209999C000012200019N009999199+02201+02001999999ADDGF100991999999999999999999MA1101521999999REMMET090MOBOB0 METAR 7026 //008 000000 241029Z AUTO 00000KT 9999 CLR 22/20 A2998 RMK CDP03661 CLR=
0143007026999992016062410444+00000+000000FM-15+702699999V0209999C000012200019N009999199+02201+02001999999ADDGF100991999999999999999999MA1101561999999REMMET090MOBOB0 METAR 7026 //008 000000 241044Z AUTO 00000KT 9999 CLR 22/20 A2999 RMK CDP03661 CLR=
0143007026999992016062410594+00000+000000FM-15+702699999V0209999C000012200019N999999999+02201+02001999999ADDGF100991999999999999999999MA1101591999999REMMET090MOBOB0 METAR 7026 //008 000000 241059Z AUTO 00000KT //// CLR 22/20 A3000 RMK CDP03661 CLR=
0143007026999992016062411144+00000+000000FM-15+702699999V0209999C000012200019N999999999+02201+02001999999ADDGF100991999999999999999999MA1101561999999REMMET090MOBOB0 METAR 7026 //008 000000 241114Z AUTO 00000KT //// CLR 22/20 A2999 RMK CDP03661 CLR=
0143007026999992016062411294+00000+000000FM-15+702699999V0209999C000012200019N009999199+02201+02001999999ADDGF100991999999999999999999MA1101561999999REMMET090MOBOB0 METAR 7026 //008 000000 241129Z AUTO 00000KT 9999 CLR 22/20 A2999 RMK CDP03661 CLR=
0143007026999992016062411444+00000+000000FM-15+702699999V0209999C000012200019N009999199+02201+02001999999ADDGF100991999999999999999999MA1101561999999REMMET090MOBOB0 METAR 7026 //008 000000 241144Z AUTO 00000KT 9999 CLR 22/20 A2999 RMK CDP03661 CLR=
0143007026999992016062411594+00000+000000FM-15+702699999V0209999C000012200019N009999199+02301+02001999999ADDGF100991999999999999999999MA1101591999999REMMET090MOBOB0 METAR 7026 //008 000000 241159Z AUTO 00000KT 9999 CLR 23/20 A3000 RMK CDP03661 CLR=
0143007026999992016062412144+00000+000000FM-15+702699999V0209999C000012200019N009999199+02401+02001999999ADDGF100991999999999999999999MA1101591999999REMMET090MOBOB0 METAR 7026 //008 000000 241214Z AUTO 00000KT 9999 CLR 24/20 A3000 RMK CDP03661 CLR=
0143007026999992016062412294+00000+000000FM-15+702699999V0209999C000012200019N999999999+02401+02001999999ADDGF100991999999999999999999MA1101591999999REMMET090MOBOB0 METAR 7026 //008 000000 241229Z AUTO 00000KT //// CLR 24/20 A3000 RMK CDP03661 CLR=
0143007026999992016062412444+00000+000000FM-15+702699999V0209999C000012200019N009999199+02401+02101999999ADDGF100991999999999999999999MA1101631999999REMMET090MOBOB0 METAR 7026 //008 000000 241244Z AUTO 00000KT 9999 CLR 24/21 A3001 RMK CDP03661 CLR=
0143007026999992016062412594+00000+000000FM-15+702699999V0209999C000012200019N009999199+02401+02001999999ADDGF100991999999999999999999MA1101591999999REMMET090MOBOB0 METAR 7026 //008 000000 241259Z AUTO 00000KT 9999 CLR 24/20 A3000 RMK CDP03661 CLR=
0143007026999992016062413144+00000+000000FM-15+702699999V0209999C000012200019N009999199+02501+02101999999ADDGF100991999999999999999999MA1101631999999REMMET090MOBOB0 METAR 7026 //008 000000 241314Z AUTO 00000KT 9999 CLR 25/21 A3001 RMK CDP03661 CLR=
0143007026999992016062413294+00000+000000FM-15+702699999V0209999C000012200019N009999199+02501+02101999999ADDGF100991999999999999999999MA1101631999999REMMET090MOBOB0 METAR 7026 //008 000000 241329Z AUTO 00000KT 9999 CLR 25/21 A3001 RMK CDP03661 CLR=
0143007026999992016062413444+00000+000000FM-15+702699999V0209999C000012200019N009999199+02501+02101999999ADDGF100991999999999999999999MA1101661999999REMMET090MOBOB0 METAR 7026 //008 000000 241344Z AUTO 00000KT 9999 CLR 25/21 A3002 RMK CDP03661 CLR=
0143007026999992016062413594+00000+000000FM-15+702699999V0209999C000012200019N009999199+02601+02101999999ADDGF100991999999999999999999MA1101631999999REMMET090MOBOB0 METAR 7026 //008 000000 241359Z AUTO 00000KT 9999 CLR 26/21 A3001 RMK CDP03661 CLR=
0143007026999992016062414144+00000+000000FM-15+702699999V0209999C000012200019N009999199+02601+02201999999ADDGF100991999999999999999999MA1101661999999REMMET090MOBOB0 METAR 7026 //008 000000 241414Z AUTO 00000KT 9999 CLR 26/22 A3002 RMK CDP03661 CLR=
0143007026999992016062414294+00000+000000FM-15+702699999V0209999C000012200019N009999199+02601+02101999999ADDGF100991999999999999999999MA1101631999999REMMET090MOBOB0 METAR 7026 //008 000000 241429Z AUTO 00000KT 9999 CLR 26/21 A3001 RMK CDP03661 CLR=
0143007026999992016062414444+00000+000000FM-15+702699999V0209999C000012200019N009999199+02701+02201999999ADDGF100991999999999999999999MA1101631999999REMMET090MOBOB0 METAR 7026 //008 000000 241444Z AUTO 00000KT 9999 CLR 27/22 A3001 RMK CDP03661 CLR=
0143007026999992016062414594+00000+000000FM-15+702699999V0209999C000012200019N009999199+02701+02201999999ADDGF100991999999999999999999MA1101661999999REMMET090MOBOB0 METAR 7026 //008 000000 241459Z AUTO 00000KT 9999 CLR 27/22 A3002 RMK CDP03661 CLR=
0199007026999992016062415144+00000+000000FM-15+702699999V0209999C000019999999N009999199+02701+02201999999ADDGA1021+035971999GE19MSL   +99999+99999GF199999021999035971999999MA1101661999999REMMET108MOBOB0 METAR 7026 //008 000000 241514Z AUTO 00000KT 9999 FEW118 27/22 A3002 RMK CDP03661 FEW118 CLD AVG 118=
0143007026999992016062415294+00000+000000FM-15+702699999V0209999C000012200019N999999999+02701+02201999999ADDGF100991999999999999999999MA1101661999999REMMET090MOBOB0 METAR 7026 //008 000000 241529Z AUTO 00000KT //// CLR 27/22 A3002 RMK CDP03661 CLR=
0199007026999992016062415444+00000+000000FM-15+702699999V0209999C000019999999N009999199+02601+02201999999ADDGA1021+032611999GE19MSL   +99999+99999GF199999021999032611999999MA1101691999999REMMET108MOBOB0 METAR 7026 //008 000000 241544Z AUTO 00000KT 9999 FEW107 26/22 A3003 RMK CDP03661 FEW107 CLD AVG 107=
0143007026999992016062415594+00000+000000FM-15+702699999V0209999C000012200019N009999199+02701+02201999999ADDGF100991999999999999999999MA1101661999999REMMET090MOBOB0 METAR 7026 //008 000000 241559Z AUTO 00000KT 9999 CLR 27/22 A3002 RMK CDP03661 CLR=
0143007026999992016062416144+00000+000000FM-15+702699999V0209999C000012200019N009999199+02801+02201999999ADDGF100991999999999999999999MA1101661999999REMMET090MOBOB0 METAR 7026 //008 000000 241614Z AUTO 00000KT 9999 CLR 28/22 A3002 RMK CDP03661 CLR=
0143007026999992016062416294+00000+000000FM-15+702699999V0209999C000012200019N009999199+02801+02201999999ADDGF100991999999999999999999MA1101661999999REMMET090MOBOB0 METAR 7026 //008 000000 241629Z AUTO 00000KT 9999 CLR 28/22 A3002 RMK CDP03661 CLR=
0143007026999992016062416454+00000+000000FM-15+702699999V0209999C000012200019N009999199+02801+02201999999ADDGF100991999999999999999999MA1101661999999REMMET090MOBOB0 METAR 7026 //008 000000 241645Z AUTO 00000KT 9999 CLR 28/22 A3002 RMK CDP03661 CLR=
0096007026999992016062417144+00000+000000FM-15+702699999V0209999C000019999999N999999999+02901+02201999999ADDMA1101661999999REMMET069MOBOB0 METAR 7026 //008 000000 241714Z AUTO 00000KT //// 29/22 A3002=
0143007026999992016062417294+00000+000000FM-15+702699999V0209999C000012200019N999999999+03001+02201999999ADDGF100991999999999999999999MA1101661999999REMMET090MOBOB0 METAR 7026 //008 000000 241729Z AUTO 00000KT //// CLR 30/22 A3002 RMK CDP03661 CLR=
0143007026999992016062417444+00000+000000FM-15+702699999V0209999C000012200019N009999199+03001+02201999999ADDGF100991999999999999999999MA1101661999999REMMET090MOBOB0 METAR 7026 //008 000000 241744Z AUTO 00000KT 9999 CLR 30/22 A3002 RMK CDP03661 CLR=
0143007026999992016062417594+00000+000000FM-15+702699999V0209999C000012200019N999999999+03101+02201999999ADDGF100991999999999999999999MA1101631999999REMMET090MOBOB0 METAR 7026 //008 000000 241759Z AUTO 00000KT //// CLR 31/22 A3001 RMK CDP03661 CLR=
0143007026999992016062418144+00000+000000FM-15+702699999V0209999C000012200019N009999199+03101+02101999999ADDGF100991999999999999999999MA1101631999999REMMET090MOBOB0 METAR 7026 //008 000000 241814Z AUTO 00000KT 9999 CLR 31/21 A3001 RMK CDP03661 CLR=
0143007026999992016062418294+00000+000000FM-15+702699999V0209999C000012200019N009999199+03101+02201999999ADDGF100991999999999999999999MA1101631999999REMMET090MOBOB0 METAR 7026 //008 000000 241829Z AUTO 00000KT 9999 CLR 31/22 A3001 RMK CDP03661 CLR=
0143007026999992016062418444+00000+000000FM-15+702699999V0209999C000012200019N009999199+03101+02201999999ADDGF100991999999999999999999MA1101631999999REMMET090MOBOB0 METAR 7026 //008 000000 241844Z AUTO 00000KT 9999 CLR 31/22 A3001 RMK CDP03661 CLR=
0143007026999992016062418594+00000+000000FM-15+702699999V0209999C000012200019N009999199+03101+02201999999ADDGF100991999999999999999999MA1101591999999REMMET090MOBOB0 METAR 7026 //008 000000 241859Z AUTO 00000KT 9999 CLR 31/22 A3000 RMK CDP03661 CLR=
0143007026999992016062419144+00000+000000FM-15+702699999V0209999C000012200019N009999199+03101+02201999999ADDGF100991999999999999999999MA1101631999999REMMET090MOBOB0 METAR 7026 //008 000000 241914Z AUTO 00000KT 9999 CLR 31/22 A3001 RMK CDP03661 CLR=
0143007026999992016062419294+00000+000000FM-15+702699999V0209999C000012200019N009999199+03201+02301999999ADDGF100991999999999999999999MA1101591999999REMMET090MOBOB0 METAR 7026 //008 000000 241929Z AUTO 00000KT 9999 CLR 32/23 A3000 RMK CDP03661 CLR=
0143007026999992016062419444+00000+000000FM-15+702699999V0209999C000012200019N009999199+03101+02201999999ADDGF100991999999999999999999MA1101591999999REMMET090MOBOB0 METAR 7026 //008 000000 241944Z AUTO 00000KT 9999 CLR 31/22 A3000 RMK CDP03661 CLR=
0143007026999992016062419594+00000+000000FM-15+702699999V0209999C000012200019N999999999+03101+02201999999ADDGF100991999999999999999999MA1101631999999REMMET090MOBOB0 METAR 7026 //008 000000 241959Z AUTO 00000KT //// CLR 31/22 A3001 RMK CDP03661 CLR=
0143007026999992016062420144+00000+000000FM-15+702699999V0209999C000012200019N009999199+03201+02201999999ADDGF100991999999999999999999MA1101561999999REMMET090MOBOB0 METAR 7026 //008 000000 242014Z AUTO 00000KT 9999 CLR 32/22 A2999 RMK CDP03661 CLR=
0143007026999992016062420294+00000+000000FM-15+702699999V0209999C000012200019N009999199+03201+02301999999ADDGF100991999999999999999999MA1101521999999REMMET090MOBOB0 METAR 7026 //008 000000 242029Z AUTO 00000KT 9999 CLR 32/23 A2998 RMK CDP03661 CLR=
0143007026999992016062420444+00000+000000FM-15+702699999V0209999C000012200019N009999199+03201+02201999999ADDGF100991999999999999999999MA1101521999999REMMET090MOBOB0 METAR 7026 //008 000000 242044Z AUTO 00000KT 9999 CLR 32/22 A2998 RMK CDP03661 CLR=
0143007026999992016062420594+00000+000000FM-15+702699999V0209999C000012200019N009999199+03201+02101999999ADDGF100991999999999999999999MA1101521999999REMMET090MOBOB0 METAR 7026 //008 000000 242059Z AUTO 00000KT 9999 CLR 32/21 A2998 RMK CDP03661 CLR=
0143007026999992016062421144+00000+000000FM-15+702699999V0209999C000012200019N999999999+03301+02101999999ADDGF100991999999999999999999MA1101561999999REMMET090MOBOB0 METAR 7026 //008 000000 242114Z AUTO 00000KT //// CLR 33/21 A2999 RMK CDP03661 CLR=
0143007026999992016062421294+00000+000000FM-15+702699999V0209999C000012200019N009999199+03301+02101999999ADDGF100991999999999999999999MA1101561999999REMMET090MOBOB0 METAR 7026 //008 000000 242129Z AUTO 00000KT 9999 CLR 33/21 A2999 RMK CDP03661 CLR=
0143007026999992016062421444+00000+000000FM-15+702699999V0209999C000012200019N999999999+03301+02101999999ADDGF100991999999999999999999MA1101521999999REMMET090MOBOB0 METAR 7026 //008 000000 242144Z AUTO 00000KT //// CLR 33/21 A2998 RMK CDP03661 CLR=
0143007026999992016062421594+00000+000000FM-15+702699999V0209999C000012200019N009999199+03301+02101999999ADDGF100991999999999999999999MA1101521999999REMMET090MOBOB0 METAR 7026 //008 000000 242159Z AUTO 00000KT 9999 CLR 33/21 A2998 RMK CDP03661 CLR=
0143007026999992016062422144+00000+000000FM-15+702699999V0209999C000012200019N999999999+03301+02101999999ADDGF100991999999999999999999MA1101521999999REMMET090MOBOB0 METAR 7026 //008 000000 242214Z AUTO 00000KT //// CLR 33/21 A2998 RMK CDP03661 CLR=
0143007026999992016062422294+00000+000000FM-15+702699999V0209999C000012200019N009999199+03301+02101999999ADDGF100991999999999999999999MA1101521999999REMMET090MOBOB0 METAR 7026 //008 000000 242229Z AUTO 00000KT 9999 CLR 33/21 A2998 RMK CDP03661 CLR=
0143007026999992016062422444+00000+000000FM-15+702699999V0209999C000012200019N009999199+03401+02101999999ADDGF100991999999999999999999MA1101521999999REMMET090MOBOB0 METAR 7026 //008 000000 242244Z AUTO 00000KT 9999 CLR 34/21 A2998 RMK CDP03661 CLR=
0143007026999992016062422594+00000+000000FM-15+702699999V0209999C000012200019N009999199+03301+02101999999ADDGF100991999999999999999999MA1101521999999REMMET090MOBOB0 METAR 7026 //008 000000 242259Z AUTO 00000KT 9999 CLR 33/21 A2998 RMK CDP03661 CLR=
0143007026999992016062423144+00000+000000FM-15+702699999V0209999C000012200019N009999199+03301+02101999999ADDGF100991999999999999999999MA1101521999999REMMET090MOBOB0 METAR 7026 //008 000000 242314Z AUTO 00000KT 9999 CLR 33/21 A2998 RMK CDP03661 CLR=
0143007026999992016062423294+00000+000000FM-15+702699999V0209999C000012200019N009999199+03201+02101999999ADDGF100991999999999999999999MA1101521999999REMMET090MOBOB0 METAR 7026 //008 000000 242329Z AUTO 00000KT 9999 CLR 32/21 A2998 RMK CDP03661 CLR=
0143007026999992016062423444+00000+000000FM-15+702699999V0209999C000012200019N999999999+03201+02201999999ADDGF100991999999999999999999MA1101561999999REMMET090MOBOB0 METAR 7026 //008 000000 242344Z AUTO 00000KT //// CLR 32/22 A2999 RMK CDP03661 CLR=
0143007026999992016062423594+00000+000000FM-15+702699999V0209999C000012200019N009999199+03101+02201999999ADDGF100991999999999999999999MA1101591999999REMMET090MOBOB0 METAR 7026 //008 000000 242359Z AUTO 00000KT 9999 CLR 31/22 A3000 RMK CDP03661 CLR=
0143007026999992016062500144+00000+000000FM-15+702699999V0209999C000012200019N009999199+03001+02301999999ADDGF100991999999999999999999MA1101631999999REMMET090MOBOB0 METAR 7026 //008 000000 250014Z AUTO 00000KT 9999 CLR 30/23 A3001 RMK CDP03661 CLR=
0152007026999992016062500294+00000+000000FM-15+702699999V0209999C000012200019N009999199+03001+02301999999ADDAW1051GF100991999999999999999999MA1101591999999REMMET093MOBOB0 METAR 7026 //008 000000 250029Z AUTO 00000KT 9999 HZ CLR 30/23 A3000 RMK CDP03661 CLR=
0152007026999992016062500444+00000+000000FM-15+702699999V0209999C000012200019N009999199+02901+02301999999ADDAW1051GF100991999999999999999999MA1101591999999REMMET093MOBOB0 METAR 7026 //008 000000 250044Z AUTO 00000KT 9999 HZ CLR 29/23 A3000 RMK CDP03661 CLR=
0152007026999992016062500594+00000+000000FM-15+702699999V0209999C000012200019N009999199+02901+02301999999ADDAW1051GF100991999999999999999999MA1101591999999REMMET093MOBOB0 METAR 7026 //008 000000 250059Z AUTO 00000KT 9999 HZ CLR 29/23 A3000 RMK CDP03661 CLR=
0199007026999992016062501144+00000+000000FM-15+702699999V0209999C000019999999N009999199+02901+02301999999ADDGA1021+028351999GE19MSL   +99999+99999GF199999021999028351999999MA1101661999999REMMET108MOBOB0 METAR 7026 //008 000000 250114Z AUTO 00000KT 9999 FEW093 29/23 A3002 RMK CDP03661 FEW093 CLD AVG 093=
0152007026999992016062501294+00000+000000FM-15+702699999V0209999C000012200019N009999199+02801+02201999999ADDAW1051GF100991999999999999999999MA1101691999999REMMET093MOBOB0 METAR 7026 //008 000000 250129Z AUTO 00000KT 9999 HZ CLR 28/22 A3003 RMK CDP03661 CLR=
0143007026999992016062501444+00000+000000FM-15+702699999V0209999C000012200019N999999999+02801+02301999999ADDGF100991999999999999999999MA1101691999999REMMET090MOBOB0 METAR 7026 //008 000000 250144Z AUTO 00000KT //// CLR 28/23 A3003 RMK CDP03661 CLR=
0199007026999992016062501594+00000+000000FM-15+702699999V0209999C000019999999N009999199+02701+02301999999ADDGA1021+009141999GE19MSL   +99999+99999GF199999021999009141999999MA1101691999999REMMET108MOBOB0 METAR 7026 //008 000000 250159Z AUTO 00000KT 9999 FEW030 27/23 A3003 RMK CDP03661 FEW030 CLD AVG 031=
0199007026999992016062502144+00000+000000FM-15+702699999V0209999C000019999999N999999999+02701+02301999999ADDGA1021+028651999GE19MSL   +99999+99999GF199999021999028651999999MA1101691999999REMMET108MOBOB0 METAR 7026 //008 000000 250214Z AUTO 00000KT //// FEW094 27/23 A3003 RMK CDP03661 FEW094 CLD AVG 094=
0208007026999992016062502294+00000+000000FM-15+702699999V0209999C000019999999N009999199+02701+02301999999ADDAW1051GA1021+033221999GE19MSL   +99999+99999GF199999021999033221999999MA1101691999999REMMET111MOBOB0 METAR 7026 //008 000000 250229Z AUTO 00000KT 9999 HZ FEW109 27/23 A3003 RMK CDP03661 FEW109 CLD AVG 109=
0143007026999992016062502444+00000+000000FM-15+702699999V0209999C000012200019N009999199+02701+02301999999ADDGF100991999999999999999999MA1101661999999REMMET090MOBOB0 METAR 7026 //008 000000 250244Z AUTO 00000KT 9999 CLR 27/23 A3002 RMK CDP03661 CLR=
0199007026999992016062502594+00000+000000FM-15+702699999V0209999C000019999999N009999199+02701+02301999999ADDGA1021+032921999GE19MSL   +99999+99999GF199999021999032921999999MA1101661999999REMMET108MOBOB0 METAR 7026 //008 000000 250259Z AUTO 00000KT 9999 FEW108 27/23 A3002 RMK CDP03661 FEW108 CLD AVG 108=
0208007026999992016062503144+00000+000000FM-15+702699999V0209999C000019999999N009999199+02701+02301999999ADDAW1051GA1021+033531999GE19MSL   +99999+99999GF199999021999033531999999MA1101661999999REMMET111MOBOB0 METAR 7026 //008 000000 250314Z AUTO 00000KT 9999 HZ FEW110 27/23 A3002 RMK CDP03661 FEW110 CLD AVG 110=
0143007026999992016062503294+00000+000000FM-15+702699999V0209999C000012200019N999999999+02701+02301999999ADDGF100991999999999999999999MA1101661999999REMMET090MOBOB0 METAR 7026 //008 000000 250329Z AUTO 00000KT //// CLR 27/23 A3002 RMK CDP03661 CLR=
0143007026999992016062503444+00000+000000FM-15+702699999V0209999C000012200019N009999199+02601+02201999999ADDGF100991999999999999999999MA1101661999999REMMET090MOBOB0 METAR 7026 //008 000000 250344Z AUTO 00000KT 9999 CLR 26/22 A3002 RMK CDP03661 CLR=
0143007026999992016062503594+00000+000000FM-15+702699999V0209999C000012200019N999999999+02601+02201999999ADDGF100991999999999999999999MA1101661999999REMMET090MOBOB0 METAR 7026 //008 000000 250359Z AUTO 00000KT //// CLR 26/22 A3002 RMK CDP03661 CLR=
0143007026999992016062504144+00000+000000FM-15+702699999V0209999C000012200019N009999199+02601+02301999999ADDGF100991999999999999999999MA1101661999999REMMET090MOBOB0 METAR 7026 //008 000000 250414Z AUTO 00000KT 9999 CLR 26/23 A3002 RMK CDP03661 CLR=
0143007026999992016062504294+00000+000000FM-15+702699999V0209999C000012200019N999999999+02601+02301999999ADDGF100991999999999999999999MA1101661999999REMMET090MOBOB0 METAR 7026 //008 000000 250429Z AUTO 00000KT //// CLR 26/23 A3002 RMK CDP03661 CLR=
0152007026999992016062504444+00000+000000FM-15+702699999V0209999C000012200019N009999199+02601+02301999999ADDAW1051GF100991999999999999999999MA1101661999999REMMET093MOBOB0 METAR 7026 //008 000000 250444Z AUTO 00000KT 9999 HZ CLR 26/23 A3002 RMK CDP03661 CLR=
0152007026999992016062504594+00000+000000FM-15+702699999V0209999C000012200019N009999199+02501+02201999999ADDAW1051GF100991999999999999999999MA1101661999999REMMET093MOBOB0 METAR 7026 //008 000000 250459Z AUTO 00000KT 9999 HZ CLR 25/22 A3002 RMK CDP03661 CLR=
0152007026999992016062505144+00000+000000FM-15+702699999V0209999C000012200019N009999199+02501+02201999999ADDAW1051GF100991999999999999999999MA1101661999999REMMET093MOBOB0 METAR 7026 //008 000000 250514Z AUTO 00000KT 9999 HZ CLR 25/22 A3002 RMK CDP03661 CLR=
0152007026999992016062505294+00000+000000FM-15+702699999V0209999C000012200019N009999199+02501+02201999999ADDAW1051GF100991999999999999999999MA1101661999999REMMET093MOBOB0 METAR 7026 //008 000000 250529Z AUTO 00000KT 9999 HZ CLR 25/22 A3002 RMK CDP03661 CLR=
0152007026999992016062505444+00000+000000FM-15+702699999V0209999C000012200019N009999199+02501+02201999999ADDAW1051GF100991999999999999999999MA1101661999999REMMET093MOBOB0 METAR 7026 //008 000000 250544Z AUTO 00000KT 9999 HZ CLR 25/22 A3002 RMK CDP03661 CLR=
0152007026999992016062505594+00000+000000FM-15+702699999V0209999C000012200019N009999199+02501+02201999999ADDAW1051GF100991999999999999999999MA1101661999999REMMET093MOBOB0 METAR 7026 //008 000000 250559Z AUTO 00000KT 9999 HZ CLR 25/22 A3002 RMK CDP03661 CLR=
0152007026999992016062506144+00000+000000FM-15+702699999V0209999C000012200019N009999199+02501+02201999999ADDAW1051GF100991999999999999999999MA1101661999999REMMET093MOBOB0 METAR 7026 //008 000000 250614Z AUTO 00000KT 9999 HZ CLR 25/22 A3002 RMK CDP03661 CLR=
0152007026999992016062506294+00000+000000FM-15+702699999V0209999C000012200019N009999199+02501+02201999999ADDAW1051GF100991999999999999999999MA1101661999999REMMET093MOBOB0 METAR 7026 //008 000000 250629Z AUTO 00000KT 9999 HZ CLR 25/22 A3002 RMK CDP03661 CLR=
0152007026999992016062506444+00000+000000FM-15+702699999V0209999C000012200019N009999199+02401+02301999999ADDAW1051GF100991999999999999999999MA1101661999999REMMET093MOBOB0 METAR 7026 //008 000000 250644Z AUTO 00000KT 9999 HZ CLR 24/23 A3002 RMK CDP03661 CLR=
0152007026999992016062506594+00000+000000FM-15+702699999V0209999C000012200019N009000199+02401+02201999999ADDAW1051GF100991999999999999999999MA1101661999999REMMET093MOBOB0 METAR 7026 //008 000000 250659Z AUTO 00000KT 9000 HZ CLR 24/22 A3002 RMK CDP03661 CLR=
0143007026999992016062507144+00000+000000FM-15+702699999V0209999C000012200019N999999999+02401+02201999999ADDGF100991999999999999999999MA1101661999999REMMET090MOBOB0 METAR 7026 //008 000000 250714Z AUTO 00000KT //// CLR 24/22 A3002 RMK CDP03661 CLR=
0152007026999992016062507294+00000+000000FM-15+702699999V0209999C000012200019N008000199+02401+02201999999ADDAW1051GF100991999999999999999999MA1101661999999REMMET093MOBOB0 METAR 7026 //008 000000 250729Z AUTO 00000KT 8000 HZ CLR 24/22 A3002 RMK CDP03661 CLR=
0152007026999992016062507444+00000+000000FM-15+702699999V0209999C000012200019N008000199+02401+02201999999ADDAW1051GF100991999999999999999999MA1101661999999REMMET093MOBOB0 METAR 7026 //008 000000 250744Z AUTO 00000KT 8000 HZ CLR 24/22 A3002 RMK CDP03661 CLR=
0152007026999992016062507594+00000+000000FM-15+702699999V0209999C000012200019N006000199+02401+02301999999ADDAW1051GF100991999999999999999999MA1101661999999REMMET093MOBOB0 METAR 7026 //008 000000 250759Z AUTO 00000KT 6000 HZ CLR 24/23 A3002 RMK CDP03661 CLR=
0152007026999992016062508144+00000+000000FM-15+702699999V0209999C000012200019N006000199+02401+02201999999ADDAW1051GF100991999999999999999999MA1101631999999REMMET093MOBOB0 METAR 7026 //008 000000 250814Z AUTO 00000KT 6000 HZ CLR 24/22 A3001 RMK CDP03661 CLR=
0152007026999992016062508294+00000+000000FM-15+702699999V0209999C000012200019N004800199+02401+02201999999ADDAW1051GF100991999999999999999999MA1101661999999REMMET093MOBOB0 METAR 7026 //008 000000 250829Z AUTO 00000KT 4800 HZ CLR 24/22 A3002 RMK CDP03661 CLR=
0152007026999992016062508444+00000+000000FM-15+702699999V0209999C000012200019N004800199+02401+02201999999ADDAW1051GF100991999999999999999999MA1101691999999REMMET093MOBOB0 METAR 7026 //008 000000 250844Z AUTO 00000KT 4800 HZ CLR 24/22 A3003 RMK CDP03661 CLR=
0152007026999992016062508594+00000+000000FM-15+702699999V0209999C000012200019N006000199+02301+02201999999ADDAW1051GF100991999999999999999999MA1101691999999REMMET093MOBOB0 METAR 7026 //008 000000 250859Z AUTO 00000KT 6000 HZ CLR 23/22 A3003 RMK CDP03661 CLR=
0152007026999992016062509144+00000+000000FM-15+702699999V0209999C000012200019N004400199+02301+02201999999ADDAW1051GF100991999999999999999999MA1101691999999REMMET093MOBOB0 METAR 7026 //008 000000 250914Z AUTO 00000KT 4400 HZ CLR 23/22 A3003 RMK CDP03661 CLR=
0208007026999992016062509294+00000+000000FM-15+702699999V0209999C000019999999N006000199+02301+02201999999ADDAW1051GA1021+010971999GE19MSL   +99999+99999GF199999021999010971999999MA1101731999999REMMET111MOBOB0 METAR 7026 //008 000000 250929Z AUTO 00000KT 6000 HZ FEW036 23/22 A3004 RMK CDP03661 FEW036 CLD AVG 036=
0152007026999992016062509444+00000+000000FM-15+702699999V0209999C000012200019N004800199+02301+02201999999ADDAW1051GF100991999999999999999999MA1101731999999REMMET093MOBOB0 METAR 7026 //008 000000 250944Z AUTO 00000KT 4800 HZ CLR 23/22 A3004 RMK CDP03661 CLR=
0152007026999992016062509594+00000+000000FM-15+702699999V0209999C000012200019N004800199+02301+02201999999ADDAW1051GF100991999999999999999999MA1101761999999REMMET093MOBOB0 METAR 7026 //008 000000 250959Z AUTO 00000KT 4800 HZ CLR 23/22 A3005 RMK CDP03661 CLR=
0152007026999992016062510144+00000+000000FM-15+702699999V0209999C000012200019N006000199+02301+02201999999ADDAW1051GF100991999999999999999999MA1101761999999REMMET093MOBOB0 METAR 7026 //008 000000 251014Z AUTO 00000KT 6000 HZ CLR 23/22 A3005 RMK CDP03661 CLR=
0152007026999992016062510294+00000+000000FM-15+702699999V0209999C000012200019N008000199+02301+02201999999ADDAW1051GF100991999999999999999999MA1101761999999REMMET093MOBOB0 METAR 7026 //008 000000 251029Z AUTO 00000KT 8000 HZ CLR 23/22 A3005 RMK CDP03661 CLR=
0152007026999992016062510444+00000+000000FM-15+702699999V0209999C000012200019N009000199+02401+02201999999ADDAW1051GF100991999999999999999999MA1101791999999REMMET093MOBOB0 METAR 7026 //008 000000 251044Z AUTO 00000KT 9000 HZ CLR 24/22 A3006 RMK CDP03661 CLR=
0143007026999992016062510594+00000+000000FM-15+702699999V0209999C000012200019N999999999+02401+02201999999ADDGF100991999999999999999999MA1101791999999REMMET090MOBOB0 METAR 7026 //008 000000 251059Z AUTO 00000KT //// CLR 24/22 A3006 RMK CDP03661 CLR=
0152007026999992016062511144+00000+000000FM-15+702699999V0209999C000012200019N009999199+02501+02201999999ADDAW1051GF100991999999999999999999MA1101791999999REMMET093MOBOB0 METAR 7026 //008 000000 251114Z AUTO 00000KT 9999 HZ CLR 25/22 A3006 RMK CDP03661 CLR=
0143007026999992016062511294+00000+000000FM-15+702699999V0209999C000012200019N999999999+02501+02201999999ADDGF100991999999999999999999MA1101791999999REMMET090MOBOB0 METAR 7026 //008 000000 251129Z AUTO 00000KT //// CLR 25/22 A3006 RMK CDP03661 CLR=
0152007026999992016062511444+00000+000000FM-15+702699999V0209999C000012200019N009999199+02501+02201999999ADDAW1051GF100991999999999999999999MA1101831999999REMMET093MOBOB0 METAR 7026 //008 000000 251144Z AUTO 00000KT 9999 HZ CLR 25/22 A3007 RMK CDP03661 CLR=
0208007026999992016062511594+00000+000000FM-15+702699999V0209999C000019999999N009999199+02601+02201999999ADDAW1051GA1021+031701999GE19MSL   +99999+99999GF199999021999031701999999MA1101831999999REMMET111MOBOB0 METAR 7026 //008 000000 251159Z AUTO 00000KT 9999 HZ FEW104 26/22 A3007 RMK CDP03661 FEW104 CLD AVG 104=
0199007026999992016062512144+00000+000000FM-15+702699999V0209999C000019999999N999999999+02601+02201999999ADDGA1021+024081999GE19MSL   +99999+99999GF199999021999024081999999MA1101831999999REMMET108MOBOB0 METAR 7026 //008 000000 251214Z AUTO 00000KT //// FEW079 26/22 A3007 RMK CDP03661 FEW079 CLD AVG 079=
0199007026999992016062512294+00000+000000FM-15+702699999V0209999C000019999999N009999199+02701+02201999999ADDGA1021+032311999GE19MSL   +99999+99999GF199999021999032311999999MA1101861999999REMMET108MOBOB0 METAR 7026 //008 000000 251229Z AUTO 00000KT 9999 FEW106 27/22 A3008 RMK CDP03661 FEW106 CLD AVG 107=
0208007026999992016062512444+00000+000000FM-15+702699999V0209999C000019999999N009999199+02701+02201999999ADDAW1051GA1021+022861999GE19MSL   +99999+99999GF199999021999022861999999MA1101861999999REMMET111MOBOB0 METAR 7026 //008 000000 251244Z AUTO 00000KT 9999 HZ FEW075 27/22 A3008 RMK CDP03661 FEW075 CLD AVG 075=
0199007026999992016062512594+00000+000000FM-15+702699999V0209999C000019999999N009999199+02801+02101999999ADDGA1021+023471999GE19MSL   +99999+99999GF199999021999023471999999MA1101861999999REMMET108MOBOB0 METAR 7026 //008 000000 251259Z AUTO 00000KT 9999 FEW077 28/21 A3008 RMK CDP03661 FEW077 CLD AVG 077=
0143007026999992016062513144+00000+000000FM-15+702699999V0209999C000012200019N009999199+02801+02201999999ADDGF100991999999999999999999MA1101901999999REMMET090MOBOB0 METAR 7026 //008 000000 251314Z AUTO 00000KT 9999 CLR 28/22 A3009 RMK CDP03661 CLR=
0143007026999992016062513294+00000+000000FM-15+702699999V0209999C000012200019N999999999+02901+02201999999ADDGF100991999999999999999999MA1101901999999REMMET090MOBOB0 METAR 7026 //008 000000 251329Z AUTO 00000KT //// CLR 29/22 A3009 RMK CDP03661 CLR=
0143007026999992016062513454+00000+000000FM-15+702699999V0209999C000012200019N009999199+03001+02201999999ADDGF100991999999999999999999MA1101861999999REMMET090MOBOB0 METAR 7026 //008 000000 251345Z AUTO 00000KT 9999 CLR 30/22 A3008 RMK CDP03661 CLR=
0143007026999992016062514144+00000+000000FM-15+702699999V0209999C000012200019N999999999+03001+02301999999ADDGF100991999999999999999999MA1101901999999REMMET090MOBOB0 METAR 7026 //008 000000 251414Z AUTO 00000KT //// CLR 30/23 A3009 RMK CDP03661 CLR=
0143007026999992016062514294+00000+000000FM-15+702699999V0209999C000012200019N009999199+02901+02301999999ADDGF100991999999999999999999MA1101931999999REMMET090MOBOB0 METAR 7026 //008 000000 251429Z AUTO 00000KT 9999 CLR 29/23 A3010 RMK CDP03661 CLR=
0199007026999992016062514444+00000+000000FM-15+702699999V0209999C000019999999N999999999+02901+02301999999ADDGA1041+006401999GE19MSL   +99999+99999GF199999041999006401999999MA1101961999999REMMET108MOBOB0 METAR 7026 //008 000000 251444Z AUTO 00000KT //// SCT021 29/23 A3011 RMK CDP03661 SCT021 CLD AVG 022=
0199007026999992016062514594+00000+000000FM-15+702699999V0209999C000019999999N009999199+02801+02201999999ADDGA1041+005491999GE19MSL   +99999+99999GF199999041999005491999999MA1102001999999REMMET108MOBOB0 METAR 7026 //008 000000 251459Z AUTO 00000KT 9999 SCT018 28/22 A3012 RMK CDP03661 SCT018 CLD AVG 028=
0199007026999992016062515144+00000+000000FM-15+702699999V0209999C000010048819N009999199+02801+02301999999ADDGA1081+004881999GE19MSL   +99999+99999GF199999081999004881999999MA1102001999999REMMET108MOBOB0 METAR 7026 //008 000000 251514Z AUTO 00000KT 9999 OVC016 28/23 A3012 RMK CDP03661 OVC016 CLD AVG 019=
0208007026999992016062515294+00000+000000FM-15+702699999V0209999C000010048819N009999199+02701+02301999999ADDAW1051GA1081+004881999GE19MSL   +99999+99999GF199999081999004881999999MA1102001999999REMMET111MOBOB0 METAR 7026 //008 000000 251529Z AUTO 00000KT 9999 HZ OVC016 27/23 A3012 RMK CDP03661 OVC016 CLD AVG 017=
0208007026999992016062515444+00000+000000FM-15+702699999V0209999C000010051819N009999199+02801+02201999999ADDAW1051GA1081+005181999GE19MSL   +99999+99999GF199999081999005181999999MA1102001999999REMMET111MOBOB0 METAR 7026 //008 000000 251544Z AUTO 00000KT 9999 HZ OVC017 28/22 A3012 RMK CDP03661 OVC017 CLD AVG 020=
0208007026999992016062515594+00000+000000FM-15+702699999V0209999C000010057919N009999199+02801+02201999999ADDAW1051GA1081+005791999GE19MSL   +99999+99999GF199999081999005791999999MA1101961999999REMMET111MOBOB0 METAR 7026 //008 000000 251559Z AUTO 00000KT 9999 HZ OVC019 28/22 A3011 RMK CDP03661 OVC019 CLD AVG 022=
0199007026999992016062516144+00000+000000FM-15+702699999V0209999C000010057919N999999999+02801+02301999999ADDGA1081+005791999GE19MSL   +99999+99999GF199999081999005791999999MA1101961999999REMMET108MOBOB0 METAR 7026 //008 000000 251614Z AUTO 00000KT //// OVC019 28/23 A3011 RMK CDP03661 OVC019 CLD AVG 022=
0199007026999992016062516294+00000+000000FM-15+702699999V0209999C000010054919N999999999+02801+02201999999ADDGA1081+005491999GE19MSL   +99999+99999GF199999081999005491999999MA1102001999999REMMET108MOBOB0 METAR 7026 //008 000000 251629Z AUTO 00000KT //// OVC018 28/22 A3012 RMK CDP03661 OVC018 CLD AVG 021=
0199007026999992016062516444+00000+000000FM-15+702699999V0209999C000010057919N009999199+02801+02201999999ADDGA1081+005791999GE19MSL   +99999+99999GF199999081999005791999999MA1102001999999REMMET108MOBOB0 METAR 7026 //008 000000 251644Z AUTO 00000KT 9999 OVC019 28/22 A3012 RMK CDP03661 OVC019 CLD AVG 021=
0199007026999992016062516594+00000+000000FM-15+702699999V0209999C000010073219N009999199+02801+02201999999ADDGA1081+007321999GE19MSL   +99999+99999GF199999081999007321999999MA1102001999999REMMET108MOBOB0 METAR 7026 //008 000000 251659Z AUTO 00000KT 9999 OVC024 28/22 A3012 RMK CDP03661 OVC024 CLD AVG 025=
0199007026999992016062517144+00000+000000FM-15+702699999V0209999C000010054919N999999999+02801+02201999999ADDGA1081+005491999GE19MSL   +99999+99999GF199999081999005491999999MA1102001999999REMMET108MOBOB0 METAR 7026 //008 000000 251714Z AUTO 00000KT //// OVC018 28/22 A3012 RMK CDP03661 OVC018 CLD AVG 021=
0199007026999992016062517294+00000+000000FM-15+702699999V0209999C000010064019N009999199+02801+02201999999ADDGA1081+006401999GE19MSL   +99999+99999GF199999081999006401999999MA1102001999999REMMET108MOBOB0 METAR 7026 //008 000000 251729Z AUTO 00000KT 9999 OVC021 28/22 A3012 RMK CDP03661 OVC021 CLD AVG 023=
0199007026999992016062517444+00000+000000FM-15+702699999V0209999C000010082319N009999199+02901+02201999999ADDGA1081+008231999GE19MSL   +99999+99999GF199999081999008231999999MA1102001999999REMMET108MOBOB0 METAR 7026 //008 000000 251744Z AUTO 00000KT 9999 OVC027 29/22 A3012 RMK CDP03661 OVC027 CLD AVG 030=
0199007026999992016062517594+00000+000000FM-15+702699999V0209999C000010067119N009999199+02901+02201999999ADDGA1081+006711999GE19MSL   +99999+99999GF199999081999006711999999MA1102001999999REMMET108MOBOB0 METAR 7026 //008 000000 251759Z AUTO 00000KT 9999 OVC022 29/22 A3012 RMK CDP03661 OVC022 CLD AVG 023=
0199007026999992016062518144+00000+000000FM-15+702699999V0209999C000010082319N009999199+02901+02201999999ADDGA1081+008231999GE19MSL   +99999+99999GF199999081999008231999999MA1102001999999REMMET108MOBOB0 METAR 7026 //008 000000 251814Z AUTO 00000KT 9999 OVC027 29/22 A3012 RMK CDP03661 OVC027 CLD AVG 031=
0199007026999992016062518294+00000+000000FM-15+702699999V0209999C000010103619N009999199+03001+02201999999ADDGA1071+010361999GE19MSL   +99999+99999GF199999071999010361999999MA1101961999999REMMET108MOBOB0 METAR 7026 //008 000000 251829Z AUTO 00000KT 9999 BKN034 30/22 A3011 RMK CDP03661 BKN034 CLD AVG 035=
0199007026999992016062518444+00000+000000FM-15+702699999V0209999C000010070119N009999199+03001+02201999999ADDGA1081+007011999GE19MSL   +99999+99999GF199999081999007011999999MA1101931999999REMMET108MOBOB0 METAR 7026 //008 000000 251844Z AUTO 00000KT 9999 OVC023 30/22 A3010 RMK CDP03661 OVC023 CLD AVG 026=
0208007026999992016062518594+00000+000000FM-15+702699999V0209999C000010106719N009999199+03001+02301999999ADDAW1051GA1071+010671999GE19MSL   +99999+99999GF199999071999010671999999MA1101931999999REMMET111MOBOB0 METAR 7026 //008 000000 251859Z AUTO 00000KT 9999 HZ BKN035 30/23 A3010 RMK CDP03661 BKN035 CLD AVG 036=
0199007026999992016062519144+00000+000000FM-15+702699999V0209999C000010073219N009999199+03001+02201999999ADDGA1071+007321999GE19MSL   +99999+99999GF199999071999007321999999MA1101931999999REMMET108MOBOB0 METAR 7026 //008 000000 251914Z AUTO 00000KT 9999 BKN024 30/22 A3010 RMK CDP03661 BKN024 CLD AVG 028=
0199007026999992016062519294+00000+000000FM-15+702699999V0209999C000010100619N999999999+03001+02101999999ADDGA1081+010061999GE19MSL   +99999+99999GF199999081999010061999999MA1101961999999REMMET108MOBOB0 METAR 7026 //008 000000 251929Z AUTO 00000KT //// OVC033 30/21 A3011 RMK CDP03661 OVC033 CLD AVG 033=
0199007026999992016062519444+00000+000000FM-15+702699999V0209999C000019999999N009999199+03001+02101999999ADDGA1041+008841999GE19MSL   +99999+99999GF199999041999008841999999MA1101961999999REMMET108MOBOB0 METAR 7026 //008 000000 251944Z AUTO 00000KT 9999 SCT029 30/21 A3011 RMK CDP03661 SCT029 CLD AVG 032=
0199007026999992016062519594+00000+000000FM-15+702699999V0209999C000010091419N009999199+03101+02201999999ADDGA1071+009141999GE19MSL   +99999+99999GF199999071999009141999999MA1101961999999REMMET108MOBOB0 METAR 7026 //008 000000 251959Z AUTO 00000KT 9999 BKN030 31/22 A3011 RMK CDP03661 BKN030 CLD AVG 032=
0199007026999992016062520144+00000+000000FM-15+702699999V0209999C000019999999N999999999+03101+02101999999ADDGA1041+009451999GE19MSL   +99999+99999GF199999041999009451999999MA1101961999999REMMET108MOBOB0 METAR 7026 //008 000000 252014Z AUTO 00000KT //// SCT031 31/21 A3011 RMK CDP03661 SCT031 CLD AVG 036=
0199007026999992016062520294+00000+000000FM-15+702699999V0209999C000019999999N009999199+03101+02101999999ADDGA1041+010061999GE19MSL   +99999+99999GF199999041999010061999999MA1101931999999REMMET108MOBOB0 METAR 7026 //008 000000 252029Z AUTO 00000KT 9999 SCT033 31/21 A3010 RMK CDP03661 SCT033 CLD AVG 034=
0199007026999992016062520444+00000+000000FM-15+702699999V0209999C000019999999N009999199+03001+02101999999ADDGA1021+015851999GE19MSL   +99999+99999GF199999021999015851999999MA1101931999999REMMET108MOBOB0 METAR 7026 //008 000000 252044Z AUTO 00000KT 9999 FEW052 30/21 A3010 RMK CDP03661 FEW052 CLD AVG 052=
0143007026999992016062520594+00000+000000FM-15+702699999V0209999C000012200019N999999999+03001+02201999999ADDGF100991999999999999999999MA1101931999999REMMET090MOBOB0 METAR 7026 //008 000000 252059Z AUTO 00000KT //// CLR 30/22 A3010 RMK CDP03661 CLR=
0199007026999992016062521144+00000+000000FM-15+702699999V0209999C000010100619N009999199+03101+02201999999ADDGA1081+010061999GE19MSL   +99999+99999GF199999081999010061999999MA1101961999999REMMET108MOBOB0 METAR 7026 //008 000000 252114Z AUTO 00000KT 9999 OVC033 31/22 A3011 RMK CDP03661 OVC033 CLD AVG 041=
0143007026999992016062521294+00000+000000FM-15+702699999V0209999C000012200019N009999199+03201+02201999999ADDGF100991999999999999999999MA1101961999999REMMET090MOBOB0 METAR 7026 //008 000000 252129Z AUTO 00000KT 9999 CLR 32/22 A3011 RMK CDP03661 CLR=
0143007026999992016062521444+00000+000000FM-15+702699999V0209999C000012200019N009999199+03201+02101999999ADDGF100991999999999999999999MA1101961999999REMMET090MOBOB0 METAR 7026 //008 000000 252144Z AUTO 00000KT 9999 CLR 32/21 A3011 RMK CDP03661 CLR=
0143007026999992016062521594+00000+000000FM-15+702699999V0209999C000012200019N009999199+03201+02101999999ADDGF100991999999999999999999MA1101961999999REMMET090MOBOB0 METAR 7026 //008 000000 252159Z AUTO 00000KT 9999 CLR 32/21 A3011 RMK CDP03661 CLR=
0143007026999992016062522144+00000+000000FM-15+702699999V0209999C000012200019N009999199+03101+02101999999ADDGF100991999999999999999999MA1101961999999REMMET090MOBOB0 METAR 7026 //008 000000 252214Z AUTO 00000KT 9999 CLR 31/21 A3011 RMK CDP03661 CLR=
0143007026999992016062522294+00000+000000FM-15+702699999V0209999C000012200019N009999199+03201+02101999999ADDGF100991999999999999999999MA1101961999999REMMET090MOBOB0 METAR 7026 //008 000000 252229Z AUTO 00000KT 9999 CLR 32/21 A3011 RMK CDP03661 CLR=
0143007026999992016062522444+00000+000000FM-15+702699999V0209999C000012200019N009999199+03101+02101999999ADDGF100991999999999999999999MA1101961999999REMMET090MOBOB0 METAR 7026 //008 000000 252244Z AUTO 00000KT 9999 CLR 31/21 A3011 RMK CDP03661 CLR=
0143007026999992016062522594+00000+000000FM-15+702699999V0209999C000012200019N009999199+03101+02101999999ADDGF100991999999999999999999MA1101961999999REMMET090MOBOB0 METAR 7026 //008 000000 252259Z AUTO 00000KT 9999 CLR 31/21 A3011 RMK CDP03661 CLR=
0143007026999992016062523144+00000+000000FM-15+702699999V0209999C000012200019N009999199+03101+02101999999ADDGF100991999999999999999999MA1101961999999REMMET090MOBOB0 METAR 7026 //008 000000 252314Z AUTO 00000KT 9999 CLR 31/21 A3011 RMK CDP03661 CLR=
0143007026999992016062523294+00000+000000FM-15+702699999V0209999C000012200019N999999999+03001+02201999999ADDGF100991999999999999999999MA1101961999999REMMET090MOBOB0 METAR 7026 //008 000000 252329Z AUTO 00000KT //// CLR 30/22 A3011 RMK CDP03661 CLR=
0143007026999992016062523444+00000+000000FM-15+702699999V0209999C000012200019N009999199+03001+02101999999ADDGF100991999999999999999999MA1102001999999REMMET090MOBOB0 METAR 7026 //008 000000 252344Z AUTO 00000KT 9999 CLR 30/21 A3012 RMK CDP03661 CLR=
0143007026999992016062523594+00000+000000FM-15+702699999V0209999C000012200019N009999199+03001+02101999999ADDGF100991999999999999999999MA1102001999999REMMET090MOBOB0 METAR 7026 //008 000000 252359Z AUTO 00000KT 9999 CLR 30/21 A3012 RMK CDP03661 CLR=
0199007026999992016062600144+00000+000000FM-15+702699999V0209999C000010109719N009999199+02901+02101999999ADDGA1081+010971999GE19MSL   +99999+99999GF199999081999010971999999MA1102031999999REMMET108MOBOB0 METAR 7026 //008 000000 260014Z AUTO 00000KT 9999 OVC036 29/21 A3013 RMK CDP03661 OVC036 CLD AVG 037=
0143007026999992016062600294+00000+000000FM-15+702699999V0209999C000012200019N009999199+02901+02101999999ADDGF100991999999999999999999MA1102031999999REMMET090MOBOB0 METAR 7026 //008 000000 260029Z AUTO 00000KT 9999 CLR 29/21 A3013 RMK CDP03661 CLR=
0143007026999992016062600444+00000+000000FM-15+702699999V0209999C000012200019N009999199+02801+02101999999ADDGF100991999999999999999999MA1102031999999REMMET090MOBOB0 METAR 7026 //008 000000 260044Z AUTO 00000KT 9999 CLR 28/21 A3013 RMK CDP03661 CLR=
0199007026999992016062600594+00000+000000FM-15+702699999V0209999C000010106719N009999199+02801+02101999999ADDGA1081+010671999GE19MSL   +99999+99999GF199999081999010671999999MA1102031999999REMMET108MOBOB0 METAR 7026 //008 000000 260059Z AUTO 00000KT 9999 OVC035 28/21 A3013 RMK CDP03661 OVC035 CLD AVG 039=
0199007026999992016062601144+00000+000000FM-15+702699999V0209999C000010100619N009999199+02801+02101999999ADDGA1081+010061999GE19MSL   +99999+99999GF199999081999010061999999MA1102071999999REMMET108MOBOB0 METAR 7026 //008 000000 260114Z AUTO 00000KT 9999 OVC033 28/21 A3014 RMK CDP03661 OVC033 CLD AVG 040=
0199007026999992016062601294+00000+000000FM-15+702699999V0209999C000019999999N009999199+02801+02101999999ADDGA1041+011891999GE19MSL   +99999+99999GF199999041999011891999999MA1102101999999REMMET108MOBOB0 METAR 7026 //008 000000 260129Z AUTO 00000KT 9999 SCT039 28/21 A3015 RMK CDP03661 SCT039 CLD AVG 042=
0208007026999992016062601444+00000+000000FM-15+702699999V0209999C000019999999N009999199+02701+02101999999ADDAW1051GA1021+013721999GE19MSL   +99999+99999GF199999021999013721999999MA1102131999999REMMET111MOBOB0 METAR 7026 //008 000000 260144Z AUTO 00000KT 9999 HZ FEW045 27/21 A3016 RMK CDP03661 FEW045 CLD AVG 045=
0152007026999992016062601594+00000+000000FM-15+702699999V0209999C000012200019N009000199+02701+02101999999ADDAW1051GF100991999999999999999999MA1102131999999REMMET093MOBOB0 METAR 7026 //008 000000 260159Z AUTO 00000KT 9000 HZ CLR 27/21 A3016 RMK CDP03661 CLR=
0152007026999992016062602144+00000+000000FM-15+702699999V0209999C000012200019N009999199+02701+02101999999ADDAW1051GF100991999999999999999999MA1102131999999REMMET093MOBOB0 METAR 7026 //008 000000 260214Z AUTO 00000KT 9999 HZ CLR 27/21 A3016 RMK CDP03661 CLR=
0208007026999992016062602294+00000+000000FM-15+702699999V0209999C000019999999N009999199+02701+02101999999ADDAW1051GA1041+011581999GE19MSL   +99999+99999GF199999041999011581999999MA1102171999999REMMET111MOBOB0 METAR 7026 //008 000000 260229Z AUTO 00000KT 9999 HZ SCT038 27/21 A3017 RMK CDP03661 SCT038 CLD AVG 039=
0208007026999992016062602444+00000+000000FM-15+702699999V0209999C000010121919N009999199+02601+02101999999ADDAW1051GA1081+012191999GE19MSL   +99999+99999GF199999081999012191999999MA1102171999999REMMET111MOBOB0 METAR 7026 //008 000000 260244Z AUTO 00000KT 9999 HZ OVC040 26/21 A3017 RMK CDP03661 OVC040 CLD AVG 041=
0199007026999992016062602594+00000+000000FM-15+702699999V0209999C000010121919N009999199+02601+02101999999ADDGA1081+012191999GE19MSL   +99999+99999GF199999081999012191999999MA1102171999999REMMET108MOBOB0 METAR 7026 //008 000000 260259Z AUTO 00000KT 9999 OVC040 26/21 A3017 RMK CDP03661 OVC040 CLD AVG 041=
0152007026999992016062603144+00000+000000FM-15+702699999V0209999C000012200019N009999199+02601+02101999999ADDAW1051GF100991999999999999999999MA1102171999999REMMET093MOBOB0 METAR 7026 //008 000000 260314Z AUTO 00000KT 9999 HZ CLR 26/21 A3017 RMK CDP03661 CLR=
0208007026999992016062603294+00000+000000FM-15+702699999V0209999C000019999999N009999199+02601+02101999999ADDAW1051GA1021+030181999GE19MSL   +99999+99999GF199999021999030181999999MA1102201999999REMMET111MOBOB0 METAR 7026 //008 000000 260329Z AUTO 00000KT 9999 HZ FEW099 26/21 A3018 RMK CDP03661 FEW099 CLD AVG 099=
0152007026999992016062603444+00000+000000FM-15+702699999V0209999C000012200019N009999199+02501+02101999999ADDAW1051GF100991999999999999999999MA1102201999999REMMET093MOBOB0 METAR 7026 //008 000000 260344Z AUTO 00000KT 9999 HZ CLR 25/21 A3018 RMK CDP03661 CLR=
0199007026999992016062603594+00000+000000FM-15+702699999V0209999C000019999999N009999199+02501+02101999999ADDGA1041+012801999GE19MSL   +99999+99999GF199999041999012801999999MA1102201999999REMMET108MOBOB0 METAR 7026 //008 000000 260359Z AUTO 00000KT 9999 SCT042 25/21 A3018 RMK CDP03661 SCT042 CLD AVG 043=
0208007026999992016062604144+00000+000000FM-15+702699999V0209999C000010118919N009999199+02501+02101999999ADDAW1051GA1081+011891999GE19MSL   +99999+99999GF199999081999011891999999MA1102201999999REMMET111MOBOB0 METAR 7026 //008 000000 260414Z AUTO 00000KT 9999 HZ OVC039 25/21 A3018 RMK CDP03661 OVC039 CLD AVG 041=
0208007026999992016062604294+00000+000000FM-15+702699999V0209999C000010125019N009000199+02501+02101999999ADDAW1051GA1081+012501999GE19MSL   +99999+99999GF199999081999012501999999MA1102201999999REMMET111MOBOB0 METAR 7026 //008 000000 260429Z AUTO 00000KT 9000 HZ OVC041 25/21 A3018 RMK CDP03661 OVC041 CLD AVG 044=
0208007026999992016062604444+00000+000000FM-15+702699999V0209999C000010115819N009999199+02501+02101999999ADDAW1051GA1081+011581999GE19MSL   +99999+99999GF199999081999011581999999MA1102201999999REMMET111MOBOB0 METAR 7026 //008 000000 260444Z AUTO 00000KT 9999 HZ OVC038 25/21 A3018 RMK CDP03661 OVC038 CLD AVG 039=
0143007026999992016062604594+00000+000000FM-15+702699999V0209999C000012200019N999999999+02501+02101999999ADDGF100991999999999999999999MA1102201999999REMMET090MOBOB0 METAR 7026 //008 000000 260459Z AUTO 00000KT //// CLR 25/21 A3018 RMK CDP03661 CLR=
0199007026999992016062605144+00000+000000FM-15+702699999V0209999C000010054919N009999199+02501+02101999999ADDGA1081+005491999GE19MSL   +99999+99999GF199999081999005491999999MA1102201999999REMMET108MOBOB0 METAR 7026 //008 000000 260514Z AUTO 00000KT 9999 OVC018 25/21 A3018 RMK CDP03661 OVC018 CLD AVG 028=
0208007026999992016062605294+00000+000000FM-15+702699999V0209999C000019999999N009999199+02501+02101999999ADDAW1051GA1041+031701999GE19MSL   +99999+99999GF199999041999031701999999MA1102201999999REMMET111MOBOB0 METAR 7026 //008 000000 260529Z AUTO 00000KT 9999 HZ SCT104 25/21 A3018 RMK CDP03661 SCT104 CLD AVG 105=
0199007026999992016062605444+00000+000000FM-15+702699999V0209999C000019999999N999999999+02501+02101999999ADDGA1021+031391999GE19MSL   +99999+99999GF199999021999031391999999MA1102171999999REMMET108MOBOB0 METAR 7026 //008 000000 260544Z AUTO 00000KT //// FEW103 25/21 A3017 RMK CDP03661 FEW103 CLD AVG 103=
0199007026999992016062605594+00000+000000FM-15+702699999V0209999C000019999999N009999199+02501+02101999999ADDGA1041+032001999GE19MSL   +99999+99999GF199999041999032001999999MA1102201999999REMMET108MOBOB0 METAR 7026 //008 000000 260559Z AUTO 00000KT 9999 SCT105 25/21 A3018 RMK CDP03661 SCT105 CLD AVG 106=
0199007026999992016062606144+00000+000000FM-15+702699999V0209999C000019999999N009999199+02401+02001999999ADDGA1021+032611999GE19MSL   +99999+99999GF199999021999032611999999MA1102201999999REMMET108MOBOB0 METAR 7026 //008 000000 260614Z AUTO 00000KT 9999 FEW107 24/20 A3018 RMK CDP03661 FEW107 CLD AVG 107=
0199007026999992016062606294+00000+000000FM-15+702699999V0209999C000019999999N009999199+02401+02001999999ADDGA1021+032311999GE19MSL   +99999+99999GF199999021999032311999999MA1102201999999REMMET108MOBOB0 METAR 7026 //008 000000 260629Z AUTO 00000KT 9999 FEW106 24/20 A3018 RMK CDP03661 FEW106 CLD AVG 106=
0208007026999992016062606444+00000+000000FM-15+702699999V0209999C000019999999N009999199+02401+02101999999ADDAW1051GA1021+032311999GE19MSL   +99999+99999GF199999021999032311999999MA1102201999999REMMET111MOBOB0 METAR 7026 //008 000000 260644Z AUTO 00000KT 9999 HZ FEW106 24/21 A3018 RMK CDP03661 FEW106 CLD AVG 106=
0199007026999992016062606594+00000+000000FM-15+702699999V0209999C000019999999N009999199+02401+02001999999ADDGA1021+032311999GE19MSL   +99999+99999GF199999021999032311999999MA1102201999999REMMET108MOBOB0 METAR 7026 //008 000000 260659Z AUTO 00000KT 9999 FEW106 24/20 A3018 RMK CDP03661 FEW106 CLD AVG 106=
0208007026999992016062607144+00000+000000FM-15+702699999V0209999C000010042719N009999199+02301+02001999999ADDAW1051GA1071+004271999GE19MSL   +99999+99999GF199999071999004271999999MA1102231999999REMMET111MOBOB0 METAR 7026 //008 000000 260714Z AUTO 00000KT 9999 HZ BKN014 23/20 A3019 RMK CDP03661 BKN014 CLD AVG 014=
0208007026999992016062607294+00000+000000FM-15+702699999V0209999C000010033519N009999199+02301+02001999999ADDAW1051GA1081+003351999GE19MSL   +99999+99999GF199999081999003351999999MA1102231999999REMMET111MOBOB0 METAR 7026 //008 000000 260729Z AUTO 00000KT 9999 HZ OVC011 23/20 A3019 RMK CDP03661 OVC011 CLD AVG 012=
0208007026999992016062607444+00000+000000FM-15+702699999V0209999C000010155419N009999199+02301+01901999999ADDAW1051GA1081+015541999GE19MSL   +99999+99999GF199999081999015541999999MA1102231999999REMMET111MOBOB0 METAR 7026 //008 000000 260744Z AUTO 00000KT 9999 HZ OVC051 23/19 A3019 RMK CDP03661 OVC051 CLD AVG 051=
0199007026999992016062607594+00000+000000FM-15+702699999V0209999C000010155419N009999199+02301+01801999999ADDGA1081+015541999GE19MSL   +99999+99999GF199999081999015541999999MA1102231999999REMMET108MOBOB0 METAR 7026 //008 000000 260759Z AUTO 00000KT 9999 OVC051 23/18 A3019 RMK CDP03661 OVC051 CLD AVG 053=
0199007026999992016062608144+00000+000000FM-15+702699999V0209999C000010170719N009999199+02301+01801999999ADDGA1071+017071999GE19MSL   +99999+99999GF199999071999017071999999MA1102231999999REMMET108MOBOB0 METAR 7026 //008 000000 260814Z AUTO 00000KT 9999 BKN056 23/18 A3019 RMK CDP03661 BKN056 CLD AVG 059=
0199007026999992016062608294+00000+000000FM-15+702699999V0209999C000019999999N009999199+02201+01901999999ADDGA1021+020421999GE19MSL   +99999+99999GF199999021999020421999999MA1102231999999REMMET108MOBOB0 METAR 7026 //008 000000 260829Z AUTO 00000KT 9999 FEW067 22/19 A3019 RMK CDP03661 FEW067 CLD AVG 085=
0199007026999992016062608444+00000+000000FM-15+702699999V0209999C000019999999N009999199+02201+01901999999ADDGA1041+019511999GE19MSL   +99999+99999GF199999041999019511999999MA1102271999999REMMET108MOBOB0 METAR 7026 //008 000000 260844Z AUTO 00000KT 9999 SCT064 22/19 A3020 RMK CDP03661 SCT064 CLD AVG 064=
0152007026999992016062608594+00000+000000FM-15+702699999V0209999C000012200019N009999199+02201+01901999999ADDAW1051GF100991999999999999999999MA1102271999999REMMET093MOBOB0 METAR 7026 //008 000000 260859Z AUTO 00000KT 9999 HZ CLR 22/19 A3020 RMK CDP03661 CLR=
0152007026999992016062609144+00000+000000FM-15+702699999V0209999C000012200019N009999199+02201+01901999999ADDAW1051GF100991999999999999999999MA1102271999999REMMET093MOBOB0 METAR 7026 //008 000000 260914Z AUTO 00000KT 9999 HZ CLR 22/19 A3020 RMK CDP03661 CLR=
0208007026999992016062609294+00000+000000FM-15+702699999V0209999C000019999999N009999199+02201+01901999999ADDAW1051GA1021+032611999GE19MSL   +99999+99999GF199999021999032611999999MA1102271999999REMMET111MOBOB0 METAR 7026 //008 000000 260929Z AUTO 00000KT 9999 HZ FEW107 22/19 A3020 RMK CDP03661 FEW107 CLD AVG 107=
0152007026999992016062609444+00000+000000FM-15+702699999V0209999C000012200019N009999199+02201+01901999999ADDAW1051GF100991999999999999999999MA1102301999999REMMET093MOBOB0 METAR 7026 //008 000000 260944Z AUTO 00000KT 9999 HZ CLR 22/19 A3021 RMK CDP03661 CLR=
0152007026999992016062609594+00000+000000FM-15+702699999V0209999C000012200019N009999199+02101+01901999999ADDAW1051GF100991999999999999999999MA1102301999999REMMET093MOBOB0 METAR 7026 //008 000000 260959Z AUTO 00000KT 9999 HZ CLR 21/19 A3021 RMK CDP03661 CLR=
0152007026999992016062610144+00000+000000FM-15+702699999V0209999C000012200019N009999199+02101+01901999999ADDAW1051GF100991999999999999999999MA1102301999999REMMET093MOBOB0 METAR 7026 //008 000000 261014Z AUTO 00000KT 9999 HZ CLR 21/19 A3021 RMK CDP03661 CLR=
0152007026999992016062610294+00000+000000FM-15+702699999V0209999C000012200019N009999199+02101+01901999999ADDAW1051GF100991999999999999999999MA1102301999999REMMET093MOBOB0 METAR 7026 //008 000000 261029Z AUTO 00000KT 9999 HZ CLR 21/19 A3021 RMK CDP03661 CLR=
0152007026999992016062610444+00000+000000FM-15+702699999V0209999C000012200019N009999199+02201+01901999999ADDAW1051GF100991999999999999999999MA1102301999999REMMET093MOBOB0 METAR 7026 //008 000000 261044Z AUTO 00000KT 9999 HZ CLR 22/19 A3021 RMK CDP03661 CLR=
0152007026999992016062610594+00000+000000FM-15+702699999V0209999C000012200019N009999199+02101+01901999999ADDAW1051GF100991999999999999999999MA1102341999999REMMET093MOBOB0 METAR 7026 //008 000000 261059Z AUTO 00000KT 9999 HZ CLR 21/19 A3022 RMK CDP03661 CLR=
0143007026999992016062611144+00000+000000FM-15+702699999V0209999C000012200019N999999999+02201+01901999999ADDGF100991999999999999999999MA1102341999999REMMET090MOBOB0 METAR 7026 //008 000000 261114Z AUTO 00000KT //// CLR 22/19 A3022 RMK CDP03661 CLR=
0152007026999992016062611294+00000+000000FM-15+702699999V0209999C000012200019N009999199+02201+01901999999ADDAW1051GF100991999999999999999999MA1102341999999REMMET093MOBOB0 METAR 7026 //008 000000 261129Z AUTO 00000KT 9999 HZ CLR 22/19 A3022 RMK CDP03661 CLR=
0152007026999992016062611444+00000+000000FM-15+702699999V0209999C000012200019N009999199+02201+01801999999ADDAW1051GF100991999999999999999999MA1102371999999REMMET093MOBOB0 METAR 7026 //008 000000 261144Z AUTO 00000KT 9999 HZ CLR 22/18 A3023 RMK CDP03661 CLR=
0143007026999992016062611594+00000+000000FM-15+702699999V0209999C000012200019N009999199+02201+01801999999ADDGF100991999999999999999999MA1102371999999REMMET090MOBOB0 METAR 7026 //008 000000 261159Z AUTO 00000KT 9999 CLR 22/18 A3023 RMK CDP03661 CLR=
0143007026999992016062612144+00000+000000FM-15+702699999V0209999C000012200019N009999199+02301+01801999999ADDGF100991999999999999999999MA1102371999999REMMET090MOBOB0 METAR 7026 //008 000000 261214Z AUTO 00000KT 9999 CLR 23/18 A3023 RMK CDP03661 CLR=
0143007026999992016062612294+00000+000000FM-15+702699999V0209999C000012200019N009999199+02301+01801999999ADDGF100991999999999999999999MA1102371999999REMMET090MOBOB0 METAR 7026 //008 000000 261229Z AUTO 00000KT 9999 CLR 23/18 A3023 RMK CDP03661 CLR=
0143007026999992016062612444+00000+000000FM-15+702699999V0209999C000012200019N999999999+02401+01801999999ADDGF100991999999999999999999MA1102371999999REMMET090MOBOB0 METAR 7026 //008 000000 261244Z AUTO 00000KT //// CLR 24/18 A3023 RMK CDP03661 CLR=
0143007026999992016062612594+00000+000000FM-15+702699999V0209999C000012200019N009999199+02501+01701999999ADDGF100991999999999999999999MA1102341999999REMMET090MOBOB0 METAR 7026 //008 000000 261259Z AUTO 00000KT 9999 CLR 25/17 A3022 RMK CDP03661 CLR=
0143007026999992016062613144+00000+000000FM-15+702699999V0209999C000012200019N999999999+02501+01701999999ADDGF100991999999999999999999MA1102341999999REMMET090MOBOB0 METAR 7026 //008 000000 261314Z AUTO 00000KT //// CLR 25/17 A3022 RMK CDP03661 CLR=
0143007026999992016062613294+00000+000000FM-15+702699999V0209999C000012200019N009999199+02501+01701999999ADDGF100991999999999999999999MA1102341999999REMMET090MOBOB0 METAR 7026 //008 000000 261329Z AUTO 00000KT 9999 CLR 25/17 A3022 RMK CDP03661 CLR=
0143007026999992016062613474+00000+000000FM-15+702699999V0209999C000012200019N009999199+02601+01601999999ADDGF100991999999999999999999MA1102341999999REMMET090MOBOB0 METAR 7026 //008 000000 261347Z AUTO 00000KT 9999 CLR 26/16 A3022 RMK CDP03661 CLR=
0143007026999992016062614144+00000+000000FM-15+702699999V0209999C000012200019N009999199+02701+01501999999ADDGF100991999999999999999999MA1102301999999REMMET090MOBOB0 METAR 7026 //008 000000 261414Z AUTO 00000KT 9999 CLR 27/15 A3021 RMK CDP03661 CLR=
0143007026999992016062614294+00000+000000FM-15+702699999V0209999C000012200019N999999999+02801+01501999999ADDGF100991999999999999999999MA1102341999999REMMET090MOBOB0 METAR 7026 //008 000000 261429Z AUTO 00000KT //// CLR 28/15 A3022 RMK CDP03661 CLR=
0143007026999992016062614444+00000+000000FM-15+702699999V0209999C000012200019N009999199+02801+01501999999ADDGF100991999999999999999999MA1102341999999REMMET090MOBOB0 METAR 7026 //008 000000 261444Z AUTO 00000KT 9999 CLR 28/15 A3022 RMK CDP03661 CLR=
0143007026999992016062614594+00000+000000FM-15+702699999V0209999C000012200019N999999999+02801+01501999999ADDGF100991999999999999999999MA1102341999999REMMET090MOBOB0 METAR 7026 //008 000000 261459Z AUTO 00000KT //// CLR 28/15 A3022 RMK CDP03661 CLR=
0143007026999992016062615144+00000+000000FM-15+702699999V0209999C000012200019N009999199+02801+01401999999ADDGF100991999999999999999999MA1102301999999REMMET090MOBOB0 METAR 7026 //008 000000 261514Z AUTO 00000KT 9999 CLR 28/14 A3021 RMK CDP03661 CLR=
0143007026999992016062615294+00000+000000FM-15+702699999V0209999C000012200019N999999999+02901+01401999999ADDGF100991999999999999999999MA1102341999999REMMET090MOBOB0 METAR 7026 //008 000000 261529Z AUTO 00000KT //// CLR 29/14 A3022 RMK CDP03661 CLR=
0143007026999992016062615444+00000+000000FM-15+702699999V0209999C000012200019N009999199+02801+01401999999ADDGF100991999999999999999999MA1102341999999REMMET090MOBOB0 METAR 7026 //008 000000 261544Z AUTO 00000KT 9999 CLR 28/14 A3022 RMK CDP03661 CLR=
0143007026999992016062615594+00000+000000FM-15+702699999V0209999C000012200019N009999199+02901+01401999999ADDGF100991999999999999999999MA1102341999999REMMET090MOBOB0 METAR 7026 //008 000000 261559Z AUTO 00000KT 9999 CLR 29/14 A3022 RMK CDP03661 CLR=
0143007026999992016062616144+00000+000000FM-15+702699999V0209999C000012200019N009999199+02901+01301999999ADDGF100991999999999999999999MA1102341999999REMMET090MOBOB0 METAR 7026 //008 000000 261614Z AUTO 00000KT 9999 CLR 29/13 A3022 RMK CDP03661 CLR=
0143007026999992016062616294+00000+000000FM-15+702699999V0209999C000012200019N999999999+02901+01401999999ADDGF100991999999999999999999MA1102341999999REMMET090MOBOB0 METAR 7026 //008 000000 261629Z AUTO 00000KT //// CLR 29/14 A3022 RMK CDP03661 CLR=
0143007026999992016062616444+00000+000000FM-15+702699999V0209999C000012200019N009999199+03001+01401999999ADDGF100991999999999999999999MA1102341999999REMMET090MOBOB0 METAR 7026 //008 000000 261644Z AUTO 00000KT 9999 CLR 30/14 A3022 RMK CDP03661 CLR=
0143007026999992016062616594+00000+000000FM-15+702699999V0209999C000012200019N009999199+03001+01401999999ADDGF100991999999999999999999MA1102341999999REMMET090MOBOB0 METAR 7026 //008 000000 261659Z AUTO 00000KT 9999 CLR 30/14 A3022 RMK CDP03661 CLR=
0143007026999992016062617144+00000+000000FM-15+702699999V0209999C000012200019N009999199+03001+01301999999ADDGF100991999999999999999999MA1102301999999REMMET090MOBOB0 METAR 7026 //008 000000 261714Z AUTO 00000KT 9999 CLR 30/13 A3021 RMK CDP03661 CLR=
0143007026999992016062617294+00000+000000FM-15+702699999V0209999C000012200019N009999199+03101+01401999999ADDGF100991999999999999999999MA1102301999999REMMET090MOBOB0 METAR 7026 //008 000000 261729Z AUTO 00000KT 9999 CLR 31/14 A3021 RMK CDP03661 CLR=
0143007026999992016062617444+00000+000000FM-15+702699999V0209999C000012200019N009999199+03101+01301999999ADDGF100991999999999999999999MA1102271999999REMMET090MOBOB0 METAR 7026 //008 000000 261744Z AUTO 00000KT 9999 CLR 31/13 A3020 RMK CDP03661 CLR=
0143007026999992016062617594+00000+000000FM-15+702699999V0209999C000012200019N009999199+03101+01301999999ADDGF100991999999999999999999MA1102271999999REMMET090MOBOB0 METAR 7026 //008 000000 261759Z AUTO 00000KT 9999 CLR 31/13 A3020 RMK CDP03661 CLR=
0143007026999992016062618144+00000+000000FM-15+702699999V0209999C000012200019N009999199+03101+01301999999ADDGF100991999999999999999999MA1102231999999REMMET090MOBOB0 METAR 7026 //008 000000 261814Z AUTO 00000KT 9999 CLR 31/13 A3019 RMK CDP03661 CLR=
0143007026999992016062618294+00000+000000FM-15+702699999V0209999C000012200019N009999199+03101+01101999999ADDGF100991999999999999999999MA1102231999999REMMET090MOBOB0 METAR 7026 //008 000000 261829Z AUTO 00000KT 9999 CLR 31/11 A3019 RMK CDP03661 CLR=
0143007026999992016062618444+00000+000000FM-15+702699999V0209999C000012200019N009999199+03101+01301999999ADDGF100991999999999999999999MA1102201999999REMMET090MOBOB0 METAR 7026 //008 000000 261844Z AUTO 00000KT 9999 CLR 31/13 A3018 RMK CDP03661 CLR=
0143007026999992016062618594+00000+000000FM-15+702699999V0209999C000012200019N009999199+03201+01301999999ADDGF100991999999999999999999MA1102201999999REMMET090MOBOB0 METAR 7026 //008 000000 261859Z AUTO 00000KT 9999 CLR 32/13 A3018 RMK CDP03661 CLR=
0143007026999992016062619144+00000+000000FM-15+702699999V0209999C000012200019N999999999+03201+01301999999ADDGF100991999999999999999999MA1102171999999REMMET090MOBOB0 METAR 7026 //008 000000 261914Z AUTO 00000KT //// CLR 32/13 A3017 RMK CDP03661 CLR=
0143007026999992016062619294+00000+000000FM-15+702699999V0209999C000012200019N009999199+03201+01201999999ADDGF100991999999999999999999MA1102171999999REMMET090MOBOB0 METAR 7026 //008 000000 261929Z AUTO 00000KT 9999 CLR 32/12 A3017 RMK CDP03661 CLR=
0143007026999992016062619444+00000+000000FM-15+702699999V0209999C000012200019N009999199+03201+01301999999ADDGF100991999999999999999999MA1102131999999REMMET090MOBOB0 METAR 7026 //008 000000 261944Z AUTO 00000KT 9999 CLR 32/13 A3016 RMK CDP03661 CLR=
0143007026999992016062619594+00000+000000FM-15+702699999V0209999C000012200019N009999199+03201+01201999999ADDGF100991999999999999999999MA1102131999999REMMET090MOBOB0 METAR 7026 //008 000000 261959Z AUTO 00000KT 9999 CLR 32/12 A3016 RMK CDP03661 CLR=
0143007026999992016062620144+00000+000000FM-15+702699999V0209999C000012200019N009999199+03201+01301999999ADDGF100991999999999999999999MA1102131999999REMMET090MOBOB0 METAR 7026 //008 000000 262014Z AUTO 00000KT 9999 CLR 32/13 A3016 RMK CDP03661 CLR=
0143007026999992016062620294+00000+000000FM-15+702699999V0209999C000012200019N009999199+03301+01401999999ADDGF100991999999999999999999MA1102101999999REMMET090MOBOB0 METAR 7026 //008 000000 262029Z AUTO 00000KT 9999 CLR 33/14 A3015 RMK CDP03661 CLR=
0143007026999992016062620444+00000+000000FM-15+702699999V0209999C000012200019N999999999+03201+01301999999ADDGF100991999999999999999999MA1102101999999REMMET090MOBOB0 METAR 7026 //008 000000 262044Z AUTO 00000KT //// CLR 32/13 A3015 RMK CDP03661 CLR=
0143007026999992016062620594+00000+000000FM-15+702699999V0209999C000012200019N009999199+03301+01401999999ADDGF100991999999999999999999MA1102071999999REMMET090MOBOB0 METAR 7026 //008 000000 262059Z AUTO 00000KT 9999 CLR 33/14 A3014 RMK CDP03661 CLR=
0143007026999992016062621144+00000+000000FM-15+702699999V0209999C000012200019N999999999+03201+01301999999ADDGF100991999999999999999999MA1102031999999REMMET090MOBOB0 METAR 7026 //008 000000 262114Z AUTO 00000KT //// CLR 32/13 A3013 RMK CDP03661 CLR=
0143007026999992016062621294+00000+000000FM-15+702699999V0209999C000012200019N009999199+03301+01301999999ADDGF100991999999999999999999MA1102031999999REMMET090MOBOB0 METAR 7026 //008 000000 262129Z AUTO 00000KT 9999 CLR 33/13 A3013 RMK CDP03661 CLR=
0143007026999992016062621444+00000+000000FM-15+702699999V0209999C000012200019N009999199+03301+01401999999ADDGF100991999999999999999999MA1102031999999REMMET090MOBOB0 METAR 7026 //008 000000 262144Z AUTO 00000KT 9999 CLR 33/14 A3013 RMK CDP03661 CLR=
0143007026999992016062621594+00000+000000FM-15+702699999V0209999C000012200019N009999199+03201+01401999999ADDGF100991999999999999999999MA1102031999999REMMET090MOBOB0 METAR 7026 //008 000000 262159Z AUTO 00000KT 9999 CLR 32/14 A3013 RMK CDP03661 CLR=
0143007026999992016062622144+00000+000000FM-15+702699999V0209999C000012200019N009999199+03201+01401999999ADDGF100991999999999999999999MA1102001999999REMMET090MOBOB0 METAR 7026 //008 000000 262214Z AUTO 00000KT 9999 CLR 32/14 A3012 RMK CDP03661 CLR=
0143007026999992016062622294+00000+000000FM-15+702699999V0209999C000012200019N999999999+03201+01401999999ADDGF100991999999999999999999MA1102001999999REMMET090MOBOB0 METAR 7026 //008 000000 262229Z AUTO 00000KT //// CLR 32/14 A3012 RMK CDP03661 CLR=
0143007026999992016062622444+00000+000000FM-15+702699999V0209999C000012200019N009999199+03201+01401999999ADDGF100991999999999999999999MA1102001999999REMMET090MOBOB0 METAR 7026 //008 000000 262244Z AUTO 00000KT 9999 CLR 32/14 A3012 RMK CDP03661 CLR=
0143007026999992016062622594+00000+000000FM-15+702699999V0209999C000012200019N009999199+03201+01501999999ADDGF100991999999999999999999MA1102001999999REMMET090MOBOB0 METAR 7026 //008 000000 262259Z AUTO 00000KT 9999 CLR 32/15 A3012 RMK CDP03661 CLR=
0143007026999992016062623144+00000+000000FM-15+702699999V0209999C000012200019N999999999+03201+01501999999ADDGF100991999999999999999999MA1101961999999REMMET090MOBOB0 METAR 7026 //008 000000 262314Z AUTO 00000KT //// CLR 32/15 A3011 RMK CDP03661 CLR=
0143007026999992016062623294+00000+000000FM-15+702699999V0209999C000012200019N009999199+03101+01401999999ADDGF100991999999999999999999MA1102001999999REMMET090MOBOB0 METAR 7026 //008 000000 262329Z AUTO 00000KT 9999 CLR 31/14 A3012 RMK CDP03661 CLR=
0199007026999992016062623444+00000+000000FM-15+702699999V0209999C000019999999N009999199+03101+01501999999ADDGA1021+018291999GE19MSL   +99999+99999GF199999021999018291999999MA1102001999999REMMET108MOBOB0 METAR 7026 //008 000000 262344Z AUTO 00000KT 9999 FEW060 31/15 A3012 RMK CDP03661 FEW060 CLD AVG 060=
0143007026999992016062623594+00000+000000FM-15+702699999V0209999C000012200019N009999199+03001+01501999999ADDGF100991999999999999999999MA1102001999999REMMET090MOBOB0 METAR 7026 //008 000000 262359Z AUTO 00000KT 9999 CLR 30/15 A3012 RMK CDP03661 CLR=
0143007026999992016062700144+00000+000000FM-15+702699999V0209999C000012200019N009999199+02901+01501999999ADDGF100991999999999999999999MA1102001999999REMMET090MOBOB0 METAR 7026 //008 000000 270014Z AUTO 00000KT 9999 CLR 29/15 A3012 RMK CDP03661 CLR=
0143007026999992016062700294+00000+000000FM-15+702699999V0209999C000012200019N999999999+02901+01501999999ADDGF100991999999999999999999MA1102031999999REMMET090MOBOB0 METAR 7026 //008 000000 270029Z AUTO 00000KT //// CLR 29/15 A3013 RMK CDP03661 CLR=
0143007026999992016062700444+00000+000000FM-15+702699999V0209999C000012200019N009999199+02901+01501999999ADDGF100991999999999999999999MA1102031999999REMMET090MOBOB0 METAR 7026 //008 000000 270044Z AUTO 00000KT 9999 CLR 29/15 A3013 RMK CDP03661 CLR=
0143007026999992016062700594+00000+000000FM-15+702699999V0209999C000012200019N999999999+02801+01501999999ADDGF100991999999999999999999MA1102031999999REMMET090MOBOB0 METAR 7026 //008 000000 270059Z AUTO 00000KT //// CLR 28/15 A3013 RMK CDP03661 CLR=
0143007026999992016062701144+00000+000000FM-15+702699999V0209999C000012200019N009999199+02801+01501999999ADDGF100991999999999999999999MA1102031999999REMMET090MOBOB0 METAR 7026 //008 000000 270114Z AUTO 00000KT 9999 CLR 28/15 A3013 RMK CDP03661 CLR=
0143007026999992016062701294+00000+000000FM-15+702699999V0209999C000012200019N009999199+02801+01601999999ADDGF100991999999999999999999MA1102031999999REMMET090MOBOB0 METAR 7026 //008 000000 270129Z AUTO 00000KT 9999 CLR 28/16 A3013 RMK CDP03661 CLR=
0143007026999992016062701444+00000+000000FM-15+702699999V0209999C000012200019N999999999+02801+01601999999ADDGF100991999999999999999999MA1102031999999REMMET090MOBOB0 METAR 7026 //008 000000 270144Z AUTO 00000KT //// CLR 28/16 A3013 RMK CDP03661 CLR=
0143007026999992016062701594+00000+000000FM-15+702699999V0209999C000012200019N009999199+02701+01601999999ADDGF100991999999999999999999MA1102071999999REMMET090MOBOB0 METAR 7026 //008 000000 270159Z AUTO 00000KT 9999 CLR 27/16 A3014 RMK CDP03661 CLR=
0143007026999992016062702144+00000+000000FM-15+702699999V0209999C000012200019N009999199+02701+01601999999ADDGF100991999999999999999999MA1102071999999REMMET090MOBOB0 METAR 7026 //008 000000 270214Z AUTO 00000KT 9999 CLR 27/16 A3014 RMK CDP03661 CLR=
0143007026999992016062702294+00000+000000FM-15+702699999V0209999C000012200019N009999199+02701+01601999999ADDGF100991999999999999999999MA1102071999999REMMET090MOBOB0 METAR 7026 //008 000000 270229Z AUTO 00000KT 9999 CLR 27/16 A3014 RMK CDP03661 CLR=
0143007026999992016062702444+00000+000000FM-15+702699999V0209999C000012200019N009999199+02701+01601999999ADDGF100991999999999999999999MA1102101999999REMMET090MOBOB0 METAR 7026 //008 000000 270244Z AUTO 00000KT 9999 CLR 27/16 A3015 RMK CDP03661 CLR=
0143007026999992016062702594+00000+000000FM-15+702699999V0209999C000012200019N009999199+02601+01601999999ADDGF100991999999999999999999MA1102071999999REMMET090MOBOB0 METAR 7026 //008 000000 270259Z AUTO 00000KT 9999 CLR 26/16 A3014 RMK CDP03661 CLR=
0143007026999992016062703144+00000+000000FM-15+702699999V0209999C000012200019N009999199+02601+01701999999ADDGF100991999999999999999999MA1102101999999REMMET090MOBOB0 METAR 7026 //008 000000 270314Z AUTO 00000KT 9999 CLR 26/17 A3015 RMK CDP03661 CLR=
0143007026999992016062703294+00000+000000FM-15+702699999V0209999C000012200019N009999199+02501+01701999999ADDGF100991999999999999999999MA1102131999999REMMET090MOBOB0 METAR 7026 //008 000000 270329Z AUTO 00000KT 9999 CLR 25/17 A3016 RMK CDP03661 CLR=
0143007026999992016062703444+00000+000000FM-15+702699999V0209999C000012200019N009999199+02501+01601999999ADDGF100991999999999999999999MA1102131999999REMMET090MOBOB0 METAR 7026 //008 000000 270344Z AUTO 00000KT 9999 CLR 25/16 A3016 RMK CDP03661 CLR=
0143007026999992016062703594+00000+000000FM-15+702699999V0209999C000012200019N009999199+02401+01701999999ADDGF100991999999999999999999MA1102131999999REMMET090MOBOB0 METAR 7026 //008 000000 270359Z AUTO 00000KT 9999 CLR 24/17 A3016 RMK CDP03661 CLR=
0143007026999992016062704144+00000+000000FM-15+702699999V0209999C000012200019N999999999+02401+01701999999ADDGF100991999999999999999999MA1102101999999REMMET090MOBOB0 METAR 7026 //008 000000 270414Z AUTO 00000KT //// CLR 24/17 A3015 RMK CDP03661 CLR=
0143007026999992016062704294+00000+000000FM-15+702699999V0209999C000012200019N009999199+02401+01601999999ADDGF100991999999999999999999MA1102101999999REMMET090MOBOB0 METAR 7026 //008 000000 270429Z AUTO 00000KT 9999 CLR 24/16 A3015 RMK CDP03661 CLR=
0143007026999992016062704444+00000+000000FM-15+702699999V0209999C000012200019N009999199+02401+01701999999ADDGF100991999999999999999999MA1102101999999REMMET090MOBOB0 METAR 7026 //008 000000 270444Z AUTO 00000KT 9999 CLR 24/17 A3015 RMK CDP03661 CLR=
0152007026999992016062704594+00000+000000FM-15+702699999V0209999C000012200019N009999199+02301+01701999999ADDAW1051GF100991999999999999999999MA1102101999999REMMET093MOBOB0 METAR 7026 //008 000000 270459Z AUTO 00000KT 9999 HZ CLR 23/17 A3015 RMK CDP03661 CLR=
0152007026999992016062705144+00000+000000FM-15+702699999V0209999C000012200019N009999199+02201+01801999999ADDAW1051GF100991999999999999999999MA1102101999999REMMET093MOBOB0 METAR 7026 //008 000000 270514Z AUTO 00000KT 9999 HZ CLR 22/18 A3015 RMK CDP03661 CLR=
0152007026999992016062705294+00000+000000FM-15+702699999V0209999C000012200019N008000199+02201+01701999999ADDAW1051GF100991999999999999999999MA1102131999999REMMET093MOBOB0 METAR 7026 //008 000000 270529Z AUTO 00000KT 8000 HZ CLR 22/17 A3016 RMK CDP03661 CLR=
0152007026999992016062705444+00000+000000FM-15+702699999V0209999C000012200019N009000199+02301+01801999999ADDAW1051GF100991999999999999999999MA1102101999999REMMET093MOBOB0 METAR 7026 //008 000000 270544Z AUTO 00000KT 9000 HZ CLR 23/18 A3015 RMK CDP03661 CLR=
0152007026999992016062705594+00000+000000FM-15+702699999V0209999C000012200019N009000199+02201+01701999999ADDAW1051GF100991999999999999999999MA1102101999999REMMET093MOBOB0 METAR 7026 //008 000000 270559Z AUTO 00000KT 9000 HZ CLR 22/17 A3015 RMK CDP03661 CLR=
0152007026999992016062706144+00000+000000FM-15+702699999V0209999C000012200019N009000199+02201+01801999999ADDAW1051GF100991999999999999999999MA1102101999999REMMET093MOBOB0 METAR 7026 //008 000000 270614Z AUTO 00000KT 9000 HZ CLR 22/18 A3015 RMK CDP03661 CLR=
0152007026999992016062706294+00000+000000FM-15+702699999V0209999C000012200019N009999199+02201+01701999999ADDAW1051GF100991999999999999999999MA1102071999999REMMET093MOBOB0 METAR 7026 //008 000000 270629Z AUTO 00000KT 9999 HZ CLR 22/17 A3014 RMK CDP03661 CLR=
0152007026999992016062706444+00000+000000FM-15+702699999V0209999C000012200019N009999199+02201+01801999999ADDAW1051GF100991999999999999999999MA1102071999999REMMET093MOBOB0 METAR 7026 //008 000000 270644Z AUTO 00000KT 9999 HZ CLR 22/18 A3014 RMK CDP03661 CLR=
0152007026999992016062706594+00000+000000FM-15+702699999V0209999C000012200019N009999199+02201+01701999999ADDAW1051GF100991999999999999999999MA1102031999999REMMET093MOBOB0 METAR 7026 //008 000000 270659Z AUTO 00000KT 9999 HZ CLR 22/17 A3013 RMK CDP03661 CLR=
0152007026999992016062707144+00000+000000FM-15+702699999V0209999C000012200019N009999199+02201+01801999999ADDAW1051GF100991999999999999999999MA1102031999999REMMET093MOBOB0 METAR 7026 //008 000000 270714Z AUTO 00000KT 9999 HZ CLR 22/18 A3013 RMK CDP03661 CLR=
0152007026999992016062707294+00000+000000FM-15+702699999V0209999C000012200019N009999199+02201+01801999999ADDAW1051GF100991999999999999999999MA1102031999999REMMET093MOBOB0 METAR 7026 //008 000000 270729Z AUTO 00000KT 9999 HZ CLR 22/18 A3013 RMK CDP03661 CLR=
0152007026999992016062707444+00000+000000FM-15+702699999V0209999C000012200019N009999199+02101+01801999999ADDAW1051GF100991999999999999999999MA1102031999999REMMET093MOBOB0 METAR 7026 //008 000000 270744Z AUTO 00000KT 9999 HZ CLR 21/18 A3013 RMK CDP03661 CLR=
0152007026999992016062707594+00000+000000FM-15+702699999V0209999C000012200019N009000199+02101+01801999999ADDAW1051GF100991999999999999999999MA1102031999999REMMET093MOBOB0 METAR 7026 //008 000000 270759Z AUTO 00000KT 9000 HZ CLR 21/18 A3013 RMK CDP03661 CLR=
0152007026999992016062708144+00000+000000FM-15+702699999V0209999C000012200019N009999199+02101+01801999999ADDAW1051GF100991999999999999999999MA1102071999999REMMET093MOBOB0 METAR 7026 //008 000000 270814Z AUTO 00000KT 9999 HZ CLR 21/18 A3014 RMK CDP03661 CLR=
0152007026999992016062708294+00000+000000FM-15+702699999V0209999C000012200019N009999199+02101+01801999999ADDAW1051GF100991999999999999999999MA1102071999999REMMET093MOBOB0 METAR 7026 //008 000000 270829Z AUTO 00000KT 9999 HZ CLR 21/18 A3014 RMK CDP03661 CLR=
0152007026999992016062708444+00000+000000FM-15+702699999V0209999C000012200019N009999199+02101+01801999999ADDAW1051GF100991999999999999999999MA1102071999999REMMET093MOBOB0 METAR 7026 //008 000000 270844Z AUTO 00000KT 9999 HZ CLR 21/18 A3014 RMK CDP03661 CLR=
0208007026999992016062708594+00000+000000FM-15+702699999V0209999C000010015219N008000199+02101+01801999999ADDAW1051GA1071+001521999GE19MSL   +99999+99999GF199999071999001521999999MA1102071999999REMMET111MOBOB0 METAR 7026 //008 000000 270859Z AUTO 00000KT 8000 HZ BKN005 21/18 A3014 RMK CDP03661 BKN005 CLD AVG 005=
0208007026999992016062709144+00000+000000FM-15+702699999V0209999C000010012219N009999199+02101+01801999999ADDAW1051GA1081+001221999GE19MSL   +99999+99999GF199999081999001221999999MA1102071999999REMMET111MOBOB0 METAR 7026 //008 000000 270914Z AUTO 00000KT 9999 HZ OVC004 21/18 A3014 RMK CDP03661 OVC004 CLD AVG 008=
0208007026999992016062709294+00000+000000FM-15+702699999V0209999C000010030519N009000199+02101+01801999999ADDAW1051GA1071+003051999GE19MSL   +99999+99999GF199999071999003051999999MA1102031999999REMMET111MOBOB0 METAR 7026 //008 000000 270929Z AUTO 00000KT 9000 HZ BKN010 21/18 A3013 RMK CDP03661 BKN010 CLD AVG 010=
0208007026999992016062709444+00000+000000FM-15+702699999V0209999C000010021319N009000199+02101+01801999999ADDAW1051GA1081+002131999GE19MSL   +99999+99999GF199999081999002131999999MA1102071999999REMMET111MOBOB0 METAR 7026 //008 000000 270944Z AUTO 00000KT 9000 HZ OVC007 21/18 A3014 RMK CDP03661 OVC007 CLD AVG 009=
0208007026999992016062709594+00000+000000FM-15+702699999V0209999C000010015219N006000199+02001+01701999999ADDAW1051GA1081+001521999GE19MSL   +99999+99999GF199999081999001521999999MA1102071999999REMMET111MOBOB0 METAR 7026 //008 000000 270959Z AUTO 00000KT 6000 HZ OVC005 20/17 A3014 RMK CDP03661 OVC005 CLD AVG 010=
0208007026999992016062710144+00000+000000FM-15+702699999V0209999C000010033519N006000199+02001+01701999999ADDAW1051GA1081+003351999GE19MSL   +99999+99999GF199999081999003351999999MA1102071999999REMMET111MOBOB0 METAR 7026 //008 000000 271014Z AUTO 00000KT 6000 HZ OVC011 20/17 A3014 RMK CDP03661 OVC011 CLD AVG 012=
0208007026999992016062710294+00000+000000FM-15+702699999V0209999C000010003019N003600199+02101+01801999999ADDAW1051GA1081+000301999GE19MSL   +99999+99999GF199999081999000301999999MA1102071999999REMMET111MOBOB0 METAR 7026 //008 000000 271029Z AUTO 00000KT 3600 HZ OVC001 21/18 A3014 RMK CDP03661 OVC001 CLD AVG 010=
0208007026999992016062710444+00000+000000FM-15+702699999V0209999C000010033519N004400199+02101+01801999999ADDAW1051GA1081+003351999GE19MSL   +99999+99999GF199999081999003351999999MA1102101999999REMMET111MOBOB0 METAR 7026 //008 000000 271044Z AUTO 00000KT 4400 HZ OVC011 21/18 A3015 RMK CDP03661 OVC011 CLD AVG 011=
0208007026999992016062710594+00000+000000FM-15+702699999V0209999C000010030519N004800199+02101+01801999999ADDAW1051GA1081+003051999GE19MSL   +99999+99999GF199999081999003051999999MA1102071999999REMMET111MOBOB0 METAR 7026 //008 000000 271059Z AUTO 00000KT 4800 HZ OVC010 21/18 A3014 RMK CDP03661 OVC010 CLD AVG 010=
0208007026999992016062711144+00000+000000FM-15+702699999V0209999C000010027419N004800199+02201+01801999999ADDAW1051GA1081+002741999GE19MSL   +99999+99999GF199999081999002741999999MA1102071999999REMMET111MOBOB0 METAR 7026 //008 000000 271114Z AUTO 00000KT 4800 HZ OVC009 22/18 A3014 RMK CDP03661 OVC009 CLD AVG 009=
0208007026999992016062711294+00000+000000FM-15+702699999V0209999C000010021319N006000199+02301+01901999999ADDAW1051GA1081+002131999GE19MSL   +99999+99999GF199999081999002131999999MA1102071999999REMMET111MOBOB0 METAR 7026 //008 000000 271129Z AUTO 00000KT 6000 HZ OVC007 23/19 A3014 RMK CDP03661 OVC007 CLD AVG 008=
0208007026999992016062711444+00000+000000FM-15+702699999V0209999C000010012219N009999199+02301+02101999999ADDAW1051GA1081+001221999GE19MSL   +99999+99999GF199999081999001221999999MA1102031999999REMMET111MOBOB0 METAR 7026 //008 000000 271144Z AUTO 00000KT 9999 HZ OVC004 23/21 A3013 RMK CDP03661 OVC004 CLD AVG 006=
0208007026999992016062711594+00000+000000FM-15+702699999V0209999C000010006119N009999199+02301+02101999999ADDAW1051GA1081+000611999GE19MSL   +99999+99999GF199999081999000611999999MA1102031999999REMMET111MOBOB0 METAR 7026 //008 000000 271159Z AUTO 00000KT 9999 HZ OVC002 23/21 A3013 RMK CDP03661 OVC002 CLD AVG 004=
0208007026999992016062712144+00000+000000FM-15+702699999V0209999C000010018319N009999199+02401+02201999999ADDAW1051GA1081+001831999GE19MSL   +99999+99999GF199999081999001831999999MA1102071999999REMMET111MOBOB0 METAR 7026 //008 000000 271214Z AUTO 00000KT 9999 HZ OVC006 24/22 A3014 RMK CDP03661 OVC006 CLD AVG 007=
0199007026999992016062712294+00000+000000FM-15+702699999V0209999C000010027419N009999199+02401+02101999999ADDGA1081+002741999GE19MSL   +99999+99999GF199999081999002741999999MA1102071999999REMMET108MOBOB0 METAR 7026 //008 000000 271229Z AUTO 00000KT 9999 OVC009 24/21 A3014 RMK CDP03661 OVC009 CLD AVG 010=
0208007026999992016062712444+00000+000000FM-15+702699999V0209999C000010033519N009999199+02501+02101999999ADDAW1051GA1081+003351999GE19MSL   +99999+99999GF199999081999003351999999MA1102101999999REMMET111MOBOB0 METAR 7026 //008 000000 271244Z AUTO 00000KT 9999 HZ OVC011 25/21 A3015 RMK CDP03661 OVC011 CLD AVG 011=
0199007026999992016062712594+00000+000000FM-15+702699999V0209999C000010036619N999999999+02501+02101999999ADDGA1081+003661999GE19MSL   +99999+99999GF199999081999003661999999MA1102101999999REMMET108MOBOB0 METAR 7026 //008 000000 271259Z AUTO 00000KT //// OVC012 25/21 A3015 RMK CDP03661 OVC012 CLD AVG 012=
0208007026999992016062713144+00000+000000FM-15+702699999V0209999C000010039619N009999199+02501+02101999999ADDAW1051GA1081+003961999GE19MSL   +99999+99999GF199999081999003961999999MA1102101999999REMMET111MOBOB0 METAR 7026 //008 000000 271314Z AUTO 00000KT 9999 HZ OVC013 25/21 A3015 RMK CDP03661 OVC013 CLD AVG 013=
0208007026999992016062713294+00000+000000FM-15+702699999V0209999C000010039619N009999199+02601+02101999999ADDAW1051GA1081+003961999GE19MSL   +99999+99999GF199999081999003961999999MA1102101999999REMMET111MOBOB0 METAR 7026 //008 000000 271329Z AUTO 00000KT 9999 HZ OVC013 26/21 A3015 RMK CDP03661 OVC013 CLD AVG 014=
0199007026999992016062713444+00000+000000FM-15+702699999V0209999C000010042719N009999199+02601+02101999999ADDGA1081+004271999GE19MSL   +99999+99999GF199999081999004271999999MA1102131999999REMMET108MOBOB0 METAR 7026 //008 000000 271344Z AUTO 00000KT 9999 OVC014 26/21 A3016 RMK CDP03661 OVC014 CLD AVG 015=
0199007026999992016062713594+00000+000000FM-15+702699999V0209999C000010048819N009999199+02701+02101999999ADDGA1071+004881999GE19MSL   +99999+99999GF199999071999004881999999MA1102101999999REMMET108MOBOB0 METAR 7026 //008 000000 271359Z AUTO 00000KT 9999 BKN016 27/21 A3015 RMK CDP03661 BKN016 CLD AVG 017=
0199007026999992016062714144+00000+000000FM-15+702699999V0209999C000010057919N009999199+02701+02101999999ADDGA1071+005791999GE19MSL   +99999+99999GF199999071999005791999999MA1102101999999REMMET108MOBOB0 METAR 7026 //008 000000 271414Z AUTO 00000KT 9999 BKN019 27/21 A3015 RMK CDP03661 BKN019 CLD AVG 020=
0199007026999992016062714294+00000+000000FM-15+702699999V0209999C000010057919N009999199+02801+02101999999ADDGA1081+005791999GE19MSL   +99999+99999GF199999081999005791999999MA1102101999999REMMET108MOBOB0 METAR 7026 //008 000000 271429Z AUTO 00000KT 9999 OVC019 28/21 A3015 RMK CDP03661 OVC019 CLD AVG 021=
0199007026999992016062714444+00000+000000FM-15+702699999V0209999C000010061019N009999199+02901+02201999999ADDGA1071+006101999GE19MSL   +99999+99999GF199999071999006101999999MA1102101999999REMMET108MOBOB0 METAR 7026 //008 000000 271444Z AUTO 00000KT 9999 BKN020 29/22 A3015 RMK CDP03661 BKN020 CLD AVG 021=
0208007026999992016062714594+00000+000000FM-15+702699999V0209999C000019999999N009999199+02801+02101999999ADDAW1051GA1041+006401999GE19MSL   +99999+99999GF199999041999006401999999MA1102101999999REMMET111MOBOB0 METAR 7026 //008 000000 271459Z AUTO 00000KT 9999 HZ SCT021 28/21 A3015 RMK CDP03661 SCT021 CLD AVG 023=
0143007026999992016062715144+00000+000000FM-15+702699999V0209999C000012200019N009999199+02801+02101999999ADDGF100991999999999999999999MA1102101999999REMMET090MOBOB0 METAR 7026 //008 000000 271514Z AUTO 00000KT 9999 CLR 28/21 A3015 RMK CDP03661 CLR=
0199007026999992016062715294+00000+000000FM-15+702699999V0209999C000019999999N999999999+02901+02101999999ADDGA1021+007011999GE19MSL   +99999+99999GF199999021999007011999999MA1102071999999REMMET108MOBOB0 METAR 7026 //008 000000 271529Z AUTO 00000KT //// FEW023 29/21 A3014 RMK CDP03661 FEW023 CLD AVG 023=
0199007026999992016062715444+00000+000000FM-15+702699999V0209999C000019999999N009999199+02901+02101999999ADDGA1041+007921999GE19MSL   +99999+99999GF199999041999007921999999MA1102071999999REMMET108MOBOB0 METAR 7026 //008 000000 271544Z AUTO 00000KT 9999 SCT026 29/21 A3014 RMK CDP03661 SCT026 CLD AVG 027=
0199007026999992016062715594+00000+000000FM-15+702699999V0209999C000019999999N009999199+03101+02001999999ADDGA1041+008531999GE19MSL   +99999+99999GF199999041999008531999999MA1102031999999REMMET108MOBOB0 METAR 7026 //008 000000 271559Z AUTO 00000KT 9999 SCT028 31/20 A3013 RMK CDP03661 SCT028 CLD AVG 028=
0199007026999992016062716144+00000+000000FM-15+702699999V0209999C000019999999N009999199+03101+02001999999ADDGA1041+009751999GE19MSL   +99999+99999GF199999041999009751999999MA1102031999999REMMET108MOBOB0 METAR 7026 //008 000000 271614Z AUTO 00000KT 9999 SCT032 31/20 A3013 RMK CDP03661 SCT032 CLD AVG 033=
0199007026999992016062716294+00000+000000FM-15+702699999V0209999C000019999999N009999199+03101+02001999999ADDGA1041+010061999GE19MSL   +99999+99999GF199999041999010061999999MA1102001999999REMMET108MOBOB0 METAR 7026 //008 000000 271629Z AUTO 00000KT 9999 SCT033 31/20 A3012 RMK CDP03661 SCT033 CLD AVG 035=
0199007026999992016062716444+00000+000000FM-15+702699999V0209999C000019999999N999999999+03101+01901999999ADDGA1041+012191999GE19MSL   +99999+99999GF199999041999012191999999MA1101961999999REMMET108MOBOB0 METAR 7026 //008 000000 271644Z AUTO 00000KT //// SCT040 31/19 A3011 RMK CDP03661 SCT040 CLD AVG 041=
0199007026999992016062716594+00000+000000FM-15+702699999V0209999C000010164619N009999199+03101+01901999999ADDGA1071+016461999GE19MSL   +99999+99999GF199999071999016461999999MA1101961999999REMMET108MOBOB0 METAR 7026 //008 000000 271659Z AUTO 00000KT 9999 BKN054 31/19 A3011 RMK CDP03661 BKN054 CLD AVG 057=
0143007026999992016062717144+00000+000000FM-15+702699999V0209999C000012200019N009999199+03201+01801999999ADDGF100991999999999999999999MA1101931999999REMMET090MOBOB0 METAR 7026 //008 000000 271714Z AUTO 00000KT 9999 CLR 32/18 A3010 RMK CDP03661 CLR=
0199007026999992016062717294+00000+000000FM-15+702699999V0209999C000019999999N009999199+03201+01801999999ADDGA1021+015541999GE19MSL   +99999+99999GF199999021999015541999999MA1101901999999REMMET108MOBOB0 METAR 7026 //008 000000 271729Z AUTO 00000KT 9999 FEW051 32/18 A3009 RMK CDP03661 FEW051 CLD AVG 052=
0199007026999992016062717444+00000+000000FM-15+702699999V0209999C000019999999N009999199+03201+01701999999ADDGA1021+017981999GE19MSL   +99999+99999GF199999021999017981999999MA1101861999999REMMET108MOBOB0 METAR 7026 //008 000000 271744Z AUTO 00000KT 9999 FEW059 32/17 A3008 RMK CDP03661 FEW059 CLD AVG 059=
0199007026999992016062717594+00000+000000FM-15+702699999V0209999C000019999999N999999999+03201+01701999999ADDGA1021+017371999GE19MSL   +99999+99999GF199999021999017371999999MA1101861999999REMMET108MOBOB0 METAR 7026 //008 000000 271759Z AUTO 00000KT //// FEW057 32/17 A3008 RMK CDP03661 FEW057 CLD AVG 058=
0143007026999992016062718144+00000+000000FM-15+702699999V0209999C000012200019N009999199+03301+01801999999ADDGF100991999999999999999999MA1101831999999REMMET090MOBOB0 METAR 7026 //008 000000 271814Z AUTO 00000KT 9999 CLR 33/18 A3007 RMK CDP03661 CLR=
0143007026999992016062718294+00000+000000FM-15+702699999V0209999C000012200019N999999999+03201+01801999999ADDGF100991999999999999999999MA1101791999999REMMET090MOBOB0 METAR 7026 //008 000000 271829Z AUTO 00000KT //// CLR 32/18 A3006 RMK CDP03661 CLR=
0143007026999992016062718444+00000+000000FM-15+702699999V0209999C000012200019N009999199+03201+01701999999ADDGF100991999999999999999999MA1101761999999REMMET090MOBOB0 METAR 7026 //008 000000 271844Z AUTO 00000KT 9999 CLR 32/17 A3005 RMK CDP03661 CLR=
0143007026999992016062718594+00000+000000FM-15+702699999V0209999C000012200019N009999199+03301+01701999999ADDGF100991999999999999999999MA1101761999999REMMET090MOBOB0 METAR 7026 //008 000000 271859Z AUTO 00000KT 9999 CLR 33/17 A3005 RMK CDP03661 CLR=
0199007026999992016062719144+00000+000000FM-15+702699999V0209999C000019999999N009999199+03301+01701999999ADDGA1041+017681999GE19MSL   +99999+99999GF199999041999017681999999MA1101731999999REMMET108MOBOB0 METAR 7026 //008 000000 271914Z AUTO 00000KT 9999 SCT058 33/17 A3004 RMK CDP03661 SCT058 CLD AVG 059=
0143007026999992016062719294+00000+000000FM-15+702699999V0209999C000012200019N009999199+03301+01801999999ADDGF100991999999999999999999MA1101691999999REMMET090MOBOB0 METAR 7026 //008 000000 271929Z AUTO 00000KT 9999 CLR 33/18 A3003 RMK CDP03661 CLR=
0199007026999992016062719444+00000+000000FM-15+702699999V0209999C000010176819N009999199+03201+01701999999ADDGA1071+017681999GE19MSL   +99999+99999GF199999071999017681999999MA1101691999999REMMET108MOBOB0 METAR 7026 //008 000000 271944Z AUTO 00000KT 9999 BKN058 32/17 A3003 RMK CDP03661 BKN058 CLD AVG 059=
0143007026999992016062719594+00000+000000FM-15+702699999V0209999C000012200019N009999199+03301+01701999999ADDGF100991999999999999999999MA1101691999999REMMET090MOBOB0 METAR 7026 //008 000000 271959Z AUTO 00000KT 9999 CLR 33/17 A3003 RMK CDP03661 CLR=
0143007026999992016062720144+00000+000000FM-15+702699999V0209999C000012200019N009999199+03301+01701999999ADDGF100991999999999999999999MA1101661999999REMMET090MOBOB0 METAR 7026 //008 000000 272014Z AUTO 00000KT 9999 CLR 33/17 A3002 RMK CDP03661 CLR=
0143007026999992016062720294+00000+000000FM-15+702699999V0209999C000012200019N009999199+03301+01701999999ADDGF100991999999999999999999MA1101661999999REMMET090MOBOB0 METAR 7026 //008 000000 272029Z AUTO 00000KT 9999 CLR 33/17 A3002 RMK CDP03661 CLR=
0199007026999992016062720444+00000+000000FM-15+702699999V0209999C000019999999N009999199+03401+01701999999ADDGA1041+017681999GE19MSL   +99999+99999GF199999041999017681999999MA1101661999999REMMET108MOBOB0 METAR 7026 //008 000000 272044Z AUTO 00000KT 9999 SCT058 34/17 A3002 RMK CDP03661 SCT058 CLD AVG 062=
0199007026999992016062720594+00000+000000FM-15+702699999V0209999C000019999999N009999199+03201+01701999999ADDGA1041+017681999GE19MSL   +99999+99999GF199999041999017681999999MA1101661999999REMMET108MOBOB0 METAR 7026 //008 000000 272059Z AUTO 00000KT 9999 SCT058 32/17 A3002 RMK CDP03661 SCT058 CLD AVG 059=
0143007026999992016062721144+00000+000000FM-15+702699999V0209999C000012200019N009999199+03201+01601999999ADDGF100991999999999999999999MA1101631999999REMMET090MOBOB0 METAR 7026 //008 000000 272114Z AUTO 00000KT 9999 CLR 32/16 A3001 RMK CDP03661 CLR=
0143007026999992016062721294+00000+000000FM-15+702699999V0209999C000012200019N009999199+03301+01701999999ADDGF100991999999999999999999MA1101591999999REMMET090MOBOB0 METAR 7026 //008 000000 272129Z AUTO 00000KT 9999 CLR 33/17 A3000 RMK CDP03661 CLR=
0199007026999992016062721444+00000+000000FM-15+702699999V0209999C000019999999N009999199+03201+01601999999ADDGA1041+018591999GE19MSL   +99999+99999GF199999041999018591999999MA1101591999999REMMET108MOBOB0 METAR 7026 //008 000000 272144Z AUTO 00000KT 9999 SCT061 32/16 A3000 RMK CDP03661 SCT061 CLD AVG 064=
0143007026999992016062721594+00000+000000FM-15+702699999V0209999C000012200019N009999199+03301+01501999999ADDGF100991999999999999999999MA1101561999999REMMET090MOBOB0 METAR 7026 //008 000000 272159Z AUTO 00000KT 9999 CLR 33/15 A2999 RMK CDP03661 CLR=
0143007026999992016062722144+00000+000000FM-15+702699999V0209999C000012200019N009999199+03301+01601999999ADDGF100991999999999999999999MA1101561999999REMMET090MOBOB0 METAR 7026 //008 000000 272214Z AUTO 00000KT 9999 CLR 33/16 A2999 RMK CDP03661 CLR=
0143007026999992016062722294+00000+000000FM-15+702699999V0209999C000012200019N009999199+03201+01701999999ADDGF100991999999999999999999MA1101591999999REMMET090MOBOB0 METAR 7026 //008 000000 272229Z AUTO 00000KT 9999 CLR 32/17 A3000 RMK CDP03661 CLR=
0199007026999992016062722444+00000+000000FM-15+702699999V0209999C000019999999N009999199+03201+01801999999ADDGA1041+019511999GE19MSL   +99999+99999GF199999041999019511999999MA1101591999999REMMET108MOBOB0 METAR 7026 //008 000000 272244Z AUTO 00000KT 9999 SCT064 32/18 A3000 RMK CDP03661 SCT064 CLD AVG 066=
0199007026999992016062722594+00000+000000FM-15+702699999V0209999C000019999999N999999999+03201+01601999999ADDGA1021+020121999GE19MSL   +99999+99999GF199999021999020121999999MA1101591999999REMMET108MOBOB0 METAR 7026 //008 000000 272259Z AUTO 00000KT //// FEW066 32/16 A3000 RMK CDP03661 FEW066 CLD AVG 067=
0199007026999992016062723144+00000+000000FM-15+702699999V0209999C000019999999N009999199+03201+01701999999ADDGA1041+020421999GE19MSL   +99999+99999GF199999041999020421999999MA1101631999999REMMET108MOBOB0 METAR 7026 //008 000000 272314Z AUTO 00000KT 9999 SCT067 32/17 A3001 RMK CDP03661 SCT067 CLD AVG 068=
0199007026999992016062723294+00000+000000FM-15+702699999V0209999C000019999999N009999199+03201+01701999999ADDGA1021+019201999GE19MSL   +99999+99999GF199999021999019201999999MA1101661999999REMMET108MOBOB0 METAR 7026 //008 000000 272329Z AUTO 00000KT 9999 FEW063 32/17 A3002 RMK CDP03661 FEW063 CLD AVG 063=
0143007026999992016062723444+00000+000000FM-15+702699999V0209999C000012200019N009999199+03201+01701999999ADDGF100991999999999999999999MA1101631999999REMMET090MOBOB0 METAR 7026 //008 000000 272344Z AUTO 00000KT 9999 CLR 32/17 A3001 RMK CDP03661 CLR=
0143007026999992016062723594+00000+000000FM-15+702699999V0209999C000012200019N009999199+03101+01701999999ADDGF100991999999999999999999MA1101631999999REMMET090MOBOB0 METAR 7026 //008 000000 272359Z AUTO 00000KT 9999 CLR 31/17 A3001 RMK CDP03661 CLR=
0143007026999992016062800144+00000+000000FM-15+702699999V0209999C000012200019N999999999+03101+01701999999ADDGF100991999999999999999999MA1101661999999REMMET090MOBOB0 METAR 7026 //008 000000 280014Z AUTO 00000KT //// CLR 31/17 A3002 RMK CDP03661 CLR=
0143007026999992016062800294+00000+000000FM-15+702699999V0209999C000012200019N009999199+03001+01701999999ADDGF100991999999999999999999MA1101661999999REMMET090MOBOB0 METAR 7026 //008 000000 280029Z AUTO 00000KT 9999 CLR 30/17 A3002 RMK CDP03661 CLR=
0143007026999992016062800444+00000+000000FM-15+702699999V0209999C000012200019N009999199+03001+01701999999ADDGF100991999999999999999999MA1101661999999REMMET090MOBOB0 METAR 7026 //008 000000 280044Z AUTO 00000KT 9999 CLR 30/17 A3002 RMK CDP03661 CLR=
0143007026999992016062800594+00000+000000FM-15+702699999V0209999C000012200019N009999199+03001+01801999999ADDGF100991999999999999999999MA1101661999999REMMET090MOBOB0 METAR 7026 //008 000000 280059Z AUTO 00000KT 9999 CLR 30/18 A3002 RMK CDP03661 CLR=
0143007026999992016062801144+00000+000000FM-15+702699999V0209999C000012200019N009999199+02901+02001999999ADDGF100991999999999999999999MA1101661999999REMMET090MOBOB0 METAR 7026 //008 000000 280114Z AUTO 00000KT 9999 CLR 29/20 A3002 RMK CDP03661 CLR=
0143007026999992016062801294+00000+000000FM-15+702699999V0209999C000012200019N009999199+02901+02101999999ADDGF100991999999999999999999MA1101661999999REMMET090MOBOB0 METAR 7026 //008 000000 280129Z AUTO 00000KT 9999 CLR 29/21 A3002 RMK CDP03661 CLR=
0143007026999992016062801444+00000+000000FM-15+702699999V0209999C000012200019N009999199+02901+02101999999ADDGF100991999999999999999999MA1101661999999REMMET090MOBOB0 METAR 7026 //008 000000 280144Z AUTO 00000KT 9999 CLR 29/21 A3002 RMK CDP03661 CLR=
0143007026999992016062801594+00000+000000FM-15+702699999V0209999C000012200019N009999199+02801+02101999999ADDGF100991999999999999999999MA1101691999999REMMET090MOBOB0 METAR 7026 //008 000000 280159Z AUTO 00000KT 9999 CLR 28/21 A3003 RMK CDP03661 CLR=
0143007026999992016062802144+00000+000000FM-15+702699999V0209999C000012200019N009999199+02801+02101999999ADDGF100991999999999999999999MA1101691999999REMMET090MOBOB0 METAR 7026 //008 000000 280214Z AUTO 00000KT 9999 CLR 28/21 A3003 RMK CDP03661 CLR=
0143007026999992016062802294+00000+000000FM-15+702699999V0209999C000012200019N009999199+02801+02101999999ADDGF100991999999999999999999MA1101731999999REMMET090MOBOB0 METAR 7026 //008 000000 280229Z AUTO 00000KT 9999 CLR 28/21 A3004 RMK CDP03661 CLR=
0143007026999992016062802444+00000+000000FM-15+702699999V0209999C000012200019N009999199+02801+02101999999ADDGF100991999999999999999999MA1101731999999REMMET090MOBOB0 METAR 7026 //008 000000 280244Z AUTO 00000KT 9999 CLR 28/21 A3004 RMK CDP03661 CLR=
0143007026999992016062802594+00000+000000FM-15+702699999V0209999C000012200019N999999999+02801+02101999999ADDGF100991999999999999999999MA1101731999999REMMET090MOBOB0 METAR 7026 //008 000000 280259Z AUTO 00000KT //// CLR 28/21 A3004 RMK CDP03661 CLR=
0143007026999992016062803144+00000+000000FM-15+702699999V0209999C000012200019N009999199+02701+02101999999ADDGF100991999999999999999999MA1101691999999REMMET090MOBOB0 METAR 7026 //008 000000 280314Z AUTO 00000KT 9999 CLR 27/21 A3003 RMK CDP03661 CLR=
0199007026999992016062803294+00000+000000FM-15+702699999V0209999C000019999999N009999199+02701+02101999999ADDGA1021+009451999GE19MSL   +99999+99999GF199999021999009451999999MA1101691999999REMMET108MOBOB0 METAR 7026 //008 000000 280329Z AUTO 00000KT 9999 FEW031 27/21 A3003 RMK CDP03661 FEW031 CLD AVG 031=
0143007026999992016062803444+00000+000000FM-15+702699999V0209999C000012200019N999999999+02701+02001999999ADDGF100991999999999999999999MA1101691999999REMMET090MOBOB0 METAR 7026 //008 000000 280344Z AUTO 00000KT //// CLR 27/20 A3003 RMK CDP03661 CLR=
0143007026999992016062803594+00000+000000FM-15+702699999V0209999C000012200019N999999999+02701+02001999999ADDGF100991999999999999999999MA1101691999999REMMET090MOBOB0 METAR 7026 //008 000000 280359Z AUTO 00000KT //// CLR 27/20 A3003 RMK CDP03661 CLR=
0143007026999992016062804144+00000+000000FM-15+702699999V0209999C000012200019N009999199+02701+02001999999ADDGF100991999999999999999999MA1101691999999REMMET090MOBOB0 METAR 7026 //008 000000 280414Z AUTO 00000KT 9999 CLR 27/20 A3003 RMK CDP03661 CLR=
0143007026999992016062804294+00000+000000FM-15+702699999V0209999C000012200019N009999199+02601+02001999999ADDGF100991999999999999999999MA1101661999999REMMET090MOBOB0 METAR 7026 //008 000000 280429Z AUTO 00000KT 9999 CLR 26/20 A3002 RMK CDP03661 CLR=
0143007026999992016062804444+00000+000000FM-15+702699999V0209999C000012200019N009999199+02601+02101999999ADDGF100991999999999999999999MA1101661999999REMMET090MOBOB0 METAR 7026 //008 000000 280444Z AUTO 00000KT 9999 CLR 26/21 A3002 RMK CDP03661 CLR=
0143007026999992016062804594+00000+000000FM-15+702699999V0209999C000012200019N009999199+02601+02101999999ADDGF100991999999999999999999MA1101691999999REMMET090MOBOB0 METAR 7026 //008 000000 280459Z AUTO 00000KT 9999 CLR 26/21 A3003 RMK CDP03661 CLR=
0143007026999992016062805144+00000+000000FM-15+702699999V0209999C000012200019N999999999+02601+02101999999ADDGF100991999999999999999999MA1101691999999REMMET090MOBOB0 METAR 7026 //008 000000 280514Z AUTO 00000KT //// CLR 26/21 A3003 RMK CDP03661 CLR=
0143007026999992016062805314+00000+000000FM-15+702699999V0209999C000012200019N009999199+02601+02101999999ADDGF100991999999999999999999MA1101661999999REMMET090MOBOB0 METAR 7026 //008 000000 280531Z AUTO 00000KT 9999 CLR 26/21 A3002 RMK CDP03661 CLR=
0143007026999992016062805594+00000+000000FM-15+702699999V0209999C000012200019N009999199+02601+02101999999ADDGF100991999999999999999999MA1101631999999REMMET090MOBOB0 METAR 7026 //008 000000 280559Z AUTO 00000KT 9999 CLR 26/21 A3001 RMK CDP03661 CLR=
0143007026999992016062806144+00000+000000FM-15+702699999V0209999C000012200019N009999199+02501+02101999999ADDGF100991999999999999999999MA1101631999999REMMET090MOBOB0 METAR 7026 //008 000000 280614Z AUTO 00000KT 9999 CLR 25/21 A3001 RMK CDP03661 CLR=
0152007026999992016062806294+00000+000000FM-15+702699999V0209999C000012200019N009999199+02501+02101999999ADDAW1051GF100991999999999999999999MA1101631999999REMMET093MOBOB0 METAR 7026 //008 000000 280629Z AUTO 00000KT 9999 HZ CLR 25/21 A3001 RMK CDP03661 CLR=
0143007026999992016062806444+00000+000000FM-15+702699999V0209999C000012200019N999999999+02501+02101999999ADDGF100991999999999999999999MA1101631999999REMMET090MOBOB0 METAR 7026 //008 000000 280644Z AUTO 00000KT //// CLR 25/21 A3001 RMK CDP03661 CLR=
0143007026999992016062806594+00000+000000FM-15+702699999V0209999C000012200019N009999199+02501+02201999999ADDGF100991999999999999999999MA1101631999999REMMET090MOBOB0 METAR 7026 //008 000000 280659Z AUTO 00000KT 9999 CLR 25/22 A3001 RMK CDP03661 CLR=
0143007026999992016062807144+00000+000000FM-15+702699999V0209999C000012200019N009999199+02501+02201999999ADDGF100991999999999999999999MA1101591999999REMMET090MOBOB0 METAR 7026 //008 000000 280714Z AUTO 00000KT 9999 CLR 25/22 A3000 RMK CDP03661 CLR=
0143007026999992016062807294+00000+000000FM-15+702699999V0209999C000012200019N009999199+02501+02201999999ADDGF100991999999999999999999MA1101591999999REMMET090MOBOB0 METAR 7026 //008 000000 280729Z AUTO 00000KT 9999 CLR 25/22 A3000 RMK CDP03661 CLR=
0199007026999992016062807444+00000+000000FM-15+702699999V0209999C000019999999N009999199+02501+02201999999ADDGA1021+021951999GE19MSL   +99999+99999GF199999021999021951999999MA1101591999999REMMET108MOBOB0 METAR 7026 //008 000000 280744Z AUTO 00000KT 9999 FEW072 25/22 A3000 RMK CDP03661 FEW072 CLD AVG 072=
0199007026999992016062807594+00000+000000FM-15+702699999V0209999C000010210319N009999199+02501+02201999999ADDGA1081+021031999GE19MSL   +99999+99999GF199999081999021031999999MA1101591999999REMMET108MOBOB0 METAR 7026 //008 000000 280759Z AUTO 00000KT 9999 OVC069 25/22 A3000 RMK CDP03661 OVC069 CLD AVG 069=
0208007026999992016062808144+00000+000000FM-15+702699999V0209999C000010204219N009999199+02501+02201999999ADDAW1051GA1071+020421999GE19MSL   +99999+99999GF199999071999020421999999MA1101591999999REMMET111MOBOB0 METAR 7026 //008 000000 280814Z AUTO 00000KT 9999 HZ BKN067 25/22 A3000 RMK CDP03661 BKN067 CLD AVG 070=
0208007026999992016062808294+00000+000000FM-15+702699999V0209999C000010112819N009999199+02501+02201999999ADDAW1051GA1071+011281999GE19MSL   +99999+99999GF199999071999011281999999MA1101591999999REMMET111MOBOB0 METAR 7026 //008 000000 280829Z AUTO 00000KT 9999 HZ BKN037 25/22 A3000 RMK CDP03661 BKN037 CLD AVG 061=
0208007026999992016062808444+00000+000000FM-15+702699999V0209999C000019999999N009999199+02501+02201999999ADDAW1051GA1021+022561999GE19MSL   +99999+99999GF199999021999022561999999MA1101591999999REMMET111MOBOB0 METAR 7026 //008 000000 280844Z AUTO 00000KT 9999 HZ FEW074 25/22 A3000 RMK CDP03661 FEW074 CLD AVG 074=
0199007026999992016062808594+00000+000000FM-15+702699999V0209999C000010125019N999999999+02501+02201999999ADDGA1081+012501999GE19MSL   +99999+99999GF199999081999012501999999MA1101591999999REMMET108MOBOB0 METAR 7026 //008 000000 280859Z AUTO 00000KT //// OVC041 25/22 A3000 RMK CDP03661 OVC041 CLD AVG 043=
0199007026999992016062809144+00000+000000FM-15+702699999V0209999C000010125019N009999199+02501+02201999999ADDGA1081+012501999GE19MSL   +99999+99999GF199999081999012501999999MA1101631999999REMMET108MOBOB0 METAR 7026 //008 000000 280914Z AUTO 00000KT 9999 OVC041 25/22 A3001 RMK CDP03661 OVC041 CLD AVG 043=
0199007026999992016062809294+00000+000000FM-15+702699999V0209999C000010158519N009999199+02501+02201999999ADDGA1071+015851999GE19MSL   +99999+99999GF199999071999015851999999MA1101631999999REMMET108MOBOB0 METAR 7026 //008 000000 280929Z AUTO 00000KT 9999 BKN052 25/22 A3001 RMK CDP03661 BKN052 CLD AVG 059=
0208007026999992016062809444+00000+000000FM-15+702699999V0209999C000010143319N009999199+02501+02201999999ADDAW1051GA1081+014331999GE19MSL   +99999+99999GF199999081999014331999999MA1101631999999REMMET111MOBOB0 METAR 7026 //008 000000 280944Z AUTO 00000KT 9999 HZ OVC047 25/22 A3001 RMK CDP03661 OVC047 CLD AVG 050=
0208007026999992016062809594+00000+000000FM-15+702699999V0209999C000019999999N009999199+02501+02201999999ADDAW1051GA1021+009751999GE19MSL   +99999+99999GF199999021999009751999999MA1101631999999REMMET111MOBOB0 METAR 7026 //008 000000 280959Z AUTO 00000KT 9999 HZ FEW032 25/22 A3001 RMK CDP03661 FEW032 CLD AVG 032=
0143007026999992016062810144+00000+000000FM-15+702699999V0209999C000012200019N009999199+02501+02201999999ADDGF100991999999999999999999MA1101591999999REMMET090MOBOB0 METAR 7026 //008 000000 281014Z AUTO 00000KT 9999 CLR 25/22 A3000 RMK CDP03661 CLR=
0143007026999992016062810294+00000+000000FM-15+702699999V0209999C000012200019N009999199+02501+02201999999ADDGF100991999999999999999999MA1101591999999REMMET090MOBOB0 METAR 7026 //008 000000 281029Z AUTO 00000KT 9999 CLR 25/22 A3000 RMK CDP03661 CLR=
0143007026999992016062810444+00000+000000FM-15+702699999V0209999C000012200019N009999199+02501+02201999999ADDGF100991999999999999999999MA1101591999999REMMET090MOBOB0 METAR 7026 //008 000000 281044Z AUTO 00000KT 9999 CLR 25/22 A3000 RMK CDP03661 CLR=
0143007026999992016062810594+00000+000000FM-15+702699999V0209999C000012200019N999999999+02501+02201999999ADDGF100991999999999999999999MA1101631999999REMMET090MOBOB0 METAR 7026 //008 000000 281059Z AUTO 00000KT //// CLR 25/22 A3001 RMK CDP03661 CLR=
0152007026999992016062811144+00000+000000FM-15+702699999V0209999C000012200019N009999199+02501+02201999999ADDAW1051GF100991999999999999999999MA1101591999999REMMET093MOBOB0 METAR 7026 //008 000000 281114Z AUTO 00000KT 9999 HZ CLR 25/22 A3000 RMK CDP03661 CLR=
0143007026999992016062811294+00000+000000FM-15+702699999V0209999C000012200019N999999999+02501+02201999999ADDGF100991999999999999999999MA1101591999999REMMET090MOBOB0 METAR 7026 //008 000000 281129Z AUTO 00000KT //// CLR 25/22 A3000 RMK CDP03661 CLR=
0199007026999992016062811444+00000+000000FM-15+702699999V0209999C000010134119N999999999+02501+02201999999ADDGA1071+013411999GE19MSL   +99999+99999GF199999071999013411999999MA1101631999999REMMET108MOBOB0 METAR 7026 //008 000000 281144Z AUTO 00000KT //// BKN044 25/22 A3001 RMK CDP03661 BKN044 CLD AVG 045=
0208007026999992016062811594+00000+000000FM-15+702699999V0209999C000010137219N009999199+02601+02201999999ADDAW1051GA1081+013721999GE19MSL   +99999+99999GF199999081999013721999999MA1101631999999REMMET111MOBOB0 METAR 7026 //008 000000 281159Z AUTO 00000KT 9999 HZ OVC045 26/22 A3001 RMK CDP03661 OVC045 CLD AVG 046=
0208007026999992016062812144+00000+000000FM-15+702699999V0209999C000010140219N009999199+02601+02201999999ADDAW1051GA1081+014021999GE19MSL   +99999+99999GF199999081999014021999999MA1101631999999REMMET111MOBOB0 METAR 7026 //008 000000 281214Z AUTO 00000KT 9999 HZ OVC046 26/22 A3001 RMK CDP03661 OVC046 CLD AVG 047=
0199007026999992016062812294+00000+000000FM-15+702699999V0209999C000010143319N009999199+02601+02201999999ADDGA1071+014331999GE19MSL   +99999+99999GF199999071999014331999999MA1101661999999REMMET108MOBOB0 METAR 7026 //008 000000 281229Z AUTO 00000KT 9999 BKN047 26/22 A3002 RMK CDP03661 BKN047 CLD AVG 047=
0199007026999992016062812444+00000+000000FM-15+702699999V0209999C000010085319N999999999+02601+02201999999ADDGA1081+008531999GE19MSL   +99999+99999GF199999081999008531999999MA1101661999999REMMET108MOBOB0 METAR 7026 //008 000000 281244Z AUTO 00000KT //// OVC028 26/22 A3002 RMK CDP03661 OVC028 CLD AVG 028=
0208007026999992016062812594+00000+000000FM-15+702699999V0209999C000019999999N009999199+02601+02301999999ADDAW1051GA1041+018901999GE19MSL   +99999+99999GF199999041999018901999999MA1101661999999REMMET111MOBOB0 METAR 7026 //008 000000 281259Z AUTO 00000KT 9999 HZ SCT062 26/23 A3002 RMK CDP03661 SCT062 CLD AVG 065=
0208007026999992016062813144+00000+000000FM-15+702699999V0209999C000019999999N004800199+02601+02301999999ADDAW1521GA1041+003051999GE19MSL   +99999+99999GF199999041999003051999999MA1101661999999REMMET111MOBOB0 METAR 7026 //008 000000 281314Z AUTO 00000KT 4800 DZ SCT010 26/23 A3002 RMK CDP03661 SCT010 CLD AVG 011=
0208007026999992016062813294+00000+000000FM-15+702699999V0209999C000010030519N009999199+02501+02301999999ADDAW1051GA1081+003051999GE19MSL   +99999+99999GF199999081999003051999999MA1101691999999REMMET111MOBOB0 METAR 7026 //008 000000 281329Z AUTO 00000KT 9999 HZ OVC010 25/23 A3003 RMK CDP03661 OVC010 CLD AVG 013=
0209007026999992016062813444+00000+000000FM-15+702699999V0209999C000010027419N006000199+02601+02301999999ADDAW1611GA1081+002741999GE19MSL   +99999+99999GF199999081999002741999999MA1101691999999REMMET112MOBOB0 METAR 7026 //008 000000 281344Z AUTO 00000KT 6000 -RA OVC009 26/23 A3003 RMK CDP03661 OVC009 CLD AVG 013=
0208007026999992016062813594+00000+000000FM-15+702699999V0209999C000010021319N002600199+02401+02301999999ADDAW1621GA1081+002131999GE19MSL   +99999+99999GF199999081999002131999999MA1101661999999REMMET111MOBOB0 METAR 7026 //008 000000 281359Z AUTO 00000KT 2600 RA OVC007 24/23 A3002 RMK CDP03661 OVC007 CLD AVG 009=
0208007026999992016062814144+00000+000000FM-15+702699999V0209999C000010021319N002600199+02401+02301999999ADDAW1621GA1081+002131999GE19MSL   +99999+99999GF199999081999002131999999MA1101661999999REMMET111MOBOB0 METAR 7026 //008 000000 281414Z AUTO 00000KT 2600 RA OVC007 24/23 A3002 RMK CDP03661 OVC007 CLD AVG 009=
0208007026999992016062814314+00000+000000FM-15+702699999V0209999C000019999999N004000199+02401+02401999999ADDAW1521GA1041+003661999GE19MSL   +99999+99999GF199999041999003661999999MA1101661999999REMMET111MOBOB0 METAR 7026 //008 000000 281431Z AUTO 00000KT 4000 DZ SCT012 24/24 A3002 RMK CDP03661 SCT012 CLD AVG 030=
0209007026999992016062814594+00000+000000FM-15+702699999V0209999C000010018319N000600199+02401+02401999999ADDAW1631GA1081+001831999GE19MSL   +99999+99999GF199999081999001831999999MA1101691999999REMMET112MOBOB0 METAR 7026 //008 000000 281459Z AUTO 00000KT 0600 +RA OVC006 24/24 A3003 RMK CDP03661 OVC006 CLD AVG 010=
0208007026999992016062815144+00000+000000FM-15+702699999V0209999C000019999999N001000199+02301+02301999999ADDAW1621GA1021+003961999GE19MSL   +99999+99999GF199999021999003961999999MA1101661999999REMMET111MOBOB0 METAR 7026 //008 000000 281514Z AUTO 00000KT 1000 RA FEW013 23/23 A3002 RMK CDP03661 FEW013 CLD AVG 015=
0209007026999992016062815294+00000+000000FM-15+702699999V0209999C000010003019N000800199+02301+02301999999ADDAW1631GA1081+000301999GE19MSL   +99999+99999GF199999081999000301999999MA1101661999999REMMET112MOBOB0 METAR 7026 //008 000000 281529Z AUTO 00000KT 0800 +RA OVC001 23/23 A3002 RMK CDP03661 OVC001 CLD AVG 008=
0209007026999992016062815444+00000+000000FM-15+702699999V0209999C000019999999N002600199+02301+02301999999ADDAW1531GA1041+000301999GE19MSL   +99999+99999GF199999041999000301999999MA1101661999999REMMET112MOBOB0 METAR 7026 //008 000000 281544Z AUTO 00000KT 2600 +DZ SCT001 23/23 A3002 RMK CDP03661 SCT001 CLD AVG 004=
0209007026999992016062815594+00000+000000FM-15+702699999V0209999C000010006119N003200199+02301+02301999999ADDAW1511GA1081+000611999GE19MSL   +99999+99999GF199999081999000611999999MA1101661999999REMMET112MOBOB0 METAR 7026 //008 000000 281559Z AUTO 00000KT 3200 -DZ OVC002 23/23 A3002 RMK CDP03661 OVC002 CLD AVG 002=
0199007026999992016062816144+00000+000000FM-15+702699999V0209999C000010009119N000600199+02301+02301999999ADDGA1081+000911999GE19MSL   +99999+99999GF199999081999000911999999MA1101661999999REMMET108MOBOB0 METAR 7026 //008 000000 281614Z AUTO 00000KT 0600 OVC003 23/23 A3002 RMK CDP03661 OVC003 CLD AVG 010=
0199007026999992016062816294+00000+000000FM-15+702699999V0209999C000010009119N004800199+02401+02401999999ADDGA1071+000911999GE19MSL   +99999+99999GF199999071999000911999999MA1101631999999REMMET108MOBOB0 METAR 7026 //008 000000 281629Z AUTO 00000KT 4800 BKN003 24/24 A3001 RMK CDP03661 BKN003 CLD AVG 003=
0199007026999992016062816444+00000+000000FM-15+702699999V0209999C000019999999N999999999+02401+02401999999ADDGA1041+003351999GE19MSL   +99999+99999GF199999041999003351999999MA1101591999999REMMET108MOBOB0 METAR 7026 //008 000000 281644Z AUTO 00000KT //// SCT011 24/24 A3000 RMK CDP03661 SCT011 CLD AVG 013=
0199007026999992016062816594+00000+000000FM-15+702699999V0209999C000010021319N999999999+02401+02401999999ADDGA1071+002131999GE19MSL   +99999+99999GF199999071999002131999999MA1101591999999REMMET108MOBOB0 METAR 7026 //008 000000 281659Z AUTO 00000KT //// BKN007 24/24 A3000 RMK CDP03661 BKN007 CLD AVG 010=
0199007026999992016062817144+00000+000000FM-15+702699999V0209999C000010021319N004800199+02401+02301999999ADDGA1071+002131999GE19MSL   +99999+99999GF199999071999002131999999MA1101591999999REMMET108MOBOB0 METAR 7026 //008 000000 281714Z AUTO 00000KT 4800 BKN007 24/23 A3000 RMK CDP03661 BKN007 CLD AVG 010=
0143007026999992016062817294+00000+000000FM-15+702699999V0209999C000012200019N999999999+02301+02301999999ADDGF100991999999999999999999MA1101561999999REMMET090MOBOB0 METAR 7026 //008 000000 281729Z AUTO 00000KT //// CLR 23/23 A2999 RMK CDP03661 CLR=
0143007026999992016062817444+00000+000000FM-15+702699999V0209999C000012200019N006000199+02301+02201999999ADDGF100991999999999999999999MA1101591999999REMMET090MOBOB0 METAR 7026 //008 000000 281744Z AUTO 00000KT 6000 CLR 23/22 A3000 RMK CDP03661 CLR=
0199007026999992016062817594+00000+000000FM-15+702699999V0209999C000019999999N001400199+02301+02301999999ADDGA1041+003661999GE19MSL   +99999+99999GF199999041999003661999999MA1101631999999REMMET108MOBOB0 METAR 7026 //008 000000 281759Z AUTO 00000KT 1400 SCT012 23/23 A3001 RMK CDP03661 SCT012 CLD AVG 022=
0199007026999992016062818154+00000+000000FM-15+702699999V0209999C000019999999N001200199+02201+02201999999ADDGA1021+000911999GE19MSL   +99999+99999GF199999021999000911999999MA1101591999999REMMET108MOBOB0 METAR 7026 //008 000000 281815Z AUTO 00000KT 1200 FEW003 22/22 A3000 RMK CDP03661 FEW003 CLD AVG 004=
0199007026999992016062818444+00000+000000FM-15+702699999V0209999C000019999999N999999999+02201+02201999999ADDGA1041+000301999GE19MSL   +99999+99999GF199999041999000301999999MA1101591999999REMMET108MOBOB0 METAR 7026 //008 000000 281844Z AUTO 00000KT //// SCT001 22/22 A3000 RMK CDP03661 SCT001 CLD AVG 002=
0199007026999992016062818594+00000+000000FM-15+702699999V0209999C000019999999N000600199+02201+02201999999ADDGA1041+001831999GE19MSL   +99999+99999GF199999041999001831999999MA1101591999999REMMET108MOBOB0 METAR 7026 //008 000000 281859Z AUTO 00000KT 0600 SCT006 22/22 A3000 RMK CDP03661 SCT006 CLD AVG 010=
0199007026999992016062819144+00000+000000FM-15+702699999V0209999C000010009119N003200199+02201+02201999999ADDGA1081+000911999GE19MSL   +99999+99999GF199999081999000911999999MA1101561999999REMMET108MOBOB0 METAR 7026 //008 000000 281914Z AUTO 00000KT 3200 OVC003 22/22 A2999 RMK CDP03661 OVC003 CLD AVG 005=
0199007026999992016062819294+00000+000000FM-15+702699999V0209999C000019999999N999999999+02201+02201999999ADDGA1041+007321999GE19MSL   +99999+99999GF199999041999007321999999MA1101521999999REMMET108MOBOB0 METAR 7026 //008 000000 281929Z AUTO 00000KT //// SCT024 22/22 A2998 RMK CDP03661 SCT024 CLD AVG 027=
0143007026999992016062819444+00000+000000FM-15+702699999V0209999C000012200019N008000199+02201+02201999999ADDGF100991999999999999999999MA1101491999999REMMET090MOBOB0 METAR 7026 //008 000000 281944Z AUTO 00000KT 8000 CLR 22/22 A2997 RMK CDP03661 CLR=
0143007026999992016062819594+00000+000000FM-15+702699999V0209999C000012200019N008000199+02201+02201999999ADDGF100991999999999999999999MA1101421999999REMMET090MOBOB0 METAR 7026 //008 000000 281959Z AUTO 00000KT 8000 CLR 22/22 A2995 RMK CDP03661 CLR=
0199007026999992016062820144+00000+000000FM-15+702699999V0209999C000010015219N009000199+02201+02201999999ADDGA1071+001521999GE19MSL   +99999+99999GF199999071999001521999999MA1101461999999REMMET108MOBOB0 METAR 7026 //008 000000 282014Z AUTO 00000KT 9000 BKN005 22/22 A2996 RMK CDP03661 BKN005 CLD AVG 006=
0199007026999992016062820294+00000+000000FM-15+702699999V0209999C000010018319N006000199+02201+02201999999ADDGA1081+001831999GE19MSL   +99999+99999GF199999081999001831999999MA1101461999999REMMET108MOBOB0 METAR 7026 //008 000000 282029Z AUTO 00000KT 6000 OVC006 22/22 A2996 RMK CDP03661 OVC006 CLD AVG 006=
0199007026999992016062820444+00000+000000FM-15+702699999V0209999C000010018319N008000199+02201+02201999999ADDGA1081+001831999GE19MSL   +99999+99999GF199999081999001831999999MA1101421999999REMMET108MOBOB0 METAR 7026 //008 000000 282044Z AUTO 00000KT 8000 OVC006 22/22 A2995 RMK CDP03661 OVC006 CLD AVG 008=
0199007026999992016062820594+00000+000000FM-15+702699999V0209999C000010018319N009000199+02301+02301999999ADDGA1081+001831999GE19MSL   +99999+99999GF199999081999001831999999MA1101421999999REMMET108MOBOB0 METAR 7026 //008 000000 282059Z AUTO 00000KT 9000 OVC006 23/23 A2995 RMK CDP03661 OVC006 CLD AVG 007=
0199007026999992016062821144+00000+000000FM-15+702699999V0209999C000010027419N009000199+02301+02301999999ADDGA1081+002741999GE19MSL   +99999+99999GF199999081999002741999999MA1101461999999REMMET108MOBOB0 METAR 7026 //008 000000 282114Z AUTO 00000KT 9000 OVC009 23/23 A2996 RMK CDP03661 OVC009 CLD AVG 010=
0199007026999992016062821294+00000+000000FM-15+702699999V0209999C000010018319N008000199+02301+02301999999ADDGA1081+001831999GE19MSL   +99999+99999GF199999081999001831999999MA1101461999999REMMET108MOBOB0 METAR 7026 //008 000000 282129Z AUTO 00000KT 8000 OVC006 23/23 A2996 RMK CDP03661 OVC006 CLD AVG 008=
0199007026999992016062821444+00000+000000FM-15+702699999V0209999C000010015219N008000199+02301+02301999999ADDGA1081+001521999GE19MSL   +99999+99999GF199999081999001521999999MA1101421999999REMMET108MOBOB0 METAR 7026 //008 000000 282144Z AUTO 00000KT 8000 OVC005 23/23 A2995 RMK CDP03661 OVC005 CLD AVG 007=
0199007026999992016062821594+00000+000000FM-15+702699999V0209999C000010018319N009999199+02301+02301999999ADDGA1071+001831999GE19MSL   +99999+99999GF199999071999001831999999MA1101391999999REMMET108MOBOB0 METAR 7026 //008 000000 282159Z AUTO 00000KT 9999 BKN006 23/23 A2994 RMK CDP03661 BKN006 CLD AVG 014=
0199007026999992016062822144+00000+000000FM-15+702699999V0209999C000010036619N009999199+02301+02301999999ADDGA1081+003661999GE19MSL   +99999+99999GF199999081999003661999999MA1101391999999REMMET108MOBOB0 METAR 7026 //008 000000 282214Z AUTO 00000KT 9999 OVC012 23/23 A2994 RMK CDP03661 OVC012 CLD AVG 012=
0199007026999992016062822294+00000+000000FM-15+702699999V0209999C000010033519N009999199+02301+02201999999ADDGA1081+003351999GE19MSL   +99999+99999GF199999081999003351999999MA1101421999999REMMET108MOBOB0 METAR 7026 //008 000000 282229Z AUTO 00000KT 9999 OVC011 23/22 A2995 RMK CDP03661 OVC011 CLD AVG 013=
0199007026999992016062822444+00000+000000FM-15+702699999V0209999C000010039619N999999999+02301+02201999999ADDGA1081+003961999GE19MSL   +99999+99999GF199999081999003961999999MA1101421999999REMMET108MOBOB0 METAR 7026 //008 000000 282244Z AUTO 00000KT //// OVC013 23/22 A2995 RMK CDP03661 OVC013 CLD AVG 016=
0199007026999992016062822594+00000+000000FM-15+702699999V0209999C000010051819N009000199+02401+02301999999ADDGA1081+005181999GE19MSL   +99999+99999GF199999081999005181999999MA1101461999999REMMET108MOBOB0 METAR 7026 //008 000000 282259Z AUTO 00000KT 9000 OVC017 24/23 A2996 RMK CDP03661 OVC017 CLD AVG 017=
0199007026999992016062823144+00000+000000FM-15+702699999V0209999C000010051819N009000199+02401+02301999999ADDGA1081+005181999GE19MSL   +99999+99999GF199999081999005181999999MA1101461999999REMMET108MOBOB0 METAR 7026 //008 000000 282314Z AUTO 00000KT 9000 OVC017 24/23 A2996 RMK CDP03661 OVC017 CLD AVG 018=
0199007026999992016062823294+00000+000000FM-15+702699999V0209999C000010054919N009000199+02401+02301999999ADDGA1071+005491999GE19MSL   +99999+99999GF199999071999005491999999MA1101461999999REMMET108MOBOB0 METAR 7026 //008 000000 282329Z AUTO 00000KT 9000 BKN018 24/23 A2996 RMK CDP03661 BKN018 CLD AVG 021=
0143007026999992016062823444+00000+000000FM-15+702699999V0209999C000012200019N008000199+02401+02301999999ADDGF100991999999999999999999MA1101461999999REMMET090MOBOB0 METAR 7026 //008 000000 282344Z AUTO 00000KT 8000 CLR 24/23 A2996 RMK CDP03661 CLR=
0143007026999992016062823594+00000+000000FM-15+702699999V0209999C000012200019N999999999+02401+02301999999ADDGF100991999999999999999999MA1101421999999REMMET090MOBOB0 METAR 7026 //008 000000 282359Z AUTO 00000KT //// CLR 24/23 A2995 RMK CDP03661 CLR=
0143007026999992016062900144+00000+000000FM-15+702699999V0209999C000012200019N008000199+02401+02301999999ADDGF100991999999999999999999MA1101421999999REMMET090MOBOB0 METAR 7026 //008 000000 290014Z AUTO 00000KT 8000 CLR 24/23 A2995 RMK CDP03661 CLR=
0143007026999992016062900294+00000+000000FM-15+702699999V0209999C000012200019N006000199+02401+02301999999ADDGF100991999999999999999999MA1101421999999REMMET090MOBOB0 METAR 7026 //008 000000 290029Z AUTO 00000KT 6000 CLR 24/23 A2995 RMK CDP03661 CLR=
0143007026999992016062900444+00000+000000FM-15+702699999V0209999C000012200019N006000199+02301+02301999999ADDGF100991999999999999999999MA1101421999999REMMET090MOBOB0 METAR 7026 //008 000000 290044Z AUTO 00000KT 6000 CLR 23/23 A2995 RMK CDP03661 CLR=
0143007026999992016062900594+00000+000000FM-15+702699999V0209999C000012200019N004000199+02301+02301999999ADDGF100991999999999999999999MA1101421999999REMMET090MOBOB0 METAR 7026 //008 000000 290059Z AUTO 00000KT 4000 CLR 23/23 A2995 RMK CDP03661 CLR=
0143007026999992016062901144+00000+000000FM-15+702699999V0209999C000012200019N003600199+02301+02301999999ADDGF100991999999999999999999MA1101421999999REMMET090MOBOB0 METAR 7026 //008 000000 290114Z AUTO 00000KT 3600 CLR 23/23 A2995 RMK CDP03661 CLR=
0143007026999992016062901294+00000+000000FM-15+702699999V0209999C000012200019N999999999+02301+02301999999ADDGF100991999999999999999999MA1101461999999REMMET090MOBOB0 METAR 7026 //008 000000 290129Z AUTO 00000KT //// CLR 23/23 A2996 RMK CDP03661 CLR=
0143007026999992016062901444+00000+000000FM-15+702699999V0209999C000012200019N001400199+02301+02301999999ADDGF100991999999999999999999MA1101461999999REMMET090MOBOB0 METAR 7026 //008 000000 290144Z AUTO 00000KT 1400 CLR 23/23 A2996 RMK CDP03661 CLR=
0143007026999992016062901594+00000+000000FM-15+702699999V0209999C000012200019N001400199+02301+02301999999ADDGF100991999999999999999999MA1101461999999REMMET090MOBOB0 METAR 7026 //008 000000 290159Z AUTO 00000KT 1400 CLR 23/23 A2996 RMK CDP03661 CLR=
0143007026999992016062902144+00000+000000FM-15+702699999V0209999C000012200019N999999999+02301+02201999999ADDGF100991999999999999999999MA1101461999999REMMET090MOBOB0 METAR 7026 //008 000000 290214Z AUTO 00000KT //// CLR 23/22 A2996 RMK CDP03661 CLR=
0143007026999992016062902294+00000+000000FM-15+702699999V0209999C000012200019N000500199+02301+02201999999ADDGF100991999999999999999999MA1101461999999REMMET090MOBOB0 METAR 7026 //008 000000 290229Z AUTO 00000KT 0500 CLR 23/22 A2996 RMK CDP03661 CLR=
0143007026999992016062902444+00000+000000FM-15+702699999V0209999C000012200019N000200199+02301+02301999999ADDGF100991999999999999999999MA1101461999999REMMET090MOBOB0 METAR 7026 //008 000000 290244Z AUTO 00000KT 0200 CLR 23/23 A2996 RMK CDP03661 CLR=
0199007026999992016062902594+00000+000000FM-15+702699999V0209999C000019999999N999999999+02301+02201999999ADDGA1041+000001999GE19MSL   +99999+99999GF199999041999000001999999MA1101461999999REMMET108MOBOB0 METAR 7026 //008 000000 290259Z AUTO 00000KT //// SCT000 23/22 A2996 RMK CDP03661 SCT000 CLD AVG 010=
0143007026999992016062903144+00000+000000FM-15+702699999V0209999C000012200019N001000199+02301+02201999999ADDGF100991999999999999999999MA1101461999999REMMET090MOBOB0 METAR 7026 //008 000000 290314Z AUTO 00000KT 1000 CLR 23/22 A2996 RMK CDP03661 CLR=
0143007026999992016062903294+00000+000000FM-15+702699999V0209999C000012200019N001200199+02301+02201999999ADDGF100991999999999999999999MA1101461999999REMMET090MOBOB0 METAR 7026 //008 000000 290329Z AUTO 00000KT 1200 CLR 23/22 A2996 RMK CDP03661 CLR=
0143007026999992016062903444+00000+000000FM-15+702699999V0209999C000012200019N999999999+02301+02201999999ADDGF100991999999999999999999MA1101461999999REMMET090MOBOB0 METAR 7026 //008 000000 290344Z AUTO 00000KT //// CLR 23/22 A2996 RMK CDP03661 CLR=
0199007026999992016062903594+00000+000000FM-15+702699999V0209999C000019999999N001400199+02201+02201999999ADDGA1021+001221999GE19MSL   +99999+99999GF199999021999001221999999MA1101491999999REMMET108MOBOB0 METAR 7026 //008 000000 290359Z AUTO 00000KT 1400 FEW004 22/22 A2997 RMK CDP03661 FEW004 CLD AVG 004=
0143007026999992016062904144+00000+000000FM-15+702699999V0209999C000012200019N001600199+02201+02201999999ADDGF100991999999999999999999MA1101461999999REMMET090MOBOB0 METAR 7026 //008 000000 290414Z AUTO 00000KT 1600 CLR 22/22 A2996 RMK CDP03661 CLR=
0143007026999992016062904294+00000+000000FM-15+702699999V0209999C000012200019N001600199+02201+02201999999ADDGF100991999999999999999999MA1101491999999REMMET090MOBOB0 METAR 7026 //008 000000 290429Z AUTO 00000KT 1600 CLR 22/22 A2997 RMK CDP03661 CLR=
0199007026999992016062904444+00000+000000FM-15+702699999V0209999C000019999999N999999999+02301+02201999999ADDGA1021+000001999GE19MSL   +99999+99999GF199999021999000001999999MA1101461999999REMMET108MOBOB0 METAR 7026 //008 000000 290444Z AUTO 00000KT //// FEW000 23/22 A2996 RMK CDP03661 FEW000 CLD AVG 007=
0143007026999992016062904594+00000+000000FM-15+702699999V0209999C000012200019N002400199+02301+02201999999ADDGF100991999999999999999999MA1101461999999REMMET090MOBOB0 METAR 7026 //008 000000 290459Z AUTO 00000KT 2400 CLR 23/22 A2996 RMK CDP03661 CLR=
0199007026999992016062905144+00000+000000FM-15+702699999V0209999C000019999999N001400199+02201+02201999999ADDGA1021+003961999GE19MSL   +99999+99999GF199999021999003961999999MA1101421999999REMMET108MOBOB0 METAR 7026 //008 000000 290514Z AUTO 00000KT 1400 FEW013 22/22 A2995 RMK CDP03661 FEW013 CLD AVG 013=
0199007026999992016062905294+00000+000000FM-15+702699999V0209999C000019999999N001400199+02201+02201999999ADDGA1041+004271999GE19MSL   +99999+99999GF199999041999004271999999MA1101421999999REMMET108MOBOB0 METAR 7026 //008 000000 290529Z AUTO 00000KT 1400 SCT014 22/22 A2995 RMK CDP03661 SCT014 CLD AVG 014=
0143007026999992016062905444+00000+000000FM-15+702699999V0209999C000012200019N001200199+02201+02201999999ADDGF100991999999999999999999MA1101391999999REMMET090MOBOB0 METAR 7026 //008 000000 290544Z AUTO 00000KT 1200 CLR 22/22 A2994 RMK CDP03661 CLR=
0143007026999992016062905594+00000+000000FM-15+702699999V0209999C000012200019N000600199+02201+02201999999ADDGF100991999999999999999999MA1101391999999REMMET090MOBOB0 METAR 7026 //008 000000 290559Z AUTO 00000KT 0600 CLR 22/22 A2994 RMK CDP03661 CLR=
0143007026999992016062906144+00000+000000FM-15+702699999V0209999C000012200019N001000199+02201+02201999999ADDGF100991999999999999999999MA1101391999999REMMET090MOBOB0 METAR 7026 //008 000000 290614Z AUTO 00000KT 1000 CLR 22/22 A2994 RMK CDP03661 CLR=
0143007026999992016062906294+00000+000000FM-15+702699999V0209999C000012200019N000600199+02201+02201999999ADDGF100991999999999999999999MA1101351999999REMMET090MOBOB0 METAR 7026 //008 000000 290629Z AUTO 00000KT 0600 CLR 22/22 A2993 RMK CDP03661 CLR=
0143007026999992016062906444+00000+000000FM-15+702699999V0209999C000012200019N001400199+02201+02201999999ADDGF100991999999999999999999MA1101351999999REMMET090MOBOB0 METAR 7026 //008 000000 290644Z AUTO 00000KT 1400 CLR 22/22 A2993 RMK CDP03661 CLR=
0199007026999992016062906594+00000+000000FM-15+702699999V0209999C000019999999N999999999+02201+02201999999ADDGA1041+000001999GE19MSL   +99999+99999GF199999041999000001999999MA1101351999999REMMET108MOBOB0 METAR 7026 //008 000000 290659Z AUTO 00000KT //// SCT000 22/22 A2993 RMK CDP03661 SCT000 CLD AVG 000=
0199007026999992016062907144+00000+000000FM-15+702699999V0209999C000010018319N001200199+02201+02201999999ADDGA1071+001831999GE19MSL   +99999+99999GF199999071999001831999999MA1101351999999REMMET108MOBOB0 METAR 7026 //008 000000 290714Z AUTO 00000KT 1200 BKN006 22/22 A2993 RMK CDP03661 BKN006 CLD AVG 007=
0143007026999992016062907294+00000+000000FM-15+702699999V0209999C000012200019N999999999+02201+02201999999ADDGF100991999999999999999999MA1101351999999REMMET090MOBOB0 METAR 7026 //008 000000 290729Z AUTO 00000KT //// CLR 22/22 A2993 RMK CDP03661 CLR=
0199007026999992016062907444+00000+000000FM-15+702699999V0209999C000019999999N002000199+02201+02201999999ADDGA1041+000911999GE19MSL   +99999+99999GF199999041999000911999999MA1101351999999REMMET108MOBOB0 METAR 7026 //008 000000 290744Z AUTO 00000KT 2000 SCT003 22/22 A2993 RMK CDP03661 SCT003 CLD AVG 004=
0199007026999992016062907594+00000+000000FM-15+702699999V0209999C000010003019N001000199+02201+02201999999ADDGA1071+000301999GE19MSL   +99999+99999GF199999071999000301999999MA1101351999999REMMET108MOBOB0 METAR 7026 //008 000000 290759Z AUTO 00000KT 1000 BKN001 22/22 A2993 RMK CDP03661 BKN001 CLD AVG 001=
0199007026999992016062908144+00000+000000FM-15+702699999V0209999C000010000019N000300199+02301+02201999999ADDGA1081+000001999GE19MSL   +99999+99999GF199999081999000001999999MA1101351999999REMMET108MOBOB0 METAR 7026 //008 000000 290814Z AUTO 00000KT 0300 OVC000 23/22 A2993 RMK CDP03661 OVC000 CLD AVG 000=
0199007026999992016062908294+00000+000000FM-15+702699999V0209999C000010000019N000300199+02201+02201999999ADDGA1081+000001999GE19MSL   +99999+99999GF199999081999000001999999MA1101391999999REMMET108MOBOB0 METAR 7026 //008 000000 290829Z AUTO 00000KT 0300 OVC000 22/22 A2994 RMK CDP03661 OVC000 CLD AVG 000=
0199007026999992016062908444+00000+000000FM-15+702699999V0209999C000010000019N999999999+02201+02201999999ADDGA1081+000001999GE19MSL   +99999+99999GF199999081999000001999999MA1101391999999REMMET108MOBOB0 METAR 7026 //008 000000 290844Z AUTO 00000KT //// OVC000 22/22 A2994 RMK CDP03661 OVC000 CLD AVG 000=
0199007026999992016062908594+00000+000000FM-15+702699999V0209999C000010000019N000200199+02201+02201999999ADDGA1081+000001999GE19MSL   +99999+99999GF199999081999000001999999MA1101351999999REMMET108MOBOB0 METAR 7026 //008 000000 290859Z AUTO 00000KT 0200 OVC000 22/22 A2993 RMK CDP03661 OVC000 CLD AVG 000=
0199007026999992016062909144+00000+000000FM-15+702699999V0209999C000010000019N000200199+02201+02201999999ADDGA1081+000001999GE19MSL   +99999+99999GF199999081999000001999999MA1101351999999REMMET108MOBOB0 METAR 7026 //008 000000 290914Z AUTO 00000KT 0200 OVC000 22/22 A2993 RMK CDP03661 OVC000 CLD AVG 000=
0199007026999992016062909294+00000+000000FM-15+702699999V0209999C000010000019N999999999+02201+02201999999ADDGA1081+000001999GE19MSL   +99999+99999GF199999081999000001999999MA1101351999999REMMET108MOBOB0 METAR 7026 //008 000000 290929Z AUTO 00000KT //// OVC000 22/22 A2993 RMK CDP03661 OVC000 CLD AVG 000=
0199007026999992016062909444+00000+000000FM-15+702699999V0209999C000010000019N000300199+02201+02201999999ADDGA1081+000001999GE19MSL   +99999+99999GF199999081999000001999999MA1101391999999REMMET108MOBOB0 METAR 7026 //008 000000 290944Z AUTO 00000KT 0300 OVC000 22/22 A2994 RMK CDP03661 OVC000 CLD AVG 000=
0199007026999992016062909594+00000+000000FM-15+702699999V0209999C000010000019N000200199+02201+02201999999ADDGA1081+000001999GE19MSL   +99999+99999GF199999081999000001999999MA1101421999999REMMET108MOBOB0 METAR 7026 //008 000000 290959Z AUTO 00000KT 0200 OVC000 22/22 A2995 RMK CDP03661 OVC000 CLD AVG 000=
0199007026999992016062910144+00000+000000FM-15+702699999V0209999C000010000019N000100199+02201+02201999999ADDGA1081+000001999GE19MSL   +99999+99999GF199999081999000001999999MA1101421999999REMMET108MOBOB0 METAR 7026 //008 000000 291014Z AUTO 00000KT 0100 OVC000 22/22 A2995 RMK CDP03661 OVC000 CLD AVG 000=
0199007026999992016062910294+00000+000000FM-15+702699999V0209999C000010000019N000100199+02101+02101999999ADDGA1081+000001999GE19MSL   +99999+99999GF199999081999000001999999MA1101461999999REMMET108MOBOB0 METAR 7026 //008 000000 291029Z AUTO 00000KT 0100 OVC000 21/21 A2996 RMK CDP03661 OVC000 CLD AVG 000=
0199007026999992016062910444+00000+000000FM-15+702699999V0209999C000010000019N000200199+02101+02101999999ADDGA1081+000001999GE19MSL   +99999+99999GF199999081999000001999999MA1101491999999REMMET108MOBOB0 METAR 7026 //008 000000 291044Z AUTO 00000KT 0200 OVC000 21/21 A2997 RMK CDP03661 OVC000 CLD AVG 000=
0199007026999992016062910594+00000+000000FM-15+702699999V0209999C000019999999N000800199+02101+02101999999ADDGA1041+000001999GE19MSL   +99999+99999GF199999041999000001999999MA1101491999999REMMET108MOBOB0 METAR 7026 //008 000000 291059Z AUTO 00000KT 0800 SCT000 21/21 A2997 RMK CDP03661 SCT000 CLD AVG 000=
0199007026999992016062911144+00000+000000FM-15+702699999V0209999C000010000019N999999999+02201+02201999999ADDGA1071+000001999GE19MSL   +99999+99999GF199999071999000001999999MA1101491999999REMMET108MOBOB0 METAR 7026 //008 000000 291114Z AUTO 00000KT //// BKN000 22/22 A2997 RMK CDP03661 BKN000 CLD AVG 000=
0143007026999992016062911294+00000+000000FM-15+702699999V0209999C000012200019N003200199+02201+02201999999ADDGF100991999999999999999999MA1101491999999REMMET090MOBOB0 METAR 7026 //008 000000 291129Z AUTO 00000KT 3200 CLR 22/22 A2997 RMK CDP03661 CLR=
0143007026999992016062911444+00000+000000FM-15+702699999V0209999C000012200019N006000199+02301+02201999999ADDGF100991999999999999999999MA1101491999999REMMET090MOBOB0 METAR 7026 //008 000000 291144Z AUTO 00000KT 6000 CLR 23/22 A2997 RMK CDP03661 CLR=
0143007026999992016062911594+00000+000000FM-15+702699999V0209999C000012200019N009999199+02301+02201999999ADDGF100991999999999999999999MA1101491999999REMMET090MOBOB0 METAR 7026 //008 000000 291159Z AUTO 00000KT 9999 CLR 23/22 A2997 RMK CDP03661 CLR=
0143007026999992016062912144+00000+000000FM-15+702699999V0209999C000012200019N009999199+02401+02201999999ADDGF100991999999999999999999MA1101521999999REMMET090MOBOB0 METAR 7026 //008 000000 291214Z AUTO 00000KT 9999 CLR 24/22 A2998 RMK CDP03661 CLR=
0143007026999992016062912294+00000+000000FM-15+702699999V0209999C000012200019N009999199+02501+02201999999ADDGF100991999999999999999999MA1101521999999REMMET090MOBOB0 METAR 7026 //008 000000 291229Z AUTO 00000KT 9999 CLR 25/22 A2998 RMK CDP03661 CLR=
0143007026999992016062912444+00000+000000FM-15+702699999V0209999C000012200019N009999199+02601+02201999999ADDGF100991999999999999999999MA1101521999999REMMET090MOBOB0 METAR 7026 //008 000000 291244Z AUTO 00000KT 9999 CLR 26/22 A2998 RMK CDP03661 CLR=
0143007026999992016062912594+00000+000000FM-15+702699999V0209999C000012200019N999999999+02601+02201999999ADDGF100991999999999999999999MA1101561999999REMMET090MOBOB0 METAR 7026 //008 000000 291259Z AUTO 00000KT //// CLR 26/22 A2999 RMK CDP03661 CLR=
0143007026999992016062913144+00000+000000FM-15+702699999V0209999C000012200019N009999199+02701+02201999999ADDGF100991999999999999999999MA1101521999999REMMET090MOBOB0 METAR 7026 //008 000000 291314Z AUTO 00000KT 9999 CLR 27/22 A2998 RMK CDP03661 CLR=
0143007026999992016062913294+00000+000000FM-15+702699999V0209999C000012200019N009999199+02701+02201999999ADDGF100991999999999999999999MA1101521999999REMMET090MOBOB0 METAR 7026 //008 000000 291329Z AUTO 00000KT 9999 CLR 27/22 A2998 RMK CDP03661 CLR=
0143007026999992016062913444+00000+000000FM-15+702699999V0209999C000012200019N009999199+02801+02201999999ADDGF100991999999999999999999MA1101521999999REMMET090MOBOB0 METAR 7026 //008 000000 291344Z AUTO 00000KT 9999 CLR 28/22 A2998 RMK CDP03661 CLR=
0143007026999992016062913594+00000+000000FM-15+702699999V0209999C000012200019N009999199+02801+02201999999ADDGF100991999999999999999999MA1101561999999REMMET090MOBOB0 METAR 7026 //008 000000 291359Z AUTO 00000KT 9999 CLR 28/22 A2999 RMK CDP03661 CLR=
0143007026999992016062914144+00000+000000FM-15+702699999V0209999C000012200019N009999199+02801+02301999999ADDGF100991999999999999999999MA1101521999999REMMET090MOBOB0 METAR 7026 //008 000000 291414Z AUTO 00000KT 9999 CLR 28/23 A2998 RMK CDP03661 CLR=
0143007026999992016062914294+00000+000000FM-15+702699999V0209999C000012200019N999999999+02901+02201999999ADDGF100991999999999999999999MA1101521999999REMMET090MOBOB0 METAR 7026 //008 000000 291429Z AUTO 00000KT //// CLR 29/22 A2998 RMK CDP03661 CLR=
0143007026999992016062914444+00000+000000FM-15+702699999V0209999C000012200019N009999199+02901+02201999999ADDGF100991999999999999999999MA1101521999999REMMET090MOBOB0 METAR 7026 //008 000000 291444Z AUTO 00000KT 9999 CLR 29/22 A2998 RMK CDP03661 CLR=
0143007026999992016062914594+00000+000000FM-15+702699999V0209999C000012200019N009999199+03001+02201999999ADDGF100991999999999999999999MA1101521999999REMMET090MOBOB0 METAR 7026 //008 000000 291459Z AUTO 00000KT 9999 CLR 30/22 A2998 RMK CDP03661 CLR=
